{"type":"FeatureCollection","crs":{"type":"name","properties":{"name":"EPSG:4326"}},"features":[{"type":"Feature","id":1,"geometry":{"type":"Point","coordinates":[-82.0502799996993,27.0165899991783]},"properties":{"OBJECTID_1":1,"OBJECTID":1,"Name":"GREYHOUND-PORT CHARLOTTE","Address":"900 KINGS HWY","City":"PORT CHARLOTTE","Zip":" ","COUNTY":"Charlotte","X":-82.05028,"Y":27.01659,"LONGLAT":"-82.05028000,27.01659000","USNG":"17R LK 95808 88706","OWNERSHIP":" ","PARCELID":" ","FACILITY_T":"BUS TERMINAL","Asset_Elevation":null,"Owned_Maintained":" ","Asset":"BUS TERMINAL","Asset_Sub_Type":null,"Asset_Type":"Bus Terminals","Asset_Group":"Transportation and Evacuation Routes","Asset_Relevancy":"Regionally Significant","Asset_ID":"BUS_000001","Municipality":null,"Water_Management_District":"Southwest Florida Water Management District","Souce_Dataset_Entity":"FDEM","Souce_Dataset_Name":"Bus Terminals - FDEM","Source_Asset_ID":null,"Restricted_Public_Disclosure":null,"Notes":null,"Regional_Planning_Council":"Southwest Florida","FDEP_Regulatory_District":"South District","RCP_Region":"Southwest","FDOT_District":1,"House_District_Number":76,"Senate_District_Number":27,"CTF_RL_2020":"Not Affected","CTF_RL_2040_IL":"Not Affected","CTF_RL_2040_INT":"Not Affected","CTF_RL_2070_IL":"Not Affected","CTF_RL_2070_INT":"Not Affected","SSF_RL_100YR_CURR":"Not Affected","SSF_RL_100YR_2040_IL":"Not Affected","SSF_RL_100YR_2040_INT":"Not Affected","SSF_RL_100YR_2070_IL":"Not Affected","SSF_RL_100YR_2070_INT":"Not Affected","SSF_RL_500YR_CURR":"Not Affected","SSF_RL_500YR_2040_IL":"Not Affected","SSF_RL_500YR_2040_INT":"Not Affected","SSF_RL_500YR_2070_IL":"Not Affected","SSF_RL_500YR_2070_INT":"Not Affected","RIF_RL_100YR_2020":"Not Affected","RIF_RL_100YR_2040":"Not Affected","RIF_RL_100YR_2070":"Not Affected","RIF_RL_500YR_2020":"Not Affected","RIF_RL_500YR_2040":"Not Affected","RIF_RL_500YR_2070":"Not Affected"}},{"type":"Feature","id":2,"geometry":{"type":"Point","coordinates":[-80.6299899997982,24.9226799994504]},"properties":{"OBJECTID_1":2,"OBJECTID":2,"Name":"GREYHOUND-ISLAMORADA","Address":"82201 OVERSEAS HWY","City":"ISLAMORADA","Zip":" ","COUNTY":"Monroe","X":-80.62999,"Y":24.92268,"LONGLAT":"-80.62999000,24.92268000","USNG":"17R NH 37361 56437","OWNERSHIP":" ","PARCELID":" ","FACILITY_T":"BUS TERMINAL","Asset_Elevation":null,"Owned_Maintained":" ","Asset":"BUS TERMINAL","Asset_Sub_Type":null,"Asset_Type":"Bus Terminals","Asset_Group":"Transportation and Evacuation Routes","Asset_Relevancy":"Regionally Significant","Asset_ID":"BUS_000002","Municipality":"Islamorada, Village of Islands","Water_Management_District":"South Florida Water Management District","Souce_Dataset_Entity":"FDEM","Souce_Dataset_Name":"Bus Terminals - FDEM","Source_Asset_ID":null,"Restricted_Public_Disclosure":null,"Notes":null,"Regional_Planning_Council":"South Florida","FDEP_Regulatory_District":"Southeast District","RCP_Region":"Southeast","FDOT_District":6,"House_District_Number":120,"Senate_District_Number":40,"CTF_RL_2020":"Not Affected","CTF_RL_2040_IL":"Not Affected","CTF_RL_2040_INT":"Not Affected","CTF_RL_2070_IL":"Not Affected","CTF_RL_2070_INT":"Not Affected","SSF_RL_100YR_CURR":"Not Affected","SSF_RL_100YR_2040_IL":"Not Affected","SSF_RL_100YR_2040_INT":"Low","SSF_RL_100YR_2070_IL":"Medium","SSF_RL_100YR_2070_INT":"Medium","SSF_RL_500YR_CURR":"High","SSF_RL_500YR_2040_IL":"High","SSF_RL_500YR_2040_INT":"High","SSF_RL_500YR_2070_IL":"High","SSF_RL_500YR_2070_INT":"High","RIF_RL_100YR_2020":"Not Affected","RIF_RL_100YR_2040":"Not Affected","RIF_RL_100YR_2070":"Not Affected","RIF_RL_500YR_2020":"Not Affected","RIF_RL_500YR_2040":"Not Affected","RIF_RL_500YR_2070":"Not Affected"}},{"type":"Feature","id":3,"geometry":{"type":"Point","coordinates":[-84.2824300003554,30.4447199993522]},"properties":{"OBJECTID_1":3,"OBJECTID":3,"Name":"GREYHOUND-TALLAHASSEE","Address":"112 W TENNESSEE ST","City":"TALLAHASSEE","Zip":" ","COUNTY":"Leon","X":-84.28243,"Y":30.44472,"LONGLAT":"-84.28243000,30.44472000","USNG":"16R GU 60974 71203","OWNERSHIP":" ","PARCELID":" ","FACILITY_T":"BUS TERMINAL","Asset_Elevation":null,"Owned_Maintained":" ","Asset":"BUS TERMINAL","Asset_Sub_Type":null,"Asset_Type":"Bus Terminals","Asset_Group":"Transportation and Evacuation Routes","Asset_Relevancy":"Regionally Significant","Asset_ID":"BUS_000003","Municipality":"Tallahassee","Water_Management_District":"Northwest Florida Water Management District","Souce_Dataset_Entity":"FDEM","Souce_Dataset_Name":"Bus Terminals - FDEM","Source_Asset_ID":null,"Restricted_Public_Disclosure":null,"Notes":null,"Regional_Planning_Council":"Apalachee","FDEP_Regulatory_District":"Northwest District","RCP_Region":"Northwest","FDOT_District":3,"House_District_Number":8,"Senate_District_Number":3,"CTF_RL_2020":"Not Affected","CTF_RL_2040_IL":"Not Affected","CTF_RL_2040_INT":"Not Affected","CTF_RL_2070_IL":"Not Affected","CTF_RL_2070_INT":"Not Affected","SSF_RL_100YR_CURR":"Not Affected","SSF_RL_100YR_2040_IL":"Not Affected","SSF_RL_100YR_2040_INT":"Not Affected","SSF_RL_100YR_2070_IL":"Not Affected","SSF_RL_100YR_2070_INT":"Not Affected","SSF_RL_500YR_CURR":"Not Affected","SSF_RL_500YR_2040_IL":"Not Affected","SSF_RL_500YR_2040_INT":"Not Affected","SSF_RL_500YR_2070_IL":"Not Affected","SSF_RL_500YR_2070_INT":"Not Affected","RIF_RL_100YR_2020":"Not Affected","RIF_RL_100YR_2040":"Not Affected","RIF_RL_100YR_2070":"Not Affected","RIF_RL_500YR_2020":"Not Affected","RIF_RL_500YR_2040":"Not Affected","RIF_RL_500YR_2070":"Not Affected"}},{"type":"Feature","id":4,"geometry":{"type":"Point","coordinates":[-80.0619899996028,26.7121899992815]},"properties":{"OBJECTID_1":4,"OBJECTID":4,"Name":"GREYHOUND-WEST PALM BEACH","Address":"205 S TAMARIND AVE","City":"WEST PALM BEACH","Zip":" ","COUNTY":"Palm Beach","X":-80.06199,"Y":26.71219,"LONGLAT":"-80.06199000,26.71219000","USNG":"17R NK 93303 54901","OWNERSHIP":" ","PARCELID":" ","FACILITY_T":"BUS TERMINAL","Asset_Elevation":null,"Owned_Maintained":" ","Asset":"BUS TERMINAL","Asset_Sub_Type":null,"Asset_Type":"Bus Terminals","Asset_Group":"Transportation and Evacuation Routes","Asset_Relevancy":"Regionally Significant","Asset_ID":"BUS_000004","Municipality":"West Palm Beach","Water_Management_District":"South Florida Water Management District","Souce_Dataset_Entity":"FDEM","Souce_Dataset_Name":"Bus Terminals - FDEM","Source_Asset_ID":null,"Restricted_Public_Disclosure":null,"Notes":null,"Regional_Planning_Council":"Treasure Coast","FDEP_Regulatory_District":"Southeast District","RCP_Region":"Southeast","FDOT_District":4,"House_District_Number":87,"Senate_District_Number":24,"CTF_RL_2020":"Not Affected","CTF_RL_2040_IL":"Not Affected","CTF_RL_2040_INT":"Not Affected","CTF_RL_2070_IL":"Not Affected","CTF_RL_2070_INT":"Not Affected","SSF_RL_100YR_CURR":"Not Affected","SSF_RL_100YR_2040_IL":"Not Affected","SSF_RL_100YR_2040_INT":"Not Affected","SSF_RL_100YR_2070_IL":"Not Affected","SSF_RL_100YR_2070_INT":"Not Affected","SSF_RL_500YR_CURR":"Not Affected","SSF_RL_500YR_2040_IL":"Not Affected","SSF_RL_500YR_2040_INT":"Not Affected","SSF_RL_500YR_2070_IL":"Not Affected","SSF_RL_500YR_2070_INT":"Not Affected","RIF_RL_100YR_2020":"Not Affected","RIF_RL_100YR_2040":"Not Affected","RIF_RL_100YR_2070":"Not Affected","RIF_RL_500YR_2020":"Not Affected","RIF_RL_500YR_2040":"Not Affected","RIF_RL_500YR_2070":"Not Affected"}},{"type":"Feature","id":5,"geometry":{"type":"Point","coordinates":[-81.7546600003744,24.5535399997797]},"properties":{"OBJECTID_1":5,"OBJECTID":5,"Name":"GREYHOUND-KEY WEST INT'L","Address":"3535 S ROOSEVELT BLVD","City":"KEY WEST","Zip":" ","COUNTY":"Monroe","X":-81.75466,"Y":24.55354,"LONGLAT":"-81.75466000,24.55354000","USNG":"17R MH 23573 15722","OWNERSHIP":" ","PARCELID":" ","FACILITY_T":"BUS TERMINAL","Asset_Elevation":null,"Owned_Maintained":" ","Asset":"BUS TERMINAL","Asset_Sub_Type":null,"Asset_Type":"Bus Terminals","Asset_Group":"Transportation and Evacuation Routes","Asset_Relevancy":"Regionally Significant","Asset_ID":"BUS_000005","Municipality":"Key West","Water_Management_District":"South Florida Water Management District","Souce_Dataset_Entity":"FDEM","Souce_Dataset_Name":"Bus Terminals - FDEM","Source_Asset_ID":null,"Restricted_Public_Disclosure":null,"Notes":null,"Regional_Planning_Council":"South Florida","FDEP_Regulatory_District":"Southeast District","RCP_Region":"Southeast","FDOT_District":6,"House_District_Number":120,"Senate_District_Number":40,"CTF_RL_2020":"Not Affected","CTF_RL_2040_IL":"Not Affected","CTF_RL_2040_INT":"Not Affected","CTF_RL_2070_IL":"Not Affected","CTF_RL_2070_INT":"Low","SSF_RL_100YR_CURR":"High","SSF_RL_100YR_2040_IL":"High","SSF_RL_100YR_2040_INT":"High","SSF_RL_100YR_2070_IL":"High","SSF_RL_100YR_2070_INT":"High","SSF_RL_500YR_CURR":"High","SSF_RL_500YR_2040_IL":"High","SSF_RL_500YR_2040_INT":"High","SSF_RL_500YR_2070_IL":"High","SSF_RL_500YR_2070_INT":"High","RIF_RL_100YR_2020":"Not Affected","RIF_RL_100YR_2040":"Not Affected","RIF_RL_100YR_2070":"Not Affected","RIF_RL_500YR_2020":"Medium","RIF_RL_500YR_2040":"Medium","RIF_RL_500YR_2070":"Medium"}},{"type":"Feature","id":6,"geometry":{"type":"Point","coordinates":[-82.4207500000587,28.5568999995462]},"properties":{"OBJECTID_1":6,"OBJECTID":6,"Name":"GREYHOUND-BROOKSVILLE","Address":"9020 COBB RD","City":"BROOKSVILLE","Zip":" ","COUNTY":"Hernando","X":-82.42075,"Y":28.5569,"LONGLAT":"-82.42075000,28.55690000","USNG":"17R LM 61025 59719","OWNERSHIP":" ","PARCELID":" ","FACILITY_T":"BUS TERMINAL","Asset_Elevation":null,"Owned_Maintained":" ","Asset":"BUS TERMINAL","Asset_Sub_Type":null,"Asset_Type":"Bus Terminals","Asset_Group":"Transportation and Evacuation Routes","Asset_Relevancy":"Regionally Significant","Asset_ID":"BUS_000006","Municipality":"Brooksville","Water_Management_District":"Southwest Florida Water Management District","Souce_Dataset_Entity":"FDEM","Souce_Dataset_Name":"Bus Terminals - FDEM","Source_Asset_ID":null,"Restricted_Public_Disclosure":null,"Notes":null,"Regional_Planning_Council":"Tampa Bay","FDEP_Regulatory_District":"Southwest District","RCP_Region":"Northwest","FDOT_District":7,"House_District_Number":52,"Senate_District_Number":11,"CTF_RL_2020":"Not Affected","CTF_RL_2040_IL":"Not Affected","CTF_RL_2040_INT":"Not Affected","CTF_RL_2070_IL":"Not Affected","CTF_RL_2070_INT":"Not Affected","SSF_RL_100YR_CURR":"Not Affected","SSF_RL_100YR_2040_IL":"Not Affected","SSF_RL_100YR_2040_INT":"Not Affected","SSF_RL_100YR_2070_IL":"Not Affected","SSF_RL_100YR_2070_INT":"Not Affected","SSF_RL_500YR_CURR":"Not Affected","SSF_RL_500YR_2040_IL":"Not Affected","SSF_RL_500YR_2040_INT":"Not Affected","SSF_RL_500YR_2070_IL":"Not Affected","SSF_RL_500YR_2070_INT":"Not Affected","RIF_RL_100YR_2020":"Not Affected","RIF_RL_100YR_2040":"Not Affected","RIF_RL_100YR_2070":"Not Affected","RIF_RL_500YR_2020":"Not Affected","RIF_RL_500YR_2040":"Not Affected","RIF_RL_500YR_2070":"Not Affected"}},{"type":"Feature","id":7,"geometry":{"type":"Point","coordinates":[-81.6629500004316,30.3275199991478]},"properties":{"OBJECTID_1":7,"OBJECTID":7,"Name":"GREYHOUND-JACKSONVILLE","Address":"10 N PEARL ST","City":"JACKSONVILLE","Zip":" ","COUNTY":"Duval","X":-81.66295,"Y":30.32752,"LONGLAT":"-81.66295000,30.32752000","USNG":"17R MP 36270 55264","OWNERSHIP":" ","PARCELID":" ","FACILITY_T":"BUS TERMINAL","Asset_Elevation":null,"Owned_Maintained":" ","Asset":"BUS TERMINAL","Asset_Sub_Type":null,"Asset_Type":"Bus Terminals","Asset_Group":"Transportation and Evacuation Routes","Asset_Relevancy":"Regionally Significant","Asset_ID":"BUS_000007","Municipality":"Jacksonville","Water_Management_District":"St. Johns River Water Management District","Souce_Dataset_Entity":"FDEM","Souce_Dataset_Name":"Bus Terminals - FDEM","Source_Asset_ID":null,"Restricted_Public_Disclosure":null,"Notes":null,"Regional_Planning_Council":"Northeast Florida","FDEP_Regulatory_District":"Northeast District","RCP_Region":"Northeast","FDOT_District":2,"House_District_Number":14,"Senate_District_Number":5,"CTF_RL_2020":"Not Affected","CTF_RL_2040_IL":"Not Affected","CTF_RL_2040_INT":"Not Affected","CTF_RL_2070_IL":"Not Affected","CTF_RL_2070_INT":"Not Affected","SSF_RL_100YR_CURR":"Not Affected","SSF_RL_100YR_2040_IL":"Not Affected","SSF_RL_100YR_2040_INT":"Not Affected","SSF_RL_100YR_2070_IL":"Not Affected","SSF_RL_100YR_2070_INT":"Not Affected","SSF_RL_500YR_CURR":"Not Affected","SSF_RL_500YR_2040_IL":"Not Affected","SSF_RL_500YR_2040_INT":"Not Affected","SSF_RL_500YR_2070_IL":"Not Affected","SSF_RL_500YR_2070_INT":"Not Affected","RIF_RL_100YR_2020":"Not Affected","RIF_RL_100YR_2040":"Not Affected","RIF_RL_100YR_2070":"Not Affected","RIF_RL_500YR_2020":"Low","RIF_RL_500YR_2040":"Low","RIF_RL_500YR_2070":"Low"}},{"type":"Feature","id":8,"geometry":{"type":"Point","coordinates":[-81.732920000522,28.0310599996789]},"properties":{"OBJECTID_1":8,"OBJECTID":8,"Name":"GREYHOUND-WINTER HAVEN","Address":"900 6TH ST NW","City":"WINTER HAVEN","Zip":" ","COUNTY":"Polk","X":-81.732919999999993,"Y":28.03106,"LONGLAT":"-81.73292000,28.03106000","USNG":"17R MM 27957 00859","OWNERSHIP":" ","PARCELID":" ","FACILITY_T":"BUS TERMINAL","Asset_Elevation":null,"Owned_Maintained":" ","Asset":"BUS TERMINAL","Asset_Sub_Type":null,"Asset_Type":"Bus Terminals","Asset_Group":"Transportation and Evacuation Routes","Asset_Relevancy":"Regionally Significant","Asset_ID":"BUS_000008","Municipality":"Winter Haven","Water_Management_District":"Southwest Florida Water Management District","Souce_Dataset_Entity":"FDEM","Souce_Dataset_Name":"Bus Terminals - FDEM","Source_Asset_ID":null,"Restricted_Public_Disclosure":null,"Notes":null,"Regional_Planning_Council":"Central Florida","FDEP_Regulatory_District":"Southwest District","RCP_Region":"Southwest","FDOT_District":1,"House_District_Number":48,"Senate_District_Number":12,"CTF_RL_2020":"Not Affected","CTF_RL_2040_IL":"Not Affected","CTF_RL_2040_INT":"Not Affected","CTF_RL_2070_IL":"Not Affected","CTF_RL_2070_INT":"Not Affected","SSF_RL_100YR_CURR":"Not Affected","SSF_RL_100YR_2040_IL":"Not Affected","SSF_RL_100YR_2040_INT":"Not Affected","SSF_RL_100YR_2070_IL":"Not Affected","SSF_RL_100YR_2070_INT":"Not Affected","SSF_RL_500YR_CURR":"Not Affected","SSF_RL_500YR_2040_IL":"Not Affected","SSF_RL_500YR_2040_INT":"Not Affected","SSF_RL_500YR_2070_IL":"Not Affected","SSF_RL_500YR_2070_INT":"Not Affected","RIF_RL_100YR_2020":"Not Affected","RIF_RL_100YR_2040":"Not Affected","RIF_RL_100YR_2070":"Not Affected","RIF_RL_500YR_2020":"Not Affected","RIF_RL_500YR_2040":"Not Affected","RIF_RL_500YR_2070":"Not Affected"}},{"type":"Feature","id":9,"geometry":{"type":"Point","coordinates":[-82.1084100002214,29.9528499993189]},"properties":{"OBJECTID_1":9,"OBJECTID":9,"Name":"GREYHOUND-STARKE","Address":"838 N TEMPLE AVE","City":"STARKE","Zip":" ","COUNTY":"Bradford","X":-82.10841,"Y":29.95285,"LONGLAT":"-82.10841000,29.95285000","USNG":"17R LP 93042 14077","OWNERSHIP":" ","PARCELID":" ","FACILITY_T":"BUS TERMINAL","Asset_Elevation":null,"Owned_Maintained":" ","Asset":"BUS TERMINAL","Asset_Sub_Type":null,"Asset_Type":"Bus Terminals","Asset_Group":"Transportation and Evacuation Routes","Asset_Relevancy":"Regionally Significant","Asset_ID":"BUS_000009","Municipality":"Starke","Water_Management_District":"Suwannee River Water Management District","Souce_Dataset_Entity":"FDEM","Souce_Dataset_Name":"Bus Terminals - FDEM","Source_Asset_ID":null,"Restricted_Public_Disclosure":null,"Notes":null,"Regional_Planning_Council":"North Central Florida","FDEP_Regulatory_District":"Northeast District","RCP_Region":"Northwest","FDOT_District":2,"House_District_Number":10,"Senate_District_Number":6,"CTF_RL_2020":"Not Affected","CTF_RL_2040_IL":"Not Affected","CTF_RL_2040_INT":"Not Affected","CTF_RL_2070_IL":"Not Affected","CTF_RL_2070_INT":"Not Affected","SSF_RL_100YR_CURR":"Not Affected","SSF_RL_100YR_2040_IL":"Not Affected","SSF_RL_100YR_2040_INT":"Not Affected","SSF_RL_100YR_2070_IL":"Not Affected","SSF_RL_100YR_2070_INT":"Not Affected","SSF_RL_500YR_CURR":"Not Affected","SSF_RL_500YR_2040_IL":"Not Affected","SSF_RL_500YR_2040_INT":"Not Affected","SSF_RL_500YR_2070_IL":"Not Affected","SSF_RL_500YR_2070_INT":"Not Affected","RIF_RL_100YR_2020":"Not Affected","RIF_RL_100YR_2040":"Not Affected","RIF_RL_100YR_2070":"Not Affected","RIF_RL_500YR_2020":"Not Affected","RIF_RL_500YR_2040":"Not Affected","RIF_RL_500YR_2070":"Not Affected"}},{"type":"Feature","id":10,"geometry":{"type":"Point","coordinates":[-81.7725800003488,26.1385299988922]},"properties":{"OBJECTID_1":10,"OBJECTID":10,"Name":"GREYHOUND-NAPLES","Address":"2669 DAVIS BLVD","City":"NAPLES","Zip":" ","COUNTY":"Collier","X":-81.77258,"Y":26.13853,"LONGLAT":"-81.77258000,26.13853000","USNG":"17R MJ 22771 91254","OWNERSHIP":" ","PARCELID":" ","FACILITY_T":"BUS TERMINAL","Asset_Elevation":null,"Owned_Maintained":" ","Asset":"BUS TERMINAL","Asset_Sub_Type":null,"Asset_Type":"Bus Terminals","Asset_Group":"Transportation and Evacuation Routes","Asset_Relevancy":"Regionally Significant","Asset_ID":"BUS_000010","Municipality":null,"Water_Management_District":"South Florida Water Management District","Souce_Dataset_Entity":"FDEM","Souce_Dataset_Name":"Bus Terminals - FDEM","Source_Asset_ID":null,"Restricted_Public_Disclosure":null,"Notes":null,"Regional_Planning_Council":"Southwest Florida","FDEP_Regulatory_District":"South District","RCP_Region":"Southwest","FDOT_District":1,"House_District_Number":81,"Senate_District_Number":28,"CTF_RL_2020":"Not Affected","CTF_RL_2040_IL":"Not Affected","CTF_RL_2040_INT":"Not Affected","CTF_RL_2070_IL":"Not Affected","CTF_RL_2070_INT":"Not Affected","SSF_RL_100YR_CURR":"High","SSF_RL_100YR_2040_IL":"High","SSF_RL_100YR_2040_INT":"High","SSF_RL_100YR_2070_IL":"High","SSF_RL_100YR_2070_INT":"High","SSF_RL_500YR_CURR":"High","SSF_RL_500YR_2040_IL":"High","SSF_RL_500YR_2040_INT":"High","SSF_RL_500YR_2070_IL":"High","SSF_RL_500YR_2070_INT":"High","RIF_RL_100YR_2020":"Medium","RIF_RL_100YR_2040":"Medium","RIF_RL_100YR_2070":"Medium","RIF_RL_500YR_2020":"Medium","RIF_RL_500YR_2040":"Medium","RIF_RL_500YR_2070":"Medium"}},{"type":"Feature","id":11,"geometry":{"type":"Point","coordinates":[-87.2110098803347,30.4112544716046]},"properties":{"OBJECTID_1":11,"OBJECTID":11,"Name":"FIVE FLAGS TROLLEY","Address":"226 E INTENDENCIA ST","City":"PENSACOLA","Zip":"32502","COUNTY":"Escambia","X":-87.21100988,"Y":30.41125447,"LONGLAT":"-87.21100988,30.41125447","USNG":"16R DU 79733 64376","OWNERSHIP":" ","PARCELID":" ","FACILITY_T":"BUS TERMINAL","Asset_Elevation":null,"Owned_Maintained":" ","Asset":"BUS TERMINAL","Asset_Sub_Type":null,"Asset_Type":"Bus Terminals","Asset_Group":"Transportation and Evacuation Routes","Asset_Relevancy":"Regionally Significant","Asset_ID":"BUS_000011","Municipality":"Pensacola","Water_Management_District":"Northwest Florida Water Management District","Souce_Dataset_Entity":"FDEM","Souce_Dataset_Name":"Bus Terminals - FDEM","Source_Asset_ID":null,"Restricted_Public_Disclosure":null,"Notes":null,"Regional_Planning_Council":"Emerald Coast","FDEP_Regulatory_District":"Northwest District","RCP_Region":"Northwest","FDOT_District":3,"House_District_Number":2,"Senate_District_Number":1,"CTF_RL_2020":"Not Affected","CTF_RL_2040_IL":"Not Affected","CTF_RL_2040_INT":"Not Affected","CTF_RL_2070_IL":"Not Affected","CTF_RL_2070_INT":"Not Affected","SSF_RL_100YR_CURR":"Not Affected","SSF_RL_100YR_2040_IL":"Not Affected","SSF_RL_100YR_2040_INT":"Not Affected","SSF_RL_100YR_2070_IL":"Not Affected","SSF_RL_100YR_2070_INT":"Not Affected","SSF_RL_500YR_CURR":"Low","SSF_RL_500YR_2040_IL":"Medium","SSF_RL_500YR_2040_INT":"Medium","SSF_RL_500YR_2070_IL":"Medium","SSF_RL_500YR_2070_INT":"High","RIF_RL_100YR_2020":"Not Affected","RIF_RL_100YR_2040":"Not Affected","RIF_RL_100YR_2070":"Not Affected","RIF_RL_500YR_2020":"Medium","RIF_RL_500YR_2040":"Medium","RIF_RL_500YR_2070":"Medium"}},{"type":"Feature","id":12,"geometry":{"type":"Point","coordinates":[-82.6766696894363,27.8869280779777]},"properties":{"OBJECTID_1":12,"OBJECTID":12,"Name":"PINELLAS SUNCOAST TRANSIT AUTHORITY","Address":"3201 SCHERER DRIVE","City":"SAINT PETERSBURG","Zip":"33716","COUNTY":"Pinellas","X":-82.67666969,"Y":27.88692808,"LONGLAT":"-82.67666969,27.88692808","USNG":"17R LL 34960 85806","OWNERSHIP":"SPECIAL TAXING DISTRICT","PARCELID":"16 30 11 00000 230 0200","FACILITY_T":"BUS TERMINAL","Asset_Elevation":null,"Owned_Maintained":"SPECIAL TAXING DISTRICT","Asset":"BUS TERMINAL","Asset_Sub_Type":null,"Asset_Type":"Bus Terminals","Asset_Group":"Transportation and Evacuation Routes","Asset_Relevancy":"Regionally Significant","Asset_ID":"BUS_000012","Municipality":null,"Water_Management_District":"Southwest Florida Water Management District","Souce_Dataset_Entity":"FDEM","Souce_Dataset_Name":"Bus Terminals - FDEM","Source_Asset_ID":null,"Restricted_Public_Disclosure":null,"Notes":null,"Regional_Planning_Council":"Tampa Bay","FDEP_Regulatory_District":"Southwest District","RCP_Region":"Southwest","FDOT_District":7,"House_District_Number":60,"Senate_District_Number":18,"CTF_RL_2020":"Not Affected","CTF_RL_2040_IL":"Not Affected","CTF_RL_2040_INT":"Not Affected","CTF_RL_2070_IL":"Not Affected","CTF_RL_2070_INT":"Not Affected","SSF_RL_100YR_CURR":"Not Affected","SSF_RL_100YR_2040_IL":"Not Affected","SSF_RL_100YR_2040_INT":"Not Affected","SSF_RL_100YR_2070_IL":"Not Affected","SSF_RL_100YR_2070_INT":"Not Affected","SSF_RL_500YR_CURR":"Low","SSF_RL_500YR_2040_IL":"Medium","SSF_RL_500YR_2040_INT":"Medium","SSF_RL_500YR_2070_IL":"Medium","SSF_RL_500YR_2070_INT":"High","RIF_RL_100YR_2020":"Not Affected","RIF_RL_100YR_2040":"Low","RIF_RL_100YR_2070":"Low","RIF_RL_500YR_2020":"Low","RIF_RL_500YR_2040":"Medium","RIF_RL_500YR_2070":"Medium"}},{"type":"Feature","id":13,"geometry":{"type":"Point","coordinates":[-82.2943800002253,29.6524799993174]},"properties":{"OBJECTID_1":13,"OBJECTID":13,"Name":"GREYHOUND-GAINESVILLE","Address":"101 NE 23RD ST","City":"GAINESVILLE","Zip":" ","COUNTY":"Alachua","X":-82.29438,"Y":29.65248,"LONGLAT":"-82.29438000,29.65248000","USNG":"17R LN 74721 80978","OWNERSHIP":" ","PARCELID":" ","FACILITY_T":"BUS TERMINAL","Asset_Elevation":null,"Owned_Maintained":" ","Asset":"BUS TERMINAL","Asset_Sub_Type":null,"Asset_Type":"Bus Terminals","Asset_Group":"Transportation and Evacuation Routes","Asset_Relevancy":"Regionally Significant","Asset_ID":"BUS_000013","Municipality":"Gainesville","Water_Management_District":"St. Johns River Water Management District","Souce_Dataset_Entity":"FDEM","Souce_Dataset_Name":"Bus Terminals - FDEM","Source_Asset_ID":null,"Restricted_Public_Disclosure":null,"Notes":null,"Regional_Planning_Council":"North Central Florida","FDEP_Regulatory_District":"Northeast District","RCP_Region":"Northwest","FDOT_District":2,"House_District_Number":21,"Senate_District_Number":9,"CTF_RL_2020":"Not Affected","CTF_RL_2040_IL":"Not Affected","CTF_RL_2040_INT":"Not Affected","CTF_RL_2070_IL":"Not Affected","CTF_RL_2070_INT":"Not Affected","SSF_RL_100YR_CURR":"Not Affected","SSF_RL_100YR_2040_IL":"Not Affected","SSF_RL_100YR_2040_INT":"Not Affected","SSF_RL_100YR_2070_IL":"Not Affected","SSF_RL_100YR_2070_INT":"Not Affected","SSF_RL_500YR_CURR":"Not Affected","SSF_RL_500YR_2040_IL":"Not Affected","SSF_RL_500YR_2040_INT":"Not Affected","SSF_RL_500YR_2070_IL":"Not Affected","SSF_RL_500YR_2070_INT":"Not Affected","RIF_RL_100YR_2020":"Medium","RIF_RL_100YR_2040":"Medium","RIF_RL_100YR_2070":"Medium","RIF_RL_500YR_2020":"Medium","RIF_RL_500YR_2040":"Medium","RIF_RL_500YR_2070":"Medium"}},{"type":"Feature","id":14,"geometry":{"type":"Point","coordinates":[-80.6323800306348,28.097633664684]},"properties":{"OBJECTID_1":14,"OBJECTID":14,"Name":"GREYHOUND-MELBOURNE","Address":"1 AIR TERMINAL PKWY","City":"MELBOURNE","Zip":" ","COUNTY":"Brevard","X":-80.63238003,"Y":28.09763367,"LONGLAT":"-80.63238003,28.09763367","USNG":"17R NM 36112 08072","OWNERSHIP":" ","PARCELID":" ","FACILITY_T":"BUS TERMINAL","Asset_Elevation":null,"Owned_Maintained":" ","Asset":"BUS TERMINAL","Asset_Sub_Type":null,"Asset_Type":"Bus Terminals","Asset_Group":"Transportation and Evacuation Routes","Asset_Relevancy":"Regionally Significant","Asset_ID":"BUS_000014","Municipality":"Melbourne","Water_Management_District":"St. Johns River Water Management District","Souce_Dataset_Entity":"FDEM","Souce_Dataset_Name":"Bus Terminals - FDEM","Source_Asset_ID":null,"Restricted_Public_Disclosure":null,"Notes":null,"Regional_Planning_Council":"East Central Florida","FDEP_Regulatory_District":"Central District","RCP_Region":"Northeast","FDOT_District":5,"House_District_Number":32,"Senate_District_Number":19,"CTF_RL_2020":"Not Affected","CTF_RL_2040_IL":"Not Affected","CTF_RL_2040_INT":"Not Affected","CTF_RL_2070_IL":"Not Affected","CTF_RL_2070_INT":"Not Affected","SSF_RL_100YR_CURR":"Not Affected","SSF_RL_100YR_2040_IL":"Not Affected","SSF_RL_100YR_2040_INT":"Not Affected","SSF_RL_100YR_2070_IL":"Not Affected","SSF_RL_100YR_2070_INT":"Not Affected","SSF_RL_500YR_CURR":"Not Affected","SSF_RL_500YR_2040_IL":"Not Affected","SSF_RL_500YR_2040_INT":"Not Affected","SSF_RL_500YR_2070_IL":"Not Affected","SSF_RL_500YR_2070_INT":"Not Affected","RIF_RL_100YR_2020":"Not Affected","RIF_RL_100YR_2040":"Not Affected","RIF_RL_100YR_2070":"Not Affected","RIF_RL_500YR_2020":"Not Affected","RIF_RL_500YR_2040":"Not Affected","RIF_RL_500YR_2070":"Not Affected"}},{"type":"Feature","id":15,"geometry":{"type":"Point","coordinates":[-80.6860600002737,26.6789799992923]},"properties":{"OBJECTID_1":15,"OBJECTID":15,"Name":"GREYHOUND-BELLE GLADE","Address":"640 SW 16TH ST","City":"BELLE GLADE","Zip":" ","COUNTY":"Palm Beach","X":-80.68606,"Y":26.67898,"LONGLAT":"-80.68606000,26.67898000","USNG":"17R NK 31235 50918","OWNERSHIP":" ","PARCELID":" ","FACILITY_T":"BUS TERMINAL","Asset_Elevation":null,"Owned_Maintained":" ","Asset":"BUS TERMINAL","Asset_Sub_Type":null,"Asset_Type":"Bus Terminals","Asset_Group":"Transportation and Evacuation Routes","Asset_Relevancy":"Regionally Significant","Asset_ID":"BUS_000015","Municipality":"Belle Glade","Water_Management_District":"South Florida Water Management District","Souce_Dataset_Entity":"FDEM","Souce_Dataset_Name":"Bus Terminals - FDEM","Source_Asset_ID":null,"Restricted_Public_Disclosure":null,"Notes":null,"Regional_Planning_Council":"Treasure Coast","FDEP_Regulatory_District":"Southeast District","RCP_Region":"Southeast","FDOT_District":4,"House_District_Number":94,"Senate_District_Number":26,"CTF_RL_2020":"Not Affected","CTF_RL_2040_IL":"Not Affected","CTF_RL_2040_INT":"Not Affected","CTF_RL_2070_IL":"Not Affected","CTF_RL_2070_INT":"Not Affected","SSF_RL_100YR_CURR":"Not Affected","SSF_RL_100YR_2040_IL":"Not Affected","SSF_RL_100YR_2040_INT":"Not Affected","SSF_RL_100YR_2070_IL":"Not Affected","SSF_RL_100YR_2070_INT":"Not Affected","SSF_RL_500YR_CURR":"Not Affected","SSF_RL_500YR_2040_IL":"Not Affected","SSF_RL_500YR_2040_INT":"Not Affected","SSF_RL_500YR_2070_IL":"Not Affected","SSF_RL_500YR_2070_INT":"Not Affected","RIF_RL_100YR_2020":"Not Affected","RIF_RL_100YR_2040":"Not Affected","RIF_RL_100YR_2070":"Not Affected","RIF_RL_500YR_2020":"Not Affected","RIF_RL_500YR_2040":"Not Affected","RIF_RL_500YR_2070":"Not Affected"}},{"type":"Feature","id":16,"geometry":{"type":"Point","coordinates":[-82.5310399999227,27.3409299995387]},"properties":{"OBJECTID_1":16,"OBJECTID":16,"Name":"GREYHOUND-SARASOTA","Address":"575 N WASHINGTON BLVD","City":"SARASOTA","Zip":" ","COUNTY":"Sarasota","X":-82.53104,"Y":27.34093,"LONGLAT":"-82.53104000,27.34093000","USNG":"17R LL 48547 25126","OWNERSHIP":" ","PARCELID":" ","FACILITY_T":"BUS TERMINAL","Asset_Elevation":null,"Owned_Maintained":" ","Asset":"BUS TERMINAL","Asset_Sub_Type":null,"Asset_Type":"Bus Terminals","Asset_Group":"Transportation and Evacuation Routes","Asset_Relevancy":"Regionally Significant","Asset_ID":"BUS_000016","Municipality":"Sarasota","Water_Management_District":"Southwest Florida Water Management District","Souce_Dataset_Entity":"FDEM","Souce_Dataset_Name":"Bus Terminals - FDEM","Source_Asset_ID":null,"Restricted_Public_Disclosure":null,"Notes":null,"Regional_Planning_Council":"Southwest Florida","FDEP_Regulatory_District":"South District","RCP_Region":"Southwest","FDOT_District":1,"House_District_Number":73,"Senate_District_Number":22,"CTF_RL_2020":"Not Affected","CTF_RL_2040_IL":"Not Affected","CTF_RL_2040_INT":"Not Affected","CTF_RL_2070_IL":"Not Affected","CTF_RL_2070_INT":"Not Affected","SSF_RL_100YR_CURR":"Not Affected","SSF_RL_100YR_2040_IL":"Not Affected","SSF_RL_100YR_2040_INT":"Not Affected","SSF_RL_100YR_2070_IL":"Not Affected","SSF_RL_100YR_2070_INT":"Not Affected","SSF_RL_500YR_CURR":"Not Affected","SSF_RL_500YR_2040_IL":"Not Affected","SSF_RL_500YR_2040_INT":"Not Affected","SSF_RL_500YR_2070_IL":"Not Affected","SSF_RL_500YR_2070_INT":"Not Affected","RIF_RL_100YR_2020":"High","RIF_RL_100YR_2040":"High","RIF_RL_100YR_2070":"High","RIF_RL_500YR_2020":"High","RIF_RL_500YR_2040":"High","RIF_RL_500YR_2070":"High"}},{"type":"Feature","id":17,"geometry":{"type":"Point","coordinates":[-80.2629799998149,25.8002499990822]},"properties":{"OBJECTID_1":17,"OBJECTID":17,"Name":"GREYHOUND-MIAMI","Address":"4111 NW 27TH ST","City":"MIAMI","Zip":" ","COUNTY":"Miami-Dade","X":-80.26298,"Y":25.80025,"LONGLAT":"-80.26298000,25.80025000","USNG":"17R NJ 73884 53769","OWNERSHIP":" ","PARCELID":" ","FACILITY_T":"BUS TERMINAL","Asset_Elevation":null,"Owned_Maintained":" ","Asset":"BUS TERMINAL","Asset_Sub_Type":null,"Asset_Type":"Bus Terminals","Asset_Group":"Transportation and Evacuation Routes","Asset_Relevancy":"Regionally Significant","Asset_ID":"BUS_000017","Municipality":null,"Water_Management_District":"South Florida Water Management District","Souce_Dataset_Entity":"FDEM","Souce_Dataset_Name":"Bus Terminals - FDEM","Source_Asset_ID":null,"Restricted_Public_Disclosure":null,"Notes":null,"Regional_Planning_Council":"South Florida","FDEP_Regulatory_District":"Southeast District","RCP_Region":"Southeast","FDOT_District":6,"House_District_Number":112,"Senate_District_Number":39,"CTF_RL_2020":"Not Affected","CTF_RL_2040_IL":"Not Affected","CTF_RL_2040_INT":"Not Affected","CTF_RL_2070_IL":"Not Affected","CTF_RL_2070_INT":"Not Affected","SSF_RL_100YR_CURR":"High","SSF_RL_100YR_2040_IL":"High","SSF_RL_100YR_2040_INT":"High","SSF_RL_100YR_2070_IL":"High","SSF_RL_100YR_2070_INT":"High","SSF_RL_500YR_CURR":"High","SSF_RL_500YR_2040_IL":"High","SSF_RL_500YR_2040_INT":"High","SSF_RL_500YR_2070_IL":"High","SSF_RL_500YR_2070_INT":"High","RIF_RL_100YR_2020":"Medium","RIF_RL_100YR_2040":"Medium","RIF_RL_100YR_2070":"Medium","RIF_RL_500YR_2020":"High","RIF_RL_500YR_2040":"High","RIF_RL_500YR_2070":"High"}},{"type":"Feature","id":18,"geometry":{"type":"Point","coordinates":[-81.0260099999113,24.731149998897]},"properties":{"OBJECTID_1":18,"OBJECTID":18,"Name":"GREYHOUND-MARATHON","Address":"12222 OVERSEAS HWY","City":"MARATHON","Zip":" ","COUNTY":"Monroe","X":-81.02601,"Y":24.73115,"LONGLAT":"-81.02601000,24.73115000","USNG":"17R MH 97369 35179","OWNERSHIP":" ","PARCELID":" ","FACILITY_T":"BUS TERMINAL","Asset_Elevation":null,"Owned_Maintained":" ","Asset":"BUS TERMINAL","Asset_Sub_Type":null,"Asset_Type":"Bus Terminals","Asset_Group":"Transportation and Evacuation Routes","Asset_Relevancy":"Regionally Significant","Asset_ID":"BUS_000018","Municipality":"Marathon","Water_Management_District":"South Florida Water Management District","Souce_Dataset_Entity":"FDEM","Souce_Dataset_Name":"Bus Terminals - FDEM","Source_Asset_ID":null,"Restricted_Public_Disclosure":null,"Notes":null,"Regional_Planning_Council":"South Florida","FDEP_Regulatory_District":"Southeast District","RCP_Region":"Southeast","FDOT_District":6,"House_District_Number":120,"Senate_District_Number":40,"CTF_RL_2020":"Not Affected","CTF_RL_2040_IL":"Not Affected","CTF_RL_2040_INT":"Not Affected","CTF_RL_2070_IL":"Not Affected","CTF_RL_2070_INT":"Not Affected","SSF_RL_100YR_CURR":"High","SSF_RL_100YR_2040_IL":"High","SSF_RL_100YR_2040_INT":"High","SSF_RL_100YR_2070_IL":"High","SSF_RL_100YR_2070_INT":"High","SSF_RL_500YR_CURR":"High","SSF_RL_500YR_2040_IL":"High","SSF_RL_500YR_2040_INT":"High","SSF_RL_500YR_2070_IL":"High","SSF_RL_500YR_2070_INT":"High","RIF_RL_100YR_2020":"Medium","RIF_RL_100YR_2040":"Medium","RIF_RL_100YR_2070":"Medium","RIF_RL_500YR_2020":"Medium","RIF_RL_500YR_2040":"Medium","RIF_RL_500YR_2070":"Medium"}},{"type":"Feature","id":19,"geometry":{"type":"Point","coordinates":[-82.8685900002707,29.4969099995996]},"properties":{"OBJECTID_1":19,"OBJECTID":19,"Name":"GREYHOUND-CHIEFLAND","Address":"1904 N YOUNG BLVD","City":"CHIEFLAND","Zip":" ","COUNTY":"Levy","X":-82.86859,"Y":29.49691,"LONGLAT":"-82.86859000,29.49691000","USNG":"17R LN 18860 64495","OWNERSHIP":" ","PARCELID":" ","FACILITY_T":"BUS TERMINAL","Asset_Elevation":null,"Owned_Maintained":" ","Asset":"BUS TERMINAL","Asset_Sub_Type":null,"Asset_Type":"Bus Terminals","Asset_Group":"Transportation and Evacuation Routes","Asset_Relevancy":"Regionally Significant","Asset_ID":"BUS_000019","Municipality":"Chiefland","Water_Management_District":"Suwannee River Water Management District","Souce_Dataset_Entity":"FDEM","Souce_Dataset_Name":"Bus Terminals - FDEM","Source_Asset_ID":null,"Restricted_Public_Disclosure":null,"Notes":null,"Regional_Planning_Council":"North Central Florida","FDEP_Regulatory_District":"Northeast District","RCP_Region":"Northwest","FDOT_District":2,"House_District_Number":22,"Senate_District_Number":9,"CTF_RL_2020":"Not Affected","CTF_RL_2040_IL":"Not Affected","CTF_RL_2040_INT":"Not Affected","CTF_RL_2070_IL":"Not Affected","CTF_RL_2070_INT":"Not Affected","SSF_RL_100YR_CURR":"Not Affected","SSF_RL_100YR_2040_IL":"Not Affected","SSF_RL_100YR_2040_INT":"Not Affected","SSF_RL_100YR_2070_IL":"Not Affected","SSF_RL_100YR_2070_INT":"Not Affected","SSF_RL_500YR_CURR":"Not Affected","SSF_RL_500YR_2040_IL":"Not Affected","SSF_RL_500YR_2040_INT":"Not Affected","SSF_RL_500YR_2070_IL":"Not Affected","SSF_RL_500YR_2070_INT":"Not Affected","RIF_RL_100YR_2020":"Not Affected","RIF_RL_100YR_2040":"Low","RIF_RL_100YR_2070":"Medium","RIF_RL_500YR_2020":"Medium","RIF_RL_500YR_2040":"High","RIF_RL_500YR_2070":"High"}},{"type":"Feature","id":20,"geometry":{"type":"Point","coordinates":[-82.6296099999516,28.4546599987552]},"properties":{"OBJECTID_1":20,"OBJECTID":20,"Name":"GREYHOUND-SPRING HILL","Address":"1394 COMMERCIAL WAY","City":"SPRING HILL","Zip":" ","COUNTY":"Hernando","X":-82.62961,"Y":28.45466,"LONGLAT":"-82.62961000,28.45466000","USNG":"17R LM 40438 48650","OWNERSHIP":" ","PARCELID":" ","FACILITY_T":"BUS TERMINAL","Asset_Elevation":null,"Owned_Maintained":" ","Asset":"BUS TERMINAL","Asset_Sub_Type":null,"Asset_Type":"Bus Terminals","Asset_Group":"Transportation and Evacuation Routes","Asset_Relevancy":"Regionally Significant","Asset_ID":"BUS_000020","Municipality":null,"Water_Management_District":"Southwest Florida Water Management District","Souce_Dataset_Entity":"FDEM","Souce_Dataset_Name":"Bus Terminals - FDEM","Source_Asset_ID":null,"Restricted_Public_Disclosure":null,"Notes":null,"Regional_Planning_Council":"Tampa Bay","FDEP_Regulatory_District":"Southwest District","RCP_Region":"Northwest","FDOT_District":7,"House_District_Number":53,"Senate_District_Number":11,"CTF_RL_2020":"Not Affected","CTF_RL_2040_IL":"Not Affected","CTF_RL_2040_INT":"Not Affected","CTF_RL_2070_IL":"Not Affected","CTF_RL_2070_INT":"Not Affected","SSF_RL_100YR_CURR":"Not Affected","SSF_RL_100YR_2040_IL":"Not Affected","SSF_RL_100YR_2040_INT":"Not Affected","SSF_RL_100YR_2070_IL":"Not Affected","SSF_RL_100YR_2070_INT":"Not Affected","SSF_RL_500YR_CURR":"Not Affected","SSF_RL_500YR_2040_IL":"Not Affected","SSF_RL_500YR_2040_INT":"Not Affected","SSF_RL_500YR_2070_IL":"Not Affected","SSF_RL_500YR_2070_INT":"Not Affected","RIF_RL_100YR_2020":"Not Affected","RIF_RL_100YR_2040":"Not Affected","RIF_RL_100YR_2070":"Not Affected","RIF_RL_500YR_2020":"Not Affected","RIF_RL_500YR_2040":"Not Affected","RIF_RL_500YR_2070":"Not Affected"}},{"type":"Feature","id":21,"geometry":{"type":"Point","coordinates":[-82.6371000005966,30.1871199993172]},"properties":{"OBJECTID_1":21,"OBJECTID":21,"Name":"GREYHOUND-LAKE CITY","Address":"251 S MARION AVE","City":"LAKE CITY","Zip":" ","COUNTY":"Columbia","X":-82.6371,"Y":30.18712,"LONGLAT":"-82.63710000,30.18712000","USNG":"17R LP 42391 40652","OWNERSHIP":" ","PARCELID":" ","FACILITY_T":"BUS TERMINAL","Asset_Elevation":null,"Owned_Maintained":" ","Asset":"BUS TERMINAL","Asset_Sub_Type":null,"Asset_Type":"Bus Terminals","Asset_Group":"Transportation and Evacuation Routes","Asset_Relevancy":"Regionally Significant","Asset_ID":"BUS_000021","Municipality":"Lake City","Water_Management_District":"Suwannee River Water Management District","Souce_Dataset_Entity":"FDEM","Souce_Dataset_Name":"Bus Terminals - FDEM","Source_Asset_ID":null,"Restricted_Public_Disclosure":null,"Notes":null,"Regional_Planning_Council":"North Central Florida","FDEP_Regulatory_District":"Northeast District","RCP_Region":"Northwest","FDOT_District":2,"House_District_Number":10,"Senate_District_Number":6,"CTF_RL_2020":"Not Affected","CTF_RL_2040_IL":"Not Affected","CTF_RL_2040_INT":"Not Affected","CTF_RL_2070_IL":"Not Affected","CTF_RL_2070_INT":"Not Affected","SSF_RL_100YR_CURR":"Not Affected","SSF_RL_100YR_2040_IL":"Not Affected","SSF_RL_100YR_2040_INT":"Not Affected","SSF_RL_100YR_2070_IL":"Not Affected","SSF_RL_100YR_2070_INT":"Not Affected","SSF_RL_500YR_CURR":"Not Affected","SSF_RL_500YR_2040_IL":"Not Affected","SSF_RL_500YR_2040_INT":"Not Affected","SSF_RL_500YR_2070_IL":"Not Affected","SSF_RL_500YR_2070_INT":"Not Affected","RIF_RL_100YR_2020":"Not Affected","RIF_RL_100YR_2040":"Not Affected","RIF_RL_100YR_2070":"Not Affected","RIF_RL_500YR_2020":"Not Affected","RIF_RL_500YR_2040":"Not Affected","RIF_RL_500YR_2070":"Not Affected"}},{"type":"Feature","id":22,"geometry":{"type":"Point","coordinates":[-81.4135900005837,28.5481699996759]},"properties":{"OBJECTID_1":22,"OBJECTID":22,"Name":"GREYHOUND-ORLANDO","Address":"555 N JOHN YOUNG PKY","City":"ORLANDO","Zip":" ","COUNTY":"Orange","X":-81.41359,"Y":28.54817,"LONGLAT":"-81.41359000,28.54817000","USNG":"17R MM 59542 57998","OWNERSHIP":" ","PARCELID":" ","FACILITY_T":"BUS TERMINAL","Asset_Elevation":null,"Owned_Maintained":" ","Asset":"BUS TERMINAL","Asset_Sub_Type":null,"Asset_Type":"Bus Terminals","Asset_Group":"Transportation and Evacuation Routes","Asset_Relevancy":"Regionally Significant","Asset_ID":"BUS_000022","Municipality":"Orlando","Water_Management_District":"South Florida Water Management District","Souce_Dataset_Entity":"FDEM","Souce_Dataset_Name":"Bus Terminals - FDEM","Source_Asset_ID":null,"Restricted_Public_Disclosure":null,"Notes":null,"Regional_Planning_Council":"East Central Florida","FDEP_Regulatory_District":"Central District","RCP_Region":"Northeast","FDOT_District":5,"House_District_Number":41,"Senate_District_Number":15,"CTF_RL_2020":"Not Affected","CTF_RL_2040_IL":"Not Affected","CTF_RL_2040_INT":"Not Affected","CTF_RL_2070_IL":"Not Affected","CTF_RL_2070_INT":"Not Affected","SSF_RL_100YR_CURR":"Not Affected","SSF_RL_100YR_2040_IL":"Not Affected","SSF_RL_100YR_2040_INT":"Not Affected","SSF_RL_100YR_2070_IL":"Not Affected","SSF_RL_100YR_2070_INT":"Not Affected","SSF_RL_500YR_CURR":"Not Affected","SSF_RL_500YR_2040_IL":"Not Affected","SSF_RL_500YR_2040_INT":"Not Affected","SSF_RL_500YR_2070_IL":"Not Affected","SSF_RL_500YR_2070_INT":"Not Affected","RIF_RL_100YR_2020":"Medium","RIF_RL_100YR_2040":"Low","RIF_RL_100YR_2070":"Medium","RIF_RL_500YR_2020":"Medium","RIF_RL_500YR_2040":"Medium","RIF_RL_500YR_2070":"Medium"}},{"type":"Feature","id":23,"geometry":{"type":"Point","coordinates":[-81.4046499997537,28.2934199991415]},"properties":{"OBJECTID_1":23,"OBJECTID":23,"Name":"GREYHOUND-KISSIMMEE","Address":"103 E DAKIN AVE","City":"KISSIMMEE","Zip":" ","COUNTY":"Osceola","X":-81.40465,"Y":28.29342,"LONGLAT":"-81.40465000,28.29342000","USNG":"17R MM 60321 29773","OWNERSHIP":" ","PARCELID":" ","FACILITY_T":"BUS TERMINAL","Asset_Elevation":null,"Owned_Maintained":" ","Asset":"BUS TERMINAL","Asset_Sub_Type":null,"Asset_Type":"Bus Terminals","Asset_Group":"Transportation and Evacuation Routes","Asset_Relevancy":"Regionally Significant","Asset_ID":"BUS_000023","Municipality":"Kissimmee","Water_Management_District":"South Florida Water Management District","Souce_Dataset_Entity":"FDEM","Souce_Dataset_Name":"Bus Terminals - FDEM","Source_Asset_ID":null,"Restricted_Public_Disclosure":null,"Notes":null,"Regional_Planning_Council":"East Central Florida","FDEP_Regulatory_District":"Central District","RCP_Region":"Northeast","FDOT_District":5,"House_District_Number":46,"Senate_District_Number":25,"CTF_RL_2020":"Not Affected","CTF_RL_2040_IL":"Not Affected","CTF_RL_2040_INT":"Not Affected","CTF_RL_2070_IL":"Not Affected","CTF_RL_2070_INT":"Not Affected","SSF_RL_100YR_CURR":"Not Affected","SSF_RL_100YR_2040_IL":"Not Affected","SSF_RL_100YR_2040_INT":"Not Affected","SSF_RL_100YR_2070_IL":"Not Affected","SSF_RL_100YR_2070_INT":"Not Affected","SSF_RL_500YR_CURR":"Not Affected","SSF_RL_500YR_2040_IL":"Not Affected","SSF_RL_500YR_2040_INT":"Not Affected","SSF_RL_500YR_2070_IL":"Not Affected","SSF_RL_500YR_2070_INT":"Not Affected","RIF_RL_100YR_2020":"Medium","RIF_RL_100YR_2040":"Medium","RIF_RL_100YR_2070":"Medium","RIF_RL_500YR_2020":"Medium","RIF_RL_500YR_2040":"Medium","RIF_RL_500YR_2070":"Medium"}},{"type":"Feature","id":24,"geometry":{"type":"Point","coordinates":[-81.4385800006341,26.7617699991459]},"properties":{"OBJECTID_1":24,"OBJECTID":24,"Name":"GREYHOUND-LABELLE","Address":"10 W HICKPOOCHEE AVE","City":"LABELLE","Zip":" ","COUNTY":"Hendry","X":-81.43858,"Y":26.76177,"LONGLAT":"-81.43858000,26.76177000","USNG":"17R MK 56394 60124","OWNERSHIP":" ","PARCELID":" ","FACILITY_T":"BUS TERMINAL","Asset_Elevation":null,"Owned_Maintained":" ","Asset":"BUS TERMINAL","Asset_Sub_Type":null,"Asset_Type":"Bus Terminals","Asset_Group":"Transportation and Evacuation Routes","Asset_Relevancy":"Regionally Significant","Asset_ID":"BUS_000024","Municipality":"LaBelle","Water_Management_District":"South Florida Water Management District","Souce_Dataset_Entity":"FDEM","Souce_Dataset_Name":"Bus Terminals - FDEM","Source_Asset_ID":null,"Restricted_Public_Disclosure":null,"Notes":null,"Regional_Planning_Council":"Southwest Florida","FDEP_Regulatory_District":"South District","RCP_Region":"Southwest","FDOT_District":1,"House_District_Number":82,"Senate_District_Number":28,"CTF_RL_2020":"Not Affected","CTF_RL_2040_IL":"Not Affected","CTF_RL_2040_INT":"Not Affected","CTF_RL_2070_IL":"Not Affected","CTF_RL_2070_INT":"Not Affected","SSF_RL_100YR_CURR":"Not Affected","SSF_RL_100YR_2040_IL":"Not Affected","SSF_RL_100YR_2040_INT":"Not Affected","SSF_RL_100YR_2070_IL":"Not Affected","SSF_RL_100YR_2070_INT":"Not Affected","SSF_RL_500YR_CURR":"Not Affected","SSF_RL_500YR_2040_IL":"Not Affected","SSF_RL_500YR_2040_INT":"Not Affected","SSF_RL_500YR_2070_IL":"Not Affected","SSF_RL_500YR_2070_INT":"Low","RIF_RL_100YR_2020":"Not Affected","RIF_RL_100YR_2040":"Not Affected","RIF_RL_100YR_2070":"Not Affected","RIF_RL_500YR_2020":"Not Affected","RIF_RL_500YR_2040":"Not Affected","RIF_RL_500YR_2070":"Not Affected"}},{"type":"Feature","id":25,"geometry":{"type":"Point","coordinates":[-86.6028299992448,30.408539998949]},"properties":{"OBJECTID_1":25,"OBJECTID":25,"Name":"GREYHOUND-FORT WALTON BEACH","Address":"101 PERRY AVE SE","City":"FORT WALTON BEACH","Zip":" ","COUNTY":"Okaloosa","X":-86.60283,"Y":30.40854,"LONGLAT":"-86.60283000,30.40854000","USNG":"16R EU 38148 64123","OWNERSHIP":" ","PARCELID":" ","FACILITY_T":"BUS TERMINAL","Asset_Elevation":null,"Owned_Maintained":" ","Asset":"BUS TERMINAL","Asset_Sub_Type":null,"Asset_Type":"Bus Terminals","Asset_Group":"Transportation and Evacuation Routes","Asset_Relevancy":"Regionally Significant","Asset_ID":"BUS_000025","Municipality":"Fort Walton Beach","Water_Management_District":"Northwest Florida Water Management District","Souce_Dataset_Entity":"FDEM","Souce_Dataset_Name":"Bus Terminals - FDEM","Source_Asset_ID":null,"Restricted_Public_Disclosure":null,"Notes":null,"Regional_Planning_Council":"Emerald Coast","FDEP_Regulatory_District":"Northwest District","RCP_Region":"Northwest","FDOT_District":3,"House_District_Number":4,"Senate_District_Number":2,"CTF_RL_2020":"Not Affected","CTF_RL_2040_IL":"Not Affected","CTF_RL_2040_INT":"Not Affected","CTF_RL_2070_IL":"Not Affected","CTF_RL_2070_INT":"Not Affected","SSF_RL_100YR_CURR":"Not Affected","SSF_RL_100YR_2040_IL":"Not Affected","SSF_RL_100YR_2040_INT":"Not Affected","SSF_RL_100YR_2070_IL":"Not Affected","SSF_RL_100YR_2070_INT":"Not Affected","SSF_RL_500YR_CURR":"Not Affected","SSF_RL_500YR_2040_IL":"Not Affected","SSF_RL_500YR_2040_INT":"Not Affected","SSF_RL_500YR_2070_IL":"Not Affected","SSF_RL_500YR_2070_INT":"Not Affected","RIF_RL_100YR_2020":"Medium","RIF_RL_100YR_2040":"Medium","RIF_RL_100YR_2070":"Medium","RIF_RL_500YR_2020":"Medium","RIF_RL_500YR_2040":"High","RIF_RL_500YR_2070":"High"}},{"type":"Feature","id":26,"geometry":{"type":"Point","coordinates":[-80.8077199996222,28.6014499990836]},"properties":{"OBJECTID_1":26,"OBJECTID":26,"Name":"GREYHOUND-TITUSVILLE","Address":"1220 S WASHINGTON AVE","City":"TITUSVILLE","Zip":" ","COUNTY":"Brevard","X":-80.80772,"Y":28.60145,"LONGLAT":"-80.80772000,28.60145000","USNG":"17R NM 18799 63846","OWNERSHIP":" ","PARCELID":" ","FACILITY_T":"BUS TERMINAL","Asset_Elevation":null,"Owned_Maintained":" ","Asset":"BUS TERMINAL","Asset_Sub_Type":null,"Asset_Type":"Bus Terminals","Asset_Group":"Transportation and Evacuation Routes","Asset_Relevancy":"Regionally Significant","Asset_ID":"BUS_000026","Municipality":"Titusville","Water_Management_District":"St. Johns River Water Management District","Souce_Dataset_Entity":"FDEM","Souce_Dataset_Name":"Bus Terminals - FDEM","Source_Asset_ID":null,"Restricted_Public_Disclosure":null,"Notes":null,"Regional_Planning_Council":"East Central Florida","FDEP_Regulatory_District":"Central District","RCP_Region":"Northeast","FDOT_District":5,"House_District_Number":30,"Senate_District_Number":8,"CTF_RL_2020":"Not Affected","CTF_RL_2040_IL":"Not Affected","CTF_RL_2040_INT":"Not Affected","CTF_RL_2070_IL":"Not Affected","CTF_RL_2070_INT":"Not Affected","SSF_RL_100YR_CURR":"Not Affected","SSF_RL_100YR_2040_IL":"Not Affected","SSF_RL_100YR_2040_INT":"Not Affected","SSF_RL_100YR_2070_IL":"Not Affected","SSF_RL_100YR_2070_INT":"Not Affected","SSF_RL_500YR_CURR":"Not Affected","SSF_RL_500YR_2040_IL":"Not Affected","SSF_RL_500YR_2040_INT":"Not Affected","SSF_RL_500YR_2070_IL":"Not Affected","SSF_RL_500YR_2070_INT":"Not Affected","RIF_RL_100YR_2020":"Not Affected","RIF_RL_100YR_2040":"Not Affected","RIF_RL_100YR_2070":"Not Affected","RIF_RL_500YR_2020":"Not Affected","RIF_RL_500YR_2040":"Not Affected","RIF_RL_500YR_2070":"Not Affected"}},{"type":"Feature","id":27,"geometry":{"type":"Point","coordinates":[-80.2132999999181,25.9215599987328]},"properties":{"OBJECTID_1":27,"OBJECTID":27,"Name":"GREYHOUND-MIAMI NORTH","Address":"16000 NW 7TH AVE","City":"MIAMI","Zip":" ","COUNTY":"Miami-Dade","X":-80.2133,"Y":25.92156,"LONGLAT":"-80.21330000,25.92156000","USNG":"17R NJ 78784 67233","OWNERSHIP":" ","PARCELID":" ","FACILITY_T":"BUS TERMINAL","Asset_Elevation":null,"Owned_Maintained":" ","Asset":"BUS TERMINAL","Asset_Sub_Type":null,"Asset_Type":"Bus Terminals","Asset_Group":"Transportation and Evacuation Routes","Asset_Relevancy":"Regionally Significant","Asset_ID":"BUS_000027","Municipality":null,"Water_Management_District":"South Florida Water Management District","Souce_Dataset_Entity":"FDEM","Souce_Dataset_Name":"Bus Terminals - FDEM","Source_Asset_ID":null,"Restricted_Public_Disclosure":null,"Notes":null,"Regional_Planning_Council":"South Florida","FDEP_Regulatory_District":"Southeast District","RCP_Region":"Southeast","FDOT_District":6,"House_District_Number":107,"Senate_District_Number":34,"CTF_RL_2020":"Not Affected","CTF_RL_2040_IL":"Not Affected","CTF_RL_2040_INT":"Not Affected","CTF_RL_2070_IL":"Not Affected","CTF_RL_2070_INT":"Not Affected","SSF_RL_100YR_CURR":"Not Affected","SSF_RL_100YR_2040_IL":"Not Affected","SSF_RL_100YR_2040_INT":"Not Affected","SSF_RL_100YR_2070_IL":"Not Affected","SSF_RL_100YR_2070_INT":"Low","SSF_RL_500YR_CURR":"Not Affected","SSF_RL_500YR_2040_IL":"Medium","SSF_RL_500YR_2040_INT":"Medium","SSF_RL_500YR_2070_IL":"Medium","SSF_RL_500YR_2070_INT":"Medium","RIF_RL_100YR_2020":"Not Affected","RIF_RL_100YR_2040":"Not Affected","RIF_RL_100YR_2070":"Not Affected","RIF_RL_500YR_2020":"Medium","RIF_RL_500YR_2040":"Medium","RIF_RL_500YR_2070":"Medium"}},{"type":"Feature","id":28,"geometry":{"type":"Point","coordinates":[-80.0669200000088,26.4539599985269]},"properties":{"OBJECTID_1":28,"OBJECTID":28,"Name":"GREYHOUND-DELRAY BEACH","Address":"402 SE 6TH AVE","City":"DELRAY BEACH","Zip":" ","COUNTY":"Palm Beach","X":-80.06692,"Y":26.45396,"LONGLAT":"-80.06692000,26.45396000","USNG":"17R NK 93021 26296","OWNERSHIP":" ","PARCELID":" ","FACILITY_T":"BUS TERMINAL","Asset_Elevation":null,"Owned_Maintained":" ","Asset":"BUS TERMINAL","Asset_Sub_Type":null,"Asset_Type":"Bus Terminals","Asset_Group":"Transportation and Evacuation Routes","Asset_Relevancy":"Regionally Significant","Asset_ID":"BUS_000028","Municipality":"Delray Beach","Water_Management_District":"South Florida Water Management District","Souce_Dataset_Entity":"FDEM","Souce_Dataset_Name":"Bus Terminals - FDEM","Source_Asset_ID":null,"Restricted_Public_Disclosure":null,"Notes":null,"Regional_Planning_Council":"Treasure Coast","FDEP_Regulatory_District":"Southeast District","RCP_Region":"Southeast","FDOT_District":4,"House_District_Number":90,"Senate_District_Number":26,"CTF_RL_2020":"Not Affected","CTF_RL_2040_IL":"Not Affected","CTF_RL_2040_INT":"Not Affected","CTF_RL_2070_IL":"Not Affected","CTF_RL_2070_INT":"Not Affected","SSF_RL_100YR_CURR":"Medium","SSF_RL_100YR_2040_IL":"Medium","SSF_RL_100YR_2040_INT":"Medium","SSF_RL_100YR_2070_IL":"Medium","SSF_RL_100YR_2070_INT":"High","SSF_RL_500YR_CURR":"High","SSF_RL_500YR_2040_IL":"High","SSF_RL_500YR_2040_INT":"High","SSF_RL_500YR_2070_IL":"High","SSF_RL_500YR_2070_INT":"High","RIF_RL_100YR_2020":"High","RIF_RL_100YR_2040":"High","RIF_RL_100YR_2070":"High","RIF_RL_500YR_2020":"High","RIF_RL_500YR_2040":"High","RIF_RL_500YR_2070":"High"}},{"type":"Feature","id":29,"geometry":{"type":"Point","coordinates":[-81.3813878890024,28.5485090595011]},"properties":{"OBJECTID_1":29,"OBJECTID":29,"Name":"CENTRAL FLORIDA REGIONAL TRANSPORTATION","Address":"445 W AMELIA ST","City":"ORLANDO","Zip":"32801","COUNTY":"Orange","X":-81.38138789,"Y":28.54850906,"LONGLAT":"-81.38138789,28.54850906","USNG":"17R MM 62692 58025","OWNERSHIP":"MUNICIPAL","PARCELID":"292226226300040","FACILITY_T":"BUS TERMINAL","Asset_Elevation":null,"Owned_Maintained":"MUNICIPAL","Asset":"BUS TERMINAL","Asset_Sub_Type":null,"Asset_Type":"Bus Terminals","Asset_Group":"Transportation and Evacuation Routes","Asset_Relevancy":"Regionally Significant","Asset_ID":"BUS_000029","Municipality":"Orlando","Water_Management_District":"St. Johns River Water Management District","Souce_Dataset_Entity":"FDEM","Souce_Dataset_Name":"Bus Terminals - FDEM","Source_Asset_ID":null,"Restricted_Public_Disclosure":null,"Notes":null,"Regional_Planning_Council":"East Central Florida","FDEP_Regulatory_District":"Central District","RCP_Region":"Northeast","FDOT_District":5,"House_District_Number":42,"Senate_District_Number":17,"CTF_RL_2020":"Not Affected","CTF_RL_2040_IL":"Not Affected","CTF_RL_2040_INT":"Not Affected","CTF_RL_2070_IL":"Not Affected","CTF_RL_2070_INT":"Not Affected","SSF_RL_100YR_CURR":"Not Affected","SSF_RL_100YR_2040_IL":"Not Affected","SSF_RL_100YR_2040_INT":"Not Affected","SSF_RL_100YR_2070_IL":"Not Affected","SSF_RL_100YR_2070_INT":"Not Affected","SSF_RL_500YR_CURR":"Not Affected","SSF_RL_500YR_2040_IL":"Not Affected","SSF_RL_500YR_2040_INT":"Not Affected","SSF_RL_500YR_2070_IL":"Not Affected","SSF_RL_500YR_2070_INT":"Not Affected","RIF_RL_100YR_2020":"Not Affected","RIF_RL_100YR_2040":"Not Affected","RIF_RL_100YR_2070":"Not Affected","RIF_RL_500YR_2020":"Not Affected","RIF_RL_500YR_2040":"Not Affected","RIF_RL_500YR_2070":"Not Affected"}},{"type":"Feature","id":30,"geometry":{"type":"Point","coordinates":[-81.334879999915,29.8704299990193]},"properties":{"OBJECTID_1":30,"OBJECTID":30,"Name":"GREYHOUND-ST AUGUSTINE","Address":"1711 DOBBS RD","City":"ST AUGUSTINE","Zip":" ","COUNTY":"St. Johns","X":-81.33488,"Y":29.87043,"LONGLAT":"-81.33488000,29.87043000","USNG":"17R MP 67659 04475","OWNERSHIP":" ","PARCELID":" ","FACILITY_T":"BUS TERMINAL","Asset_Elevation":null,"Owned_Maintained":" ","Asset":"BUS TERMINAL","Asset_Sub_Type":null,"Asset_Type":"Bus Terminals","Asset_Group":"Transportation and Evacuation Routes","Asset_Relevancy":"Regionally Significant","Asset_ID":"BUS_000030","Municipality":null,"Water_Management_District":"St. Johns River Water Management District","Souce_Dataset_Entity":"FDEM","Souce_Dataset_Name":"Bus Terminals - FDEM","Source_Asset_ID":null,"Restricted_Public_Disclosure":null,"Notes":null,"Regional_Planning_Council":"Northeast Florida","FDEP_Regulatory_District":"Northeast District","RCP_Region":"Northeast","FDOT_District":2,"House_District_Number":19,"Senate_District_Number":7,"CTF_RL_2020":"Not Affected","CTF_RL_2040_IL":"Not Affected","CTF_RL_2040_INT":"Not Affected","CTF_RL_2070_IL":"Not Affected","CTF_RL_2070_INT":"Not Affected","SSF_RL_100YR_CURR":"Not Affected","SSF_RL_100YR_2040_IL":"Not Affected","SSF_RL_100YR_2040_INT":"Not Affected","SSF_RL_100YR_2070_IL":"Not Affected","SSF_RL_100YR_2070_INT":"Not Affected","SSF_RL_500YR_CURR":"Not Affected","SSF_RL_500YR_2040_IL":"Not Affected","SSF_RL_500YR_2040_INT":"Not Affected","SSF_RL_500YR_2070_IL":"Not Affected","SSF_RL_500YR_2070_INT":"Not Affected","RIF_RL_100YR_2020":"Not Affected","RIF_RL_100YR_2040":"Not Affected","RIF_RL_100YR_2070":"Not Affected","RIF_RL_500YR_2020":"Not Affected","RIF_RL_500YR_2040":"Not Affected","RIF_RL_500YR_2070":"Not Affected"}},{"type":"Feature","id":31,"geometry":{"type":"Point","coordinates":[-80.138130000084,26.1252399995155]},"properties":{"OBJECTID_1":31,"OBJECTID":31,"Name":"GREYHOUND-FORT LAUDERDALE","Address":"515 NE 3RD ST","City":"FORT LAUDERDALE","Zip":" ","COUNTY":"Broward","X":-80.13813,"Y":26.12524,"LONGLAT":"-80.13813000,26.12524000","USNG":"17R NJ 86164 89838","OWNERSHIP":" ","PARCELID":" ","FACILITY_T":"BUS TERMINAL","Asset_Elevation":null,"Owned_Maintained":" ","Asset":"BUS TERMINAL","Asset_Sub_Type":null,"Asset_Type":"Bus Terminals","Asset_Group":"Transportation and Evacuation Routes","Asset_Relevancy":"Regionally Significant","Asset_ID":"BUS_000031","Municipality":"Fort Lauderdale","Water_Management_District":"South Florida Water Management District","Souce_Dataset_Entity":"FDEM","Souce_Dataset_Name":"Bus Terminals - FDEM","Source_Asset_ID":null,"Restricted_Public_Disclosure":null,"Notes":null,"Regional_Planning_Council":"South Florida","FDEP_Regulatory_District":"Southeast District","RCP_Region":"Southeast","FDOT_District":4,"House_District_Number":100,"Senate_District_Number":32,"CTF_RL_2020":"Not Affected","CTF_RL_2040_IL":"Not Affected","CTF_RL_2040_INT":"Not Affected","CTF_RL_2070_IL":"Not Affected","CTF_RL_2070_INT":"Not Affected","SSF_RL_100YR_CURR":"Medium","SSF_RL_100YR_2040_IL":"Medium","SSF_RL_100YR_2040_INT":"Medium","SSF_RL_100YR_2070_IL":"High","SSF_RL_100YR_2070_INT":"High","SSF_RL_500YR_CURR":"High","SSF_RL_500YR_2040_IL":"High","SSF_RL_500YR_2040_INT":"High","SSF_RL_500YR_2070_IL":"High","SSF_RL_500YR_2070_INT":"High","RIF_RL_100YR_2020":"Medium","RIF_RL_100YR_2040":"Medium","RIF_RL_100YR_2070":"Medium","RIF_RL_500YR_2020":"Medium","RIF_RL_500YR_2040":"Medium","RIF_RL_500YR_2070":"Medium"}},{"type":"Feature","id":32,"geometry":{"type":"Point","coordinates":[-81.9541499999135,28.047119998847]},"properties":{"OBJECTID_1":32,"OBJECTID":32,"Name":"GREYHOUND-LAKELAND","Address":"303 N MASSACHUSETTS AVE","City":"LAKELAND","Zip":" ","COUNTY":"Polk","X":-81.95415,"Y":28.04712,"LONGLAT":"-81.95415000,28.04712000","USNG":"17R MM 06223 02789","OWNERSHIP":" ","PARCELID":" ","FACILITY_T":"BUS TERMINAL","Asset_Elevation":null,"Owned_Maintained":" ","Asset":"BUS TERMINAL","Asset_Sub_Type":null,"Asset_Type":"Bus Terminals","Asset_Group":"Transportation and Evacuation Routes","Asset_Relevancy":"Regionally Significant","Asset_ID":"BUS_000032","Municipality":"Lakeland","Water_Management_District":"Southwest Florida Water Management District","Souce_Dataset_Entity":"FDEM","Souce_Dataset_Name":"Bus Terminals - FDEM","Source_Asset_ID":null,"Restricted_Public_Disclosure":null,"Notes":null,"Regional_Planning_Council":"Central Florida","FDEP_Regulatory_District":"Southwest District","RCP_Region":"Southwest","FDOT_District":1,"House_District_Number":50,"Senate_District_Number":12,"CTF_RL_2020":"Not Affected","CTF_RL_2040_IL":"Not Affected","CTF_RL_2040_INT":"Not Affected","CTF_RL_2070_IL":"Not Affected","CTF_RL_2070_INT":"Not Affected","SSF_RL_100YR_CURR":"Not Affected","SSF_RL_100YR_2040_IL":"Not Affected","SSF_RL_100YR_2040_INT":"Not Affected","SSF_RL_100YR_2070_IL":"Not Affected","SSF_RL_100YR_2070_INT":"Not Affected","SSF_RL_500YR_CURR":"Not Affected","SSF_RL_500YR_2040_IL":"Not Affected","SSF_RL_500YR_2040_INT":"Not Affected","SSF_RL_500YR_2070_IL":"Not Affected","SSF_RL_500YR_2070_INT":"Not Affected","RIF_RL_100YR_2020":"Low","RIF_RL_100YR_2040":"Medium","RIF_RL_100YR_2070":"Low","RIF_RL_500YR_2020":"Low","RIF_RL_500YR_2040":"Low","RIF_RL_500YR_2070":"Low"}},{"type":"Feature","id":33,"geometry":{"type":"Point","coordinates":[-80.3668199998811,25.5784999998181]},"properties":{"OBJECTID_1":33,"OBJECTID":33,"Name":"GREYHOUND-MIAMI CUTLER RIDGE","Address":"10801 CARIBBEAN BLVD","City":"MIAMI","Zip":" ","COUNTY":"Miami-Dade","X":-80.36682,"Y":25.5785,"LONGLAT":"-80.36682000,25.57850000","USNG":"17R NJ 63592 29158","OWNERSHIP":" ","PARCELID":" ","FACILITY_T":"BUS TERMINAL","Asset_Elevation":null,"Owned_Maintained":" ","Asset":"BUS TERMINAL","Asset_Sub_Type":null,"Asset_Type":"Bus Terminals","Asset_Group":"Transportation and Evacuation Routes","Asset_Relevancy":"Regionally Significant","Asset_ID":"BUS_000033","Municipality":"Cutler Bay","Water_Management_District":"South Florida Water Management District","Souce_Dataset_Entity":"FDEM","Souce_Dataset_Name":"Bus Terminals - FDEM","Source_Asset_ID":null,"Restricted_Public_Disclosure":null,"Notes":null,"Regional_Planning_Council":"South Florida","FDEP_Regulatory_District":"Southeast District","RCP_Region":"Southeast","FDOT_District":6,"House_District_Number":115,"Senate_District_Number":38,"CTF_RL_2020":"Not Affected","CTF_RL_2040_IL":"Not Affected","CTF_RL_2040_INT":"Not Affected","CTF_RL_2070_IL":"Not Affected","CTF_RL_2070_INT":"Not Affected","SSF_RL_100YR_CURR":"Medium","SSF_RL_100YR_2040_IL":"Medium","SSF_RL_100YR_2040_INT":"High","SSF_RL_100YR_2070_IL":"High","SSF_RL_100YR_2070_INT":"High","SSF_RL_500YR_CURR":"High","SSF_RL_500YR_2040_IL":"High","SSF_RL_500YR_2040_INT":"High","SSF_RL_500YR_2070_IL":"High","SSF_RL_500YR_2070_INT":"High","RIF_RL_100YR_2020":"Medium","RIF_RL_100YR_2040":"Medium","RIF_RL_100YR_2070":"Medium","RIF_RL_500YR_2020":"Medium","RIF_RL_500YR_2040":"Medium","RIF_RL_500YR_2070":"Medium"}},{"type":"Feature","id":34,"geometry":{"type":"Point","coordinates":[-82.5834599993332,28.8881699995492]},"properties":{"OBJECTID_1":34,"OBJECTID":34,"Name":"GREYHOUND-CRYSTAL RIVER","Address":"640 SE 8TH TER","City":"CRYSTAL RIVER","Zip":" ","COUNTY":"Citrus","X":-82.58346,"Y":28.88817,"LONGLAT":"-82.58346000,28.88817000","USNG":"17R LM 45594 96626","OWNERSHIP":" ","PARCELID":" ","FACILITY_T":"BUS TERMINAL","Asset_Elevation":null,"Owned_Maintained":" ","Asset":"BUS TERMINAL","Asset_Sub_Type":null,"Asset_Type":"Bus Terminals","Asset_Group":"Transportation and Evacuation Routes","Asset_Relevancy":"Regionally Significant","Asset_ID":"BUS_000034","Municipality":"Crystal River","Water_Management_District":"Southwest Florida Water Management District","Souce_Dataset_Entity":"FDEM","Souce_Dataset_Name":"Bus Terminals - FDEM","Source_Asset_ID":null,"Restricted_Public_Disclosure":null,"Notes":null,"Regional_Planning_Council":"Tampa Bay","FDEP_Regulatory_District":"Southwest District","RCP_Region":"Northwest","FDOT_District":7,"House_District_Number":23,"Senate_District_Number":11,"CTF_RL_2020":"Not Affected","CTF_RL_2040_IL":"Not Affected","CTF_RL_2040_INT":"Not Affected","CTF_RL_2070_IL":"Not Affected","CTF_RL_2070_INT":"Not Affected","SSF_RL_100YR_CURR":"Medium","SSF_RL_100YR_2040_IL":"High","SSF_RL_100YR_2040_INT":"High","SSF_RL_100YR_2070_IL":"High","SSF_RL_100YR_2070_INT":"High","SSF_RL_500YR_CURR":"High","SSF_RL_500YR_2040_IL":"High","SSF_RL_500YR_2040_INT":"High","SSF_RL_500YR_2070_IL":"High","SSF_RL_500YR_2070_INT":"High","RIF_RL_100YR_2020":"Not Affected","RIF_RL_100YR_2040":"Not Affected","RIF_RL_100YR_2070":"Not Affected","RIF_RL_500YR_2020":"Not Affected","RIF_RL_500YR_2040":"Not Affected","RIF_RL_500YR_2070":"Not Affected"}},{"type":"Feature","id":35,"geometry":{"type":"Point","coordinates":[-82.4563299993392,27.9517399989557]},"properties":{"OBJECTID_1":35,"OBJECTID":35,"Name":"GREYHOUND-TAMPA","Address":"610 E POLK ST","City":"TAMPA","Zip":" ","COUNTY":"Hillsborough","X":-82.45633,"Y":27.95174,"LONGLAT":"-82.45633000,27.95174000","USNG":"17R LL 56737 92709","OWNERSHIP":" ","PARCELID":" ","FACILITY_T":"BUS TERMINAL","Asset_Elevation":null,"Owned_Maintained":" ","Asset":"BUS TERMINAL","Asset_Sub_Type":null,"Asset_Type":"Bus Terminals","Asset_Group":"Transportation and Evacuation Routes","Asset_Relevancy":"Regionally Significant","Asset_ID":"BUS_000035","Municipality":"Tampa","Water_Management_District":"Southwest Florida Water Management District","Souce_Dataset_Entity":"FDEM","Souce_Dataset_Name":"Bus Terminals - FDEM","Source_Asset_ID":null,"Restricted_Public_Disclosure":null,"Notes":null,"Regional_Planning_Council":"Tampa Bay","FDEP_Regulatory_District":"Southwest District","RCP_Region":"Southwest","FDOT_District":7,"House_District_Number":65,"Senate_District_Number":16,"CTF_RL_2020":"Not Affected","CTF_RL_2040_IL":"Not Affected","CTF_RL_2040_INT":"Not Affected","CTF_RL_2070_IL":"Not Affected","CTF_RL_2070_INT":"Not Affected","SSF_RL_100YR_CURR":"Not Affected","SSF_RL_100YR_2040_IL":"Not Affected","SSF_RL_100YR_2040_INT":"Not Affected","SSF_RL_100YR_2070_IL":"Not Affected","SSF_RL_100YR_2070_INT":"Not Affected","SSF_RL_500YR_CURR":"Not Affected","SSF_RL_500YR_2040_IL":"Not Affected","SSF_RL_500YR_2040_INT":"Not Affected","SSF_RL_500YR_2070_IL":"Not Affected","SSF_RL_500YR_2070_INT":"Not Affected","RIF_RL_100YR_2020":"Low","RIF_RL_100YR_2040":"Low","RIF_RL_100YR_2070":"Low","RIF_RL_500YR_2020":"Low","RIF_RL_500YR_2040":"Medium","RIF_RL_500YR_2070":"Medium"}},{"type":"Feature","id":36,"geometry":{"type":"Point","coordinates":[-81.3515700000567,24.6695899990224]},"properties":{"OBJECTID_1":36,"OBJECTID":36,"Name":"GREYHOUND-BIG PINE KEY","Address":"30725 OVERSEAS HWY","City":"BIG PINE KEY","Zip":" ","COUNTY":"Monroe","X":-81.35157,"Y":24.66959,"LONGLAT":"-81.35157000,24.66959000","USNG":"17R MH 64428 28408","OWNERSHIP":" ","PARCELID":" ","FACILITY_T":"BUS TERMINAL","Asset_Elevation":null,"Owned_Maintained":" ","Asset":"BUS TERMINAL","Asset_Sub_Type":null,"Asset_Type":"Bus Terminals","Asset_Group":"Transportation and Evacuation Routes","Asset_Relevancy":"Regionally Significant","Asset_ID":"BUS_000036","Municipality":null,"Water_Management_District":"South Florida Water Management District","Souce_Dataset_Entity":"FDEM","Souce_Dataset_Name":"Bus Terminals - FDEM","Source_Asset_ID":null,"Restricted_Public_Disclosure":null,"Notes":null,"Regional_Planning_Council":"South Florida","FDEP_Regulatory_District":"Southeast District","RCP_Region":"Southeast","FDOT_District":6,"House_District_Number":120,"Senate_District_Number":40,"CTF_RL_2020":"Not Affected","CTF_RL_2040_IL":"Not Affected","CTF_RL_2040_INT":"Not Affected","CTF_RL_2070_IL":"Not Affected","CTF_RL_2070_INT":"Not Affected","SSF_RL_100YR_CURR":"Medium","SSF_RL_100YR_2040_IL":"High","SSF_RL_100YR_2040_INT":"High","SSF_RL_100YR_2070_IL":"High","SSF_RL_100YR_2070_INT":"High","SSF_RL_500YR_CURR":"High","SSF_RL_500YR_2040_IL":"High","SSF_RL_500YR_2040_INT":"High","SSF_RL_500YR_2070_IL":"High","SSF_RL_500YR_2070_INT":"High","RIF_RL_100YR_2020":"Not Affected","RIF_RL_100YR_2040":"Not Affected","RIF_RL_100YR_2070":"Not Affected","RIF_RL_500YR_2020":"Not Affected","RIF_RL_500YR_2040":"Not Affected","RIF_RL_500YR_2070":"Not Affected"}},{"type":"Feature","id":37,"geometry":{"type":"Point","coordinates":[-81.6396499992887,29.6497699991531]},"properties":{"OBJECTID_1":37,"OBJECTID":37,"Name":"GREYHOUND-PALATKA","Address":"220 N 11TH ST","City":"PALATKA","Zip":" ","COUNTY":"Putnam","X":-81.63965,"Y":29.64977,"LONGLAT":"-81.63965000,29.64977000","USNG":"17R MN 38091 80149","OWNERSHIP":" ","PARCELID":" ","FACILITY_T":"BUS TERMINAL","Asset_Elevation":null,"Owned_Maintained":" ","Asset":"BUS TERMINAL","Asset_Sub_Type":null,"Asset_Type":"Bus Terminals","Asset_Group":"Transportation and Evacuation Routes","Asset_Relevancy":"Regionally Significant","Asset_ID":"BUS_000037","Municipality":"Palatka","Water_Management_District":"St. Johns River Water Management District","Souce_Dataset_Entity":"FDEM","Souce_Dataset_Name":"Bus Terminals - FDEM","Source_Asset_ID":null,"Restricted_Public_Disclosure":null,"Notes":null,"Regional_Planning_Council":"Northeast Florida","FDEP_Regulatory_District":"Northeast District","RCP_Region":"Northeast","FDOT_District":2,"House_District_Number":20,"Senate_District_Number":7,"CTF_RL_2020":"Not Affected","CTF_RL_2040_IL":"Not Affected","CTF_RL_2040_INT":"Not Affected","CTF_RL_2070_IL":"Not Affected","CTF_RL_2070_INT":"Not Affected","SSF_RL_100YR_CURR":"Not Affected","SSF_RL_100YR_2040_IL":"Not Affected","SSF_RL_100YR_2040_INT":"Not Affected","SSF_RL_100YR_2070_IL":"Not Affected","SSF_RL_100YR_2070_INT":"Not Affected","SSF_RL_500YR_CURR":"Not Affected","SSF_RL_500YR_2040_IL":"Not Affected","SSF_RL_500YR_2040_INT":"Not Affected","SSF_RL_500YR_2070_IL":"Not Affected","SSF_RL_500YR_2070_INT":"Not Affected","RIF_RL_100YR_2020":"Not Affected","RIF_RL_100YR_2040":"Not Affected","RIF_RL_100YR_2070":"Not Affected","RIF_RL_500YR_2020":"Not Affected","RIF_RL_500YR_2040":"Not Affected","RIF_RL_500YR_2070":"Not Affected"}},{"type":"Feature","id":38,"geometry":{"type":"Point","coordinates":[-87.234880043962,30.4446295334387]},"properties":{"OBJECTID_1":38,"OBJECTID":38,"Name":"ESCAMBIA COUNTY AREA TRANSIT","Address":"1515 W FAIRFIELD DR","City":"PENSACOLA","Zip":"32501","COUNTY":"Escambia","X":-87.23488004,"Y":30.44462953,"LONGLAT":"-87.23488004,30.44462953","USNG":"16R DU 77448 68079","OWNERSHIP":" ","PARCELID":" ","FACILITY_T":"BUS TERMINAL","Asset_Elevation":null,"Owned_Maintained":" ","Asset":"BUS TERMINAL","Asset_Sub_Type":null,"Asset_Type":"Bus Terminals","Asset_Group":"Transportation and Evacuation Routes","Asset_Relevancy":"Regionally Significant","Asset_ID":"BUS_000038","Municipality":null,"Water_Management_District":"Northwest Florida Water Management District","Souce_Dataset_Entity":"FDEM","Souce_Dataset_Name":"Bus Terminals - FDEM","Source_Asset_ID":null,"Restricted_Public_Disclosure":null,"Notes":null,"Regional_Planning_Council":"Emerald Coast","FDEP_Regulatory_District":"Northwest District","RCP_Region":"Northwest","FDOT_District":3,"House_District_Number":2,"Senate_District_Number":1,"CTF_RL_2020":"Not Affected","CTF_RL_2040_IL":"Not Affected","CTF_RL_2040_INT":"Not Affected","CTF_RL_2070_IL":"Not Affected","CTF_RL_2070_INT":"Not Affected","SSF_RL_100YR_CURR":"Not Affected","SSF_RL_100YR_2040_IL":"Not Affected","SSF_RL_100YR_2040_INT":"Not Affected","SSF_RL_100YR_2070_IL":"Not Affected","SSF_RL_100YR_2070_INT":"Not Affected","SSF_RL_500YR_CURR":"Not Affected","SSF_RL_500YR_2040_IL":"Not Affected","SSF_RL_500YR_2040_INT":"Not Affected","SSF_RL_500YR_2070_IL":"Not Affected","SSF_RL_500YR_2070_INT":"Not Affected","RIF_RL_100YR_2020":"Medium","RIF_RL_100YR_2040":"Medium","RIF_RL_100YR_2070":"Medium","RIF_RL_500YR_2020":"Medium","RIF_RL_500YR_2040":"High","RIF_RL_500YR_2070":"High"}},{"type":"Feature","id":39,"geometry":{"type":"Point","coordinates":[-87.2288117403711,30.4684815801753]},"properties":{"OBJECTID_1":39,"OBJECTID":39,"Name":"GOOD TIME TOURS","Address":"455 CORDAY ST","City":"PENSACOLA","Zip":"32503","COUNTY":"Escambia","X":-87.22881174,"Y":30.46848158,"LONGLAT":"-87.22881174,30.46848158","USNG":"16R DU 78036 70721","OWNERSHIP":" ","PARCELID":" ","FACILITY_T":"BUS TERMINAL","Asset_Elevation":null,"Owned_Maintained":" ","Asset":"BUS TERMINAL","Asset_Sub_Type":null,"Asset_Type":"Bus Terminals","Asset_Group":"Transportation and Evacuation Routes","Asset_Relevancy":"Regionally Significant","Asset_ID":"BUS_000039","Municipality":null,"Water_Management_District":"Northwest Florida Water Management District","Souce_Dataset_Entity":"FDEM","Souce_Dataset_Name":"Bus Terminals - FDEM","Source_Asset_ID":null,"Restricted_Public_Disclosure":null,"Notes":null,"Regional_Planning_Council":"Emerald Coast","FDEP_Regulatory_District":"Northwest District","RCP_Region":"Northwest","FDOT_District":3,"House_District_Number":1,"Senate_District_Number":1,"CTF_RL_2020":"Not Affected","CTF_RL_2040_IL":"Not Affected","CTF_RL_2040_INT":"Not Affected","CTF_RL_2070_IL":"Not Affected","CTF_RL_2070_INT":"Not Affected","SSF_RL_100YR_CURR":"Not Affected","SSF_RL_100YR_2040_IL":"Not Affected","SSF_RL_100YR_2040_INT":"Not Affected","SSF_RL_100YR_2070_IL":"Not Affected","SSF_RL_100YR_2070_INT":"Not Affected","SSF_RL_500YR_CURR":"Not Affected","SSF_RL_500YR_2040_IL":"Not Affected","SSF_RL_500YR_2040_INT":"Not Affected","SSF_RL_500YR_2070_IL":"Not Affected","SSF_RL_500YR_2070_INT":"Not Affected","RIF_RL_100YR_2020":"Not Affected","RIF_RL_100YR_2040":"Not Affected","RIF_RL_100YR_2070":"Not Affected","RIF_RL_500YR_2020":"Low","RIF_RL_500YR_2040":"Medium","RIF_RL_500YR_2070":"Low"}},{"type":"Feature","id":40,"geometry":{"type":"Point","coordinates":[-80.1450799711344,26.1233034035081]},"properties":{"OBJECTID_1":40,"OBJECTID":40,"Name":"BROWARD COUNTY MASS TRANSIT","Address":"101 NW 1ST AVENUE","City":"FORT LAUDERDALE","Zip":"33301","COUNTY":"Broward","X":-80.14507997,"Y":26.1233034,"LONGLAT":"-80.14507997,26.12330340","USNG":"17R NJ 85470 89619","OWNERSHIP":"COUNTY","PARCELID":"504210011730","FACILITY_T":"BUS TERMINAL","Asset_Elevation":null,"Owned_Maintained":"COUNTY","Asset":"BUS TERMINAL","Asset_Sub_Type":null,"Asset_Type":"Bus Terminals","Asset_Group":"Transportation and Evacuation Routes","Asset_Relevancy":"Regionally Significant","Asset_ID":"BUS_000040","Municipality":"Fort Lauderdale","Water_Management_District":"South Florida Water Management District","Souce_Dataset_Entity":"FDEM","Souce_Dataset_Name":"Bus Terminals - FDEM","Source_Asset_ID":null,"Restricted_Public_Disclosure":null,"Notes":null,"Regional_Planning_Council":"South Florida","FDEP_Regulatory_District":"Southeast District","RCP_Region":"Southeast","FDOT_District":4,"House_District_Number":100,"Senate_District_Number":32,"CTF_RL_2020":"Not Affected","CTF_RL_2040_IL":"Not Affected","CTF_RL_2040_INT":"Not Affected","CTF_RL_2070_IL":"Not Affected","CTF_RL_2070_INT":"Not Affected","SSF_RL_100YR_CURR":"Not Affected","SSF_RL_100YR_2040_IL":"Not Affected","SSF_RL_100YR_2040_INT":"Not Affected","SSF_RL_100YR_2070_IL":"Low","SSF_RL_100YR_2070_INT":"Medium","SSF_RL_500YR_CURR":"Medium","SSF_RL_500YR_2040_IL":"Medium","SSF_RL_500YR_2040_INT":"Medium","SSF_RL_500YR_2070_IL":"High","SSF_RL_500YR_2070_INT":"High","RIF_RL_100YR_2020":"Not Affected","RIF_RL_100YR_2040":"Not Affected","RIF_RL_100YR_2070":"Not Affected","RIF_RL_500YR_2020":"Not Affected","RIF_RL_500YR_2040":"Not Affected","RIF_RL_500YR_2070":"Not Affected"}},{"type":"Feature","id":41,"geometry":{"type":"Point","coordinates":[-81.8680100006875,26.6397699988572]},"properties":{"OBJECTID_1":41,"OBJECTID":41,"Name":"GREYHOUND-FORT MYERS","Address":"2250 WIDMAN WAY","City":"FORT MYERS","Zip":" ","COUNTY":"Lee","X":-81.86801,"Y":26.63977,"LONGLAT":"-81.86801000,26.63977000","USNG":"17R MK 13605 46830","OWNERSHIP":" ","PARCELID":" ","FACILITY_T":"BUS TERMINAL","Asset_Elevation":null,"Owned_Maintained":" ","Asset":"BUS TERMINAL","Asset_Sub_Type":null,"Asset_Type":"Bus Terminals","Asset_Group":"Transportation and Evacuation Routes","Asset_Relevancy":"Regionally Significant","Asset_ID":"BUS_000041","Municipality":"Fort Myers","Water_Management_District":"South Florida Water Management District","Souce_Dataset_Entity":"FDEM","Souce_Dataset_Name":"Bus Terminals - FDEM","Source_Asset_ID":null,"Restricted_Public_Disclosure":null,"Notes":null,"Regional_Planning_Council":"Southwest Florida","FDEP_Regulatory_District":"South District","RCP_Region":"Southwest","FDOT_District":1,"House_District_Number":78,"Senate_District_Number":33,"CTF_RL_2020":"Not Affected","CTF_RL_2040_IL":"Not Affected","CTF_RL_2040_INT":"Not Affected","CTF_RL_2070_IL":"Not Affected","CTF_RL_2070_INT":"Not Affected","SSF_RL_100YR_CURR":"Not Affected","SSF_RL_100YR_2040_IL":"Not Affected","SSF_RL_100YR_2040_INT":"Not Affected","SSF_RL_100YR_2070_IL":"Not Affected","SSF_RL_100YR_2070_INT":"Not Affected","SSF_RL_500YR_CURR":"Not Affected","SSF_RL_500YR_2040_IL":"Not Affected","SSF_RL_500YR_2040_INT":"Not Affected","SSF_RL_500YR_2070_IL":"Not Affected","SSF_RL_500YR_2070_INT":"Not Affected","RIF_RL_100YR_2020":"Medium","RIF_RL_100YR_2040":"Medium","RIF_RL_100YR_2070":"Medium","RIF_RL_500YR_2020":"Medium","RIF_RL_500YR_2040":"Medium","RIF_RL_500YR_2070":"Medium"}},{"type":"Feature","id":42,"geometry":{"type":"Point","coordinates":[-85.6602999997802,30.1651899987145]},"properties":{"OBJECTID_1":42,"OBJECTID":42,"Name":"GREYHOUND BUS LINE","Address":"917 HARRISON AVE","City":" ","Zip":" ","COUNTY":"Bay","X":-85.6603,"Y":30.16519,"LONGLAT":"-85.66030000,30.16519000","USNG":"16R FU 29002 37847","OWNERSHIP":" ","PARCELID":" ","FACILITY_T":"BUS TERMINAL","Asset_Elevation":null,"Owned_Maintained":" ","Asset":"BUS TERMINAL","Asset_Sub_Type":null,"Asset_Type":"Bus Terminals","Asset_Group":"Transportation and Evacuation Routes","Asset_Relevancy":"Regionally Significant","Asset_ID":"BUS_000042","Municipality":"Panama City","Water_Management_District":"Northwest Florida Water Management District","Souce_Dataset_Entity":"FDEM","Souce_Dataset_Name":"Bus Terminals - FDEM","Source_Asset_ID":null,"Restricted_Public_Disclosure":null,"Notes":null,"Regional_Planning_Council":"Emerald Coast","FDEP_Regulatory_District":"Northwest District","RCP_Region":"Northwest","FDOT_District":3,"House_District_Number":6,"Senate_District_Number":2,"CTF_RL_2020":"Not Affected","CTF_RL_2040_IL":"Not Affected","CTF_RL_2040_INT":"Not Affected","CTF_RL_2070_IL":"Not Affected","CTF_RL_2070_INT":"Not Affected","SSF_RL_100YR_CURR":"Not Affected","SSF_RL_100YR_2040_IL":"Not Affected","SSF_RL_100YR_2040_INT":"Not Affected","SSF_RL_100YR_2070_IL":"Not Affected","SSF_RL_100YR_2070_INT":"Not Affected","SSF_RL_500YR_CURR":"Not Affected","SSF_RL_500YR_2040_IL":"Not Affected","SSF_RL_500YR_2040_INT":"Not Affected","SSF_RL_500YR_2070_IL":"Not Affected","SSF_RL_500YR_2070_INT":"Not Affected","RIF_RL_100YR_2020":"Not Affected","RIF_RL_100YR_2040":"Not Affected","RIF_RL_100YR_2070":"Not Affected","RIF_RL_500YR_2020":"Not Affected","RIF_RL_500YR_2040":"Not Affected","RIF_RL_500YR_2070":"Not Affected"}},{"type":"Feature","id":43,"geometry":{"type":"Point","coordinates":[-82.5630499994731,27.4724499991438]},"properties":{"OBJECTID_1":43,"OBJECTID":43,"Name":"GREYHOUND-BRADENTON","Address":"3028 1ST ST","City":"BRADENTON","Zip":" ","COUNTY":"Manatee","X":-82.56305,"Y":27.47245,"LONGLAT":"-82.56305000,27.47245000","USNG":"17R LL 45563 39737","OWNERSHIP":" ","PARCELID":" ","FACILITY_T":"BUS TERMINAL","Asset_Elevation":null,"Owned_Maintained":" ","Asset":"BUS TERMINAL","Asset_Sub_Type":null,"Asset_Type":"Bus Terminals","Asset_Group":"Transportation and Evacuation Routes","Asset_Relevancy":"Regionally Significant","Asset_ID":"BUS_000043","Municipality":null,"Water_Management_District":"Southwest Florida Water Management District","Souce_Dataset_Entity":"FDEM","Souce_Dataset_Name":"Bus Terminals - FDEM","Source_Asset_ID":null,"Restricted_Public_Disclosure":null,"Notes":null,"Regional_Planning_Council":"Tampa Bay","FDEP_Regulatory_District":"Southwest District","RCP_Region":"Southwest","FDOT_District":1,"House_District_Number":71,"Senate_District_Number":20,"CTF_RL_2020":"Not Affected","CTF_RL_2040_IL":"Not Affected","CTF_RL_2040_INT":"Not Affected","CTF_RL_2070_IL":"Not Affected","CTF_RL_2070_INT":"Not Affected","SSF_RL_100YR_CURR":"Not Affected","SSF_RL_100YR_2040_IL":"Not Affected","SSF_RL_100YR_2040_INT":"Not Affected","SSF_RL_100YR_2070_IL":"Not Affected","SSF_RL_100YR_2070_INT":"Not Affected","SSF_RL_500YR_CURR":"Not Affected","SSF_RL_500YR_2040_IL":"Not Affected","SSF_RL_500YR_2040_INT":"Not Affected","SSF_RL_500YR_2070_IL":"Not Affected","SSF_RL_500YR_2070_INT":"Not Affected","RIF_RL_100YR_2020":"Not Affected","RIF_RL_100YR_2040":"Not Affected","RIF_RL_100YR_2070":"Not Affected","RIF_RL_500YR_2020":"Not Affected","RIF_RL_500YR_2040":"Not Affected","RIF_RL_500YR_2070":"Not Affected"}},{"type":"Feature","id":44,"geometry":{"type":"Point","coordinates":[-81.0222199997341,29.2095299986882]},"properties":{"OBJECTID_1":44,"OBJECTID":44,"Name":"GREYHOUND-DAYTONA BEACH","Address":"138 S RIDGEWOOD AVE","City":"DAYTONA BEACH","Zip":" ","COUNTY":"Volusia","X":-81.02222,"Y":29.20953,"LONGLAT":"-81.02222000,29.20953000","USNG":"17R MN 97840 31200","OWNERSHIP":" ","PARCELID":" ","FACILITY_T":"BUS TERMINAL","Asset_Elevation":null,"Owned_Maintained":" ","Asset":"BUS TERMINAL","Asset_Sub_Type":null,"Asset_Type":"Bus Terminals","Asset_Group":"Transportation and Evacuation Routes","Asset_Relevancy":"Regionally Significant","Asset_ID":"BUS_000044","Municipality":"Daytona Beach","Water_Management_District":"St. Johns River Water Management District","Souce_Dataset_Entity":"FDEM","Souce_Dataset_Name":"Bus Terminals - FDEM","Source_Asset_ID":null,"Restricted_Public_Disclosure":null,"Notes":null,"Regional_Planning_Council":"East Central Florida","FDEP_Regulatory_District":"Central District","RCP_Region":"Northeast","FDOT_District":5,"House_District_Number":28,"Senate_District_Number":8,"CTF_RL_2020":"Not Affected","CTF_RL_2040_IL":"Not Affected","CTF_RL_2040_INT":"Not Affected","CTF_RL_2070_IL":"Not Affected","CTF_RL_2070_INT":"Not Affected","SSF_RL_100YR_CURR":"Not Affected","SSF_RL_100YR_2040_IL":"Not Affected","SSF_RL_100YR_2040_INT":"Not Affected","SSF_RL_100YR_2070_IL":"Not Affected","SSF_RL_100YR_2070_INT":"Not Affected","SSF_RL_500YR_CURR":"Not Affected","SSF_RL_500YR_2040_IL":"Not Affected","SSF_RL_500YR_2040_INT":"Not Affected","SSF_RL_500YR_2070_IL":"Not Affected","SSF_RL_500YR_2070_INT":"Not Affected","RIF_RL_100YR_2020":"Not Affected","RIF_RL_100YR_2040":"Not Affected","RIF_RL_100YR_2070":"Not Affected","RIF_RL_500YR_2020":"Not Affected","RIF_RL_500YR_2040":"Not Affected","RIF_RL_500YR_2070":"Not Affected"}},{"type":"Feature","id":45,"geometry":{"type":"Point","coordinates":[-80.3975999998197,27.413119999252]},"properties":{"OBJECTID_1":45,"OBJECTID":45,"Name":"GREYHOUND-FORT PIERCE","Address":"7150 OKEECHOBEE RD","City":"FORT PIERCE","Zip":" ","COUNTY":"St. Lucie","X":-80.3976,"Y":27.41312,"LONGLAT":"-80.39760000,27.41312000","USNG":"17R NL 59547 32337","OWNERSHIP":" ","PARCELID":" ","FACILITY_T":"BUS TERMINAL","Asset_Elevation":null,"Owned_Maintained":" ","Asset":"BUS TERMINAL","Asset_Sub_Type":null,"Asset_Type":"Bus Terminals","Asset_Group":"Transportation and Evacuation Routes","Asset_Relevancy":"Regionally Significant","Asset_ID":"BUS_000045","Municipality":"Fort Pierce","Water_Management_District":"South Florida Water Management District","Souce_Dataset_Entity":"FDEM","Souce_Dataset_Name":"Bus Terminals - FDEM","Source_Asset_ID":null,"Restricted_Public_Disclosure":null,"Notes":null,"Regional_Planning_Council":"Treasure Coast","FDEP_Regulatory_District":"Southeast District","RCP_Region":"Northeast","FDOT_District":4,"House_District_Number":84,"Senate_District_Number":29,"CTF_RL_2020":"Not Affected","CTF_RL_2040_IL":"Not Affected","CTF_RL_2040_INT":"Not Affected","CTF_RL_2070_IL":"Not Affected","CTF_RL_2070_INT":"Not Affected","SSF_RL_100YR_CURR":"Not Affected","SSF_RL_100YR_2040_IL":"Not Affected","SSF_RL_100YR_2040_INT":"Not Affected","SSF_RL_100YR_2070_IL":"Not Affected","SSF_RL_100YR_2070_INT":"Not Affected","SSF_RL_500YR_CURR":"Not Affected","SSF_RL_500YR_2040_IL":"Not Affected","SSF_RL_500YR_2040_INT":"Not Affected","SSF_RL_500YR_2070_IL":"Not Affected","SSF_RL_500YR_2070_INT":"Not Affected","RIF_RL_100YR_2020":"Medium","RIF_RL_100YR_2040":"Medium","RIF_RL_100YR_2070":"Medium","RIF_RL_500YR_2020":"Medium","RIF_RL_500YR_2040":"Medium","RIF_RL_500YR_2070":"Medium"}},{"type":"Feature","id":46,"geometry":{"type":"Point","coordinates":[-82.646649999986,27.7733899989468]},"properties":{"OBJECTID_1":46,"OBJECTID":46,"Name":"GREYHOUND-ST PETERSBURG","Address":"180 9TH ST N","City":"ST PETERSBURG","Zip":" ","COUNTY":"Pinellas","X":-82.64665,"Y":27.77339,"LONGLAT":"-82.64665000,27.77339000","USNG":"17R LL 37747 73186","OWNERSHIP":" ","PARCELID":" ","FACILITY_T":"BUS TERMINAL","Asset_Elevation":null,"Owned_Maintained":" ","Asset":"BUS TERMINAL","Asset_Sub_Type":null,"Asset_Type":"Bus Terminals","Asset_Group":"Transportation and Evacuation Routes","Asset_Relevancy":"Regionally Significant","Asset_ID":"BUS_000046","Municipality":"St. Petersburg","Water_Management_District":"Southwest Florida Water Management District","Souce_Dataset_Entity":"FDEM","Souce_Dataset_Name":"Bus Terminals - FDEM","Source_Asset_ID":null,"Restricted_Public_Disclosure":null,"Notes":null,"Regional_Planning_Council":"Tampa Bay","FDEP_Regulatory_District":"Southwest District","RCP_Region":"Southwest","FDOT_District":7,"House_District_Number":62,"Senate_District_Number":16,"CTF_RL_2020":"Not Affected","CTF_RL_2040_IL":"Not Affected","CTF_RL_2040_INT":"Not Affected","CTF_RL_2070_IL":"Not Affected","CTF_RL_2070_INT":"Not Affected","SSF_RL_100YR_CURR":"Not Affected","SSF_RL_100YR_2040_IL":"Not Affected","SSF_RL_100YR_2040_INT":"Not Affected","SSF_RL_100YR_2070_IL":"Not Affected","SSF_RL_100YR_2070_INT":"Not Affected","SSF_RL_500YR_CURR":"Not Affected","SSF_RL_500YR_2040_IL":"Not Affected","SSF_RL_500YR_2040_INT":"Not Affected","SSF_RL_500YR_2070_IL":"Not Affected","SSF_RL_500YR_2070_INT":"Not Affected","RIF_RL_100YR_2020":"Medium","RIF_RL_100YR_2040":"Medium","RIF_RL_100YR_2070":"Medium","RIF_RL_500YR_2020":"Medium","RIF_RL_500YR_2040":"Medium","RIF_RL_500YR_2070":"Medium"}},{"type":"Feature","id":47,"geometry":{"type":"Point","coordinates":[-87.2618372636051,30.4964386784989]},"properties":{"OBJECTID_1":47,"OBJECTID":47,"Name":"GREYHOUND","Address":"505 W BURGESS RD","City":"PENSACOLA","Zip":"32503","COUNTY":"Escambia","X":-87.26183726,"Y":30.49643868,"LONGLAT":"-87.26183726,30.49643868","USNG":"16R DU 74873 73826","OWNERSHIP":" ","PARCELID":" ","FACILITY_T":"BUS TERMINAL","Asset_Elevation":null,"Owned_Maintained":" ","Asset":"BUS TERMINAL","Asset_Sub_Type":null,"Asset_Type":"Bus Terminals","Asset_Group":"Transportation and Evacuation Routes","Asset_Relevancy":"Regionally Significant","Asset_ID":"BUS_000047","Municipality":null,"Water_Management_District":"Northwest Florida Water Management District","Souce_Dataset_Entity":"FDEM","Souce_Dataset_Name":"Bus Terminals - FDEM","Source_Asset_ID":null,"Restricted_Public_Disclosure":null,"Notes":null,"Regional_Planning_Council":"Emerald Coast","FDEP_Regulatory_District":"Northwest District","RCP_Region":"Northwest","FDOT_District":3,"House_District_Number":1,"Senate_District_Number":1,"CTF_RL_2020":"Not Affected","CTF_RL_2040_IL":"Not Affected","CTF_RL_2040_INT":"Not Affected","CTF_RL_2070_IL":"Not Affected","CTF_RL_2070_INT":"Not Affected","SSF_RL_100YR_CURR":"Not Affected","SSF_RL_100YR_2040_IL":"Not Affected","SSF_RL_100YR_2040_INT":"Not Affected","SSF_RL_100YR_2070_IL":"Not Affected","SSF_RL_100YR_2070_INT":"Not Affected","SSF_RL_500YR_CURR":"Not Affected","SSF_RL_500YR_2040_IL":"Not Affected","SSF_RL_500YR_2040_INT":"Not Affected","SSF_RL_500YR_2070_IL":"Not Affected","SSF_RL_500YR_2070_INT":"Not Affected","RIF_RL_100YR_2020":"Not Affected","RIF_RL_100YR_2040":"Not Affected","RIF_RL_100YR_2070":"Not Affected","RIF_RL_500YR_2020":"Not Affected","RIF_RL_500YR_2040":"Not Affected","RIF_RL_500YR_2070":"Not Affected"}},{"type":"Feature","id":48,"geometry":{"type":"Point","coordinates":[-82.7207200000208,27.9605999992217]},"properties":{"OBJECTID_1":48,"OBJECTID":48,"Name":"GREYHOUND-CLEARWATER","Address":"2811 GULF TO BAY BLVD","City":"CLEARWATER","Zip":" ","COUNTY":"Pinellas","X":-82.72072,"Y":27.9606,"LONGLAT":"-82.72072000,27.96060000","USNG":"17R LL 30738 94029","OWNERSHIP":" ","PARCELID":" ","FACILITY_T":"BUS TERMINAL","Asset_Elevation":null,"Owned_Maintained":" ","Asset":"BUS TERMINAL","Asset_Sub_Type":null,"Asset_Type":"Bus Terminals","Asset_Group":"Transportation and Evacuation Routes","Asset_Relevancy":"Regionally Significant","Asset_ID":"BUS_000048","Municipality":"Clearwater","Water_Management_District":"Southwest Florida Water Management District","Souce_Dataset_Entity":"FDEM","Souce_Dataset_Name":"Bus Terminals - FDEM","Source_Asset_ID":null,"Restricted_Public_Disclosure":null,"Notes":null,"Regional_Planning_Council":"Tampa Bay","FDEP_Regulatory_District":"Southwest District","RCP_Region":"Southwest","FDOT_District":7,"House_District_Number":58,"Senate_District_Number":18,"CTF_RL_2020":"Not Affected","CTF_RL_2040_IL":"Not Affected","CTF_RL_2040_INT":"Not Affected","CTF_RL_2070_IL":"Not Affected","CTF_RL_2070_INT":"Not Affected","SSF_RL_100YR_CURR":"Not Affected","SSF_RL_100YR_2040_IL":"Not Affected","SSF_RL_100YR_2040_INT":"Not Affected","SSF_RL_100YR_2070_IL":"Not Affected","SSF_RL_100YR_2070_INT":"Not Affected","SSF_RL_500YR_CURR":"Not Affected","SSF_RL_500YR_2040_IL":"Not Affected","SSF_RL_500YR_2040_INT":"Not Affected","SSF_RL_500YR_2070_IL":"Not Affected","SSF_RL_500YR_2070_INT":"Not Affected","RIF_RL_100YR_2020":"Low","RIF_RL_100YR_2040":"Low","RIF_RL_100YR_2070":"Low","RIF_RL_500YR_2020":"Medium","RIF_RL_500YR_2040":"Medium","RIF_RL_500YR_2070":"Medium"}},{"type":"Feature","id":49,"geometry":{"type":"Point","coordinates":[-82.4105897018575,27.9687596375147]},"properties":{"OBJECTID_1":49,"OBJECTID":49,"Name":"HILLSBOROUGH AREA REGIONAL TRANSIT","Address":"4305 E 21ST AVE","City":"TAMPA","Zip":"33605","COUNTY":"Hillsborough","X":-82.4105897,"Y":27.96875964,"LONGLAT":"-82.41058970,27.96875964","USNG":"17R LL 61259 94542","OWNERSHIP":"COUNTY","PARCELID":"1929094BO000000000044A","FACILITY_T":"BUS TERMINAL","Asset_Elevation":null,"Owned_Maintained":"COUNTY","Asset":"BUS TERMINAL","Asset_Sub_Type":null,"Asset_Type":"Bus Terminals","Asset_Group":"Transportation and Evacuation Routes","Asset_Relevancy":"Regionally Significant","Asset_ID":"BUS_000049","Municipality":"Tampa","Water_Management_District":"Southwest Florida Water Management District","Souce_Dataset_Entity":"FDEM","Souce_Dataset_Name":"Bus Terminals - FDEM","Source_Asset_ID":null,"Restricted_Public_Disclosure":null,"Notes":null,"Regional_Planning_Council":"Tampa Bay","FDEP_Regulatory_District":"Southwest District","RCP_Region":"Southwest","FDOT_District":7,"House_District_Number":63,"Senate_District_Number":16,"CTF_RL_2020":"Not Affected","CTF_RL_2040_IL":"Not Affected","CTF_RL_2040_INT":"Not Affected","CTF_RL_2070_IL":"Not Affected","CTF_RL_2070_INT":"Not Affected","SSF_RL_100YR_CURR":"Not Affected","SSF_RL_100YR_2040_IL":"Not Affected","SSF_RL_100YR_2040_INT":"Not Affected","SSF_RL_100YR_2070_IL":"Not Affected","SSF_RL_100YR_2070_INT":"Not Affected","SSF_RL_500YR_CURR":"Not Affected","SSF_RL_500YR_2040_IL":"Not Affected","SSF_RL_500YR_2040_INT":"Not Affected","SSF_RL_500YR_2070_IL":"Not Affected","SSF_RL_500YR_2070_INT":"Not Affected","RIF_RL_100YR_2020":"Not Affected","RIF_RL_100YR_2040":"Low","RIF_RL_100YR_2070":"Low","RIF_RL_500YR_2020":"Medium","RIF_RL_500YR_2040":"Medium","RIF_RL_500YR_2070":"Medium"}},{"type":"Feature","id":50,"geometry":{"type":"Point","coordinates":[-82.1359600005568,29.191979998745]},"properties":{"OBJECTID_1":50,"OBJECTID":50,"Name":"GREYHOUND-OCALA","Address":"529 NE 1ST AVE","City":"OCALA","Zip":" ","COUNTY":"Marion","X":-82.13596,"Y":29.19198,"LONGLAT":"-82.13596000,29.19198000","USNG":"17R LN 89558 29789","OWNERSHIP":" ","PARCELID":" ","FACILITY_T":"BUS TERMINAL","Asset_Elevation":null,"Owned_Maintained":" ","Asset":"BUS TERMINAL","Asset_Sub_Type":null,"Asset_Type":"Bus Terminals","Asset_Group":"Transportation and Evacuation Routes","Asset_Relevancy":"Regionally Significant","Asset_ID":"BUS_000050","Municipality":"Ocala","Water_Management_District":"St. Johns River Water Management District","Souce_Dataset_Entity":"FDEM","Souce_Dataset_Name":"Bus Terminals - FDEM","Source_Asset_ID":null,"Restricted_Public_Disclosure":null,"Notes":null,"Regional_Planning_Council":"East Central Florida","FDEP_Regulatory_District":"Central District","RCP_Region":"Northwest","FDOT_District":5,"House_District_Number":21,"Senate_District_Number":9,"CTF_RL_2020":"Not Affected","CTF_RL_2040_IL":"Not Affected","CTF_RL_2040_INT":"Not Affected","CTF_RL_2070_IL":"Not Affected","CTF_RL_2070_INT":"Not Affected","SSF_RL_100YR_CURR":"Not Affected","SSF_RL_100YR_2040_IL":"Not Affected","SSF_RL_100YR_2040_INT":"Not Affected","SSF_RL_100YR_2070_IL":"Not Affected","SSF_RL_100YR_2070_INT":"Not Affected","SSF_RL_500YR_CURR":"Not Affected","SSF_RL_500YR_2040_IL":"Not Affected","SSF_RL_500YR_2040_INT":"Not Affected","SSF_RL_500YR_2070_IL":"Not Affected","SSF_RL_500YR_2070_INT":"Not Affected","RIF_RL_100YR_2020":"Medium","RIF_RL_100YR_2040":"Medium","RIF_RL_100YR_2070":"Medium","RIF_RL_500YR_2020":"Medium","RIF_RL_500YR_2040":"Medium","RIF_RL_500YR_2070":"Medium"}}]}