{"type":"FeatureCollection","crs":{"type":"name","properties":{"name":"EPSG:4326"}},"features":[{"type":"Feature","id":1,"geometry":{"type":"Point","coordinates":[-80.6504036749881,28.5846951616764]},"properties":{"OBJECTID":1,"FACILITY_I":100057,"SIS_NAME":"Cape Canaveral Spaceport","DESIGNATIO":"SIS","DISTRICT":"5","Name":"Cape Canaveral Spaceport","Asset_Elevation":null,"Owned_Maintained":"FDOT-SIS","Asset":"SIS - spaceports","Asset_Sub_Type":null,"Asset_Type":"Ports","Asset_Group":"Transportation and Evacuation Routes","Asset_Relevancy":"Regionally Significant","Asset_ID":"PRT_PT_000001","Municipality":null,"County":"Brevard","Water_Management_District":"St. Johns River Water Management District","Souce_Dataset_Entity":"FDOT-SIS","Souce_Dataset_Name":"SIS - spaceports","Source_Asset_ID":null,"Restricted_Public_Disclosure":null,"Notes":null,"Address":null,"City":null,"Zip":null,"OWNERSHIP":null,"PARCELID":null,"FACILITY_T":null,"Regional_Planning_Council":"East Central Florida","FDEP_Regulatory_District":"Central District","RCP_Region":"Northeast","FDOT_District":5,"House_District_Number":31,"Senate_District_Number":19,"CTF_RL_2020":"Not Affected","CTF_RL_2040_IL":"Not Affected","CTF_RL_2040_INT":"Not Affected","CTF_RL_2070_IL":"Not Affected","CTF_RL_2070_INT":"Not Affected","SSF_RL_100YR_CURR":"Not Affected","SSF_RL_100YR_2040_IL":"Not Affected","SSF_RL_100YR_2040_INT":"Not Affected","SSF_RL_100YR_2070_IL":"Not Affected","SSF_RL_100YR_2070_INT":"Not Affected","SSF_RL_500YR_CURR":"Not Affected","SSF_RL_500YR_2040_IL":"Not Affected","SSF_RL_500YR_2040_INT":"Not Affected","SSF_RL_500YR_2070_IL":"Not Affected","SSF_RL_500YR_2070_INT":"Not Affected","RIF_RL_100YR_2020":"Not Affected","RIF_RL_100YR_2040":"Not Affected","RIF_RL_100YR_2070":"Not Affected","RIF_RL_500YR_2020":"Not Affected","RIF_RL_500YR_2040":"Not Affected","RIF_RL_500YR_2070":"Not Affected"}},{"type":"Feature","id":2,"geometry":{"type":"Point","coordinates":[-81.8748860909523,30.2168101728742]},"properties":{"OBJECTID":2,"FACILITY_I":229439,"SIS_NAME":"Cecil Spaceport","DESIGNATIO":"STRATEGIC GROWTH","DISTRICT":"2","Name":"Cecil Spaceport","Asset_Elevation":null,"Owned_Maintained":"FDOT-SIS","Asset":"SIS - spaceports","Asset_Sub_Type":null,"Asset_Type":"Ports","Asset_Group":"Transportation and Evacuation Routes","Asset_Relevancy":"Regionally Significant","Asset_ID":"PRT_PT_000002","Municipality":"Jacksonville","County":"Duval","Water_Management_District":"St. Johns River Water Management District","Souce_Dataset_Entity":"FDOT-SIS","Souce_Dataset_Name":"SIS - spaceports","Source_Asset_ID":null,"Restricted_Public_Disclosure":null,"Notes":null,"Address":null,"City":null,"Zip":null,"OWNERSHIP":null,"PARCELID":null,"FACILITY_T":null,"Regional_Planning_Council":"Northeast Florida","FDEP_Regulatory_District":"Northeast District","RCP_Region":"Northeast","FDOT_District":2,"House_District_Number":15,"Senate_District_Number":4,"CTF_RL_2020":"Not Affected","CTF_RL_2040_IL":"Not Affected","CTF_RL_2040_INT":"Not Affected","CTF_RL_2070_IL":"Not Affected","CTF_RL_2070_INT":"Not Affected","SSF_RL_100YR_CURR":"Not Affected","SSF_RL_100YR_2040_IL":"Not Affected","SSF_RL_100YR_2040_INT":"Not Affected","SSF_RL_100YR_2070_IL":"Not Affected","SSF_RL_100YR_2070_INT":"Not Affected","SSF_RL_500YR_CURR":"Not Affected","SSF_RL_500YR_2040_IL":"Not Affected","SSF_RL_500YR_2040_INT":"Not Affected","SSF_RL_500YR_2070_IL":"Not Affected","SSF_RL_500YR_2070_INT":"Not Affected","RIF_RL_100YR_2020":"Medium","RIF_RL_100YR_2040":"Medium","RIF_RL_100YR_2070":"Medium","RIF_RL_500YR_2020":"High","RIF_RL_500YR_2040":"High","RIF_RL_500YR_2070":"High"}},{"type":"Feature","id":3,"geometry":{"type":"Point","coordinates":[-81.8000237566776,24.5615186582342]},"properties":{"OBJECTID":3,"FACILITY_I":0,"SIS_NAME":" ","DESIGNATIO":" ","DISTRICT":" ","Name":"PORT OF KEY WEST","Asset_Elevation":null,"Owned_Maintained":"FDEM and FDOT-SIS","Asset":"Commercial and SIS ports","Asset_Sub_Type":null,"Asset_Type":"Ports","Asset_Group":"Transportation and Evacuation Routes","Asset_Relevancy":"Regionally Significant","Asset_ID":"PRT_PT_000003","Municipality":"Key West","County":"Monroe","Water_Management_District":"South Florida Water Management District","Souce_Dataset_Entity":"FDEM and FDOT-SIS","Souce_Dataset_Name":"Commercial and SIS ports","Source_Asset_ID":null,"Restricted_Public_Disclosure":null,"Notes":null,"Address":"201 WILLIAM ST","City":"KEY WEST","Zip":"33040","OWNERSHIP":" ","PARCELID":" ","FACILITY_T":"COMMERCIAL PORTS","Regional_Planning_Council":"South Florida","FDEP_Regulatory_District":"Southeast District","RCP_Region":"Southeast","FDOT_District":6,"House_District_Number":120,"Senate_District_Number":40,"CTF_RL_2020":"Not Affected","CTF_RL_2040_IL":"Not Affected","CTF_RL_2040_INT":"Not Affected","CTF_RL_2070_IL":"Medium","CTF_RL_2070_INT":"Medium","SSF_RL_100YR_CURR":"High","SSF_RL_100YR_2040_IL":"High","SSF_RL_100YR_2040_INT":"High","SSF_RL_100YR_2070_IL":"High","SSF_RL_100YR_2070_INT":"High","SSF_RL_500YR_CURR":"High","SSF_RL_500YR_2040_IL":"High","SSF_RL_500YR_2040_INT":"High","SSF_RL_500YR_2070_IL":"High","SSF_RL_500YR_2070_INT":"High","RIF_RL_100YR_2020":"Medium","RIF_RL_100YR_2040":"Medium","RIF_RL_100YR_2070":"Medium","RIF_RL_500YR_2020":"Medium","RIF_RL_500YR_2040":"Medium","RIF_RL_500YR_2070":"Medium"}},{"type":"Feature","id":4,"geometry":{"type":"Point","coordinates":[-87.2100638319975,30.4048042342842]},"properties":{"OBJECTID":4,"FACILITY_I":100053,"SIS_NAME":"Port of Pensacola","DESIGNATIO":"STRATEGIC GROWTH","DISTRICT":"3","Name":"PORT OF PENSACOLA","Asset_Elevation":null,"Owned_Maintained":"FDEM and FDOT-SIS","Asset":"Commercial and SIS ports","Asset_Sub_Type":null,"Asset_Type":"Ports","Asset_Group":"Transportation and Evacuation Routes","Asset_Relevancy":"Regionally Significant","Asset_ID":"PRT_PT_000004","Municipality":"Pensacola","County":"Escambia","Water_Management_District":"Northwest Florida Water Management District","Souce_Dataset_Entity":"FDEM and FDOT-SIS","Souce_Dataset_Name":"Commercial and SIS ports","Source_Asset_ID":null,"Restricted_Public_Disclosure":null,"Notes":null,"Address":"700 S BARRACKS ST","City":"PENSACOLA","Zip":"32502","OWNERSHIP":" ","PARCELID":"000S009100001017","FACILITY_T":"COMMERCIAL-SIS PORT","Regional_Planning_Council":"Emerald Coast","FDEP_Regulatory_District":"Northwest District","RCP_Region":"Northwest","FDOT_District":3,"House_District_Number":2,"Senate_District_Number":1,"CTF_RL_2020":"Not Affected","CTF_RL_2040_IL":"Not Affected","CTF_RL_2040_INT":"Not Affected","CTF_RL_2070_IL":"Not Affected","CTF_RL_2070_INT":"Not Affected","SSF_RL_100YR_CURR":"Medium","SSF_RL_100YR_2040_IL":"High","SSF_RL_100YR_2040_INT":"High","SSF_RL_100YR_2070_IL":"High","SSF_RL_100YR_2070_INT":"High","SSF_RL_500YR_CURR":"High","SSF_RL_500YR_2040_IL":"High","SSF_RL_500YR_2040_INT":"High","SSF_RL_500YR_2070_IL":"High","SSF_RL_500YR_2070_INT":"High","RIF_RL_100YR_2020":"Not Affected","RIF_RL_100YR_2040":"Not Affected","RIF_RL_100YR_2070":"Not Affected","RIF_RL_500YR_2020":"Not Affected","RIF_RL_500YR_2040":"Not Affected","RIF_RL_500YR_2070":"Not Affected"}},{"type":"Feature","id":5,"geometry":{"type":"Point","coordinates":[-82.4452412452416,27.9499649560413]},"properties":{"OBJECTID":5,"FACILITY_I":0,"SIS_NAME":" ","DESIGNATIO":" ","DISTRICT":" ","Name":"PORT OF TAMPA","Asset_Elevation":null,"Owned_Maintained":"FDEM and FDOT-SIS","Asset":"Commercial and SIS ports","Asset_Sub_Type":null,"Asset_Type":"Ports","Asset_Group":"Transportation and Evacuation Routes","Asset_Relevancy":"Regionally Significant","Asset_ID":"PRT_PT_000005","Municipality":"Tampa","County":"Hillsborough","Water_Management_District":"Southwest Florida Water Management District","Souce_Dataset_Entity":"FDEM and FDOT-SIS","Souce_Dataset_Name":"Commercial and SIS ports","Source_Asset_ID":null,"Restricted_Public_Disclosure":null,"Notes":null,"Address":"1101 CHANNELSIDE DR","City":"TAMPA","Zip":"33602","OWNERSHIP":" ","PARCELID":"192919ZZZ000005933000A","FACILITY_T":"COMMERCIAL PORTS","Regional_Planning_Council":"Tampa Bay","FDEP_Regulatory_District":"Southwest District","RCP_Region":"Southwest","FDOT_District":7,"House_District_Number":65,"Senate_District_Number":16,"CTF_RL_2020":"Not Affected","CTF_RL_2040_IL":"Not Affected","CTF_RL_2040_INT":"Not Affected","CTF_RL_2070_IL":"Not Affected","CTF_RL_2070_INT":"Not Affected","SSF_RL_100YR_CURR":"Not Affected","SSF_RL_100YR_2040_IL":"Not Affected","SSF_RL_100YR_2040_INT":"Not Affected","SSF_RL_100YR_2070_IL":"Not Affected","SSF_RL_100YR_2070_INT":"Not Affected","SSF_RL_500YR_CURR":"Medium","SSF_RL_500YR_2040_IL":"Medium","SSF_RL_500YR_2040_INT":"Medium","SSF_RL_500YR_2070_IL":"High","SSF_RL_500YR_2070_INT":"High","RIF_RL_100YR_2020":"Not Affected","RIF_RL_100YR_2040":"Not Affected","RIF_RL_100YR_2070":"Not Affected","RIF_RL_500YR_2020":"Not Affected","RIF_RL_500YR_2040":"Not Affected","RIF_RL_500YR_2070":"Not Affected"}},{"type":"Feature","id":6,"geometry":{"type":"Point","coordinates":[-87.2588605559217,30.4073970674962]},"properties":{"OBJECTID":6,"FACILITY_I":0,"SIS_NAME":" ","DESIGNATIO":" ","DISTRICT":" ","Name":"PENSACOLA, FL","Asset_Elevation":null,"Owned_Maintained":"FDEM and FDOT-SIS","Asset":"Commercial and SIS ports","Asset_Sub_Type":null,"Asset_Type":"Ports","Asset_Group":"Transportation and Evacuation Routes","Asset_Relevancy":"Regionally Significant","Asset_ID":"PRT_PT_000006","Municipality":null,"County":"Escambia","Water_Management_District":"Northwest Florida Water Management District","Souce_Dataset_Entity":"FDEM and FDOT-SIS","Souce_Dataset_Name":"Commercial and SIS ports","Source_Asset_ID":null,"Restricted_Public_Disclosure":null,"Notes":null,"Address":" ","City":"PENSACOLA","Zip":"32507","OWNERSHIP":" ","PARCELID":" ","FACILITY_T":"COMMERCIAL PORTS","Regional_Planning_Council":"Emerald Coast","FDEP_Regulatory_District":"Northwest District","RCP_Region":"Northwest","FDOT_District":3,"House_District_Number":2,"Senate_District_Number":1,"CTF_RL_2020":"High","CTF_RL_2040_IL":"High","CTF_RL_2040_INT":"High","CTF_RL_2070_IL":"High","CTF_RL_2070_INT":"High","SSF_RL_100YR_CURR":"High","SSF_RL_100YR_2040_IL":"High","SSF_RL_100YR_2040_INT":"High","SSF_RL_100YR_2070_IL":"High","SSF_RL_100YR_2070_INT":"High","SSF_RL_500YR_CURR":"High","SSF_RL_500YR_2040_IL":"High","SSF_RL_500YR_2040_INT":"High","SSF_RL_500YR_2070_IL":"High","SSF_RL_500YR_2070_INT":"High","RIF_RL_100YR_2020":"High","RIF_RL_100YR_2040":"High","RIF_RL_100YR_2070":"High","RIF_RL_500YR_2020":"High","RIF_RL_500YR_2040":"High","RIF_RL_500YR_2070":"High"}},{"type":"Feature","id":7,"geometry":{"type":"Point","coordinates":[-82.4409614164012,27.9438993003286]},"properties":{"OBJECTID":7,"FACILITY_I":0,"SIS_NAME":" ","DESIGNATIO":" ","DISTRICT":" ","Name":"PORT YBOR","Asset_Elevation":null,"Owned_Maintained":"FDEM and FDOT-SIS","Asset":"Commercial and SIS ports","Asset_Sub_Type":null,"Asset_Type":"Ports","Asset_Group":"Transportation and Evacuation Routes","Asset_Relevancy":"Regionally Significant","Asset_ID":"PRT_PT_000007","Municipality":"Tampa","County":"Hillsborough","Water_Management_District":"Southwest Florida Water Management District","Souce_Dataset_Entity":"FDEM and FDOT-SIS","Souce_Dataset_Name":"Commercial and SIS ports","Source_Asset_ID":null,"Restricted_Public_Disclosure":null,"Notes":null,"Address":"5 20TH STREET S AT GRANT STREET","City":"TAMPA","Zip":"33605","OWNERSHIP":" ","PARCELID":"192919ZZZ000005939700A","FACILITY_T":"COMMERCIAL PORTS","Regional_Planning_Council":"Tampa Bay","FDEP_Regulatory_District":"Southwest District","RCP_Region":"Southwest","FDOT_District":7,"House_District_Number":62,"Senate_District_Number":16,"CTF_RL_2020":"Not Affected","CTF_RL_2040_IL":"Not Affected","CTF_RL_2040_INT":"Not Affected","CTF_RL_2070_IL":"Not Affected","CTF_RL_2070_INT":"Not Affected","SSF_RL_100YR_CURR":"High","SSF_RL_100YR_2040_IL":"High","SSF_RL_100YR_2040_INT":"High","SSF_RL_100YR_2070_IL":"High","SSF_RL_100YR_2070_INT":"High","SSF_RL_500YR_CURR":"High","SSF_RL_500YR_2040_IL":"High","SSF_RL_500YR_2040_INT":"High","SSF_RL_500YR_2070_IL":"High","SSF_RL_500YR_2070_INT":"High","RIF_RL_100YR_2020":"Not Affected","RIF_RL_100YR_2040":"Not Affected","RIF_RL_100YR_2070":"Not Affected","RIF_RL_500YR_2020":"Not Affected","RIF_RL_500YR_2040":"Not Affected","RIF_RL_500YR_2070":"Not Affected"}},{"type":"Feature","id":8,"geometry":{"type":"Point","coordinates":[-80.0537340115143,26.7678835348243]},"properties":{"OBJECTID":8,"FACILITY_I":100051,"SIS_NAME":"Port of Palm Beach","DESIGNATIO":"SIS","DISTRICT":"4","Name":"PORT OF PALM BEACH","Asset_Elevation":null,"Owned_Maintained":"FDEM and FDOT-SIS","Asset":"Commercial and SIS ports","Asset_Sub_Type":null,"Asset_Type":"Ports","Asset_Group":"Transportation and Evacuation Routes","Asset_Relevancy":"Regionally Significant","Asset_ID":"PRT_PT_000008","Municipality":"Riviera Beach","County":"Palm Beach","Water_Management_District":"South Florida Water Management District","Souce_Dataset_Entity":"FDEM and FDOT-SIS","Souce_Dataset_Name":"Commercial and SIS ports","Source_Asset_ID":null,"Restricted_Public_Disclosure":null,"Notes":null,"Address":"1 E 11TH STREET","City":"WEST PALM BEACH","Zip":"33404","OWNERSHIP":" ","PARCELID":"56434233190010100","FACILITY_T":"COMMERCIAL-SIS PORT","Regional_Planning_Council":"Treasure Coast","FDEP_Regulatory_District":"Southeast District","RCP_Region":"Southeast","FDOT_District":4,"House_District_Number":87,"Senate_District_Number":24,"CTF_RL_2020":"Not Affected","CTF_RL_2040_IL":"Not Affected","CTF_RL_2040_INT":"Not Affected","CTF_RL_2070_IL":"Not Affected","CTF_RL_2070_INT":"Not Affected","SSF_RL_100YR_CURR":"Not Affected","SSF_RL_100YR_2040_IL":"Not Affected","SSF_RL_100YR_2040_INT":"Not Affected","SSF_RL_100YR_2070_IL":"Not Affected","SSF_RL_100YR_2070_INT":"Not Affected","SSF_RL_500YR_CURR":"Not Affected","SSF_RL_500YR_2040_IL":"Low","SSF_RL_500YR_2040_INT":"Medium","SSF_RL_500YR_2070_IL":"Medium","SSF_RL_500YR_2070_INT":"Medium","RIF_RL_100YR_2020":"Medium","RIF_RL_100YR_2040":"Medium","RIF_RL_100YR_2070":"Medium","RIF_RL_500YR_2020":"Medium","RIF_RL_500YR_2040":"Medium","RIF_RL_500YR_2070":"Medium"}},{"type":"Feature","id":9,"geometry":{"type":"Point","coordinates":[-82.444163591175,27.9455003869819]},"properties":{"OBJECTID":9,"FACILITY_I":0,"SIS_NAME":" ","DESIGNATIO":" ","DISTRICT":" ","Name":"PORT OF TAMPA - CRUISE TERMINAL","Asset_Elevation":null,"Owned_Maintained":"FDEM and FDOT-SIS","Asset":"Commercial and SIS ports","Asset_Sub_Type":null,"Asset_Type":"Ports","Asset_Group":"Transportation and Evacuation Routes","Asset_Relevancy":"Regionally Significant","Asset_ID":"PRT_PT_000009","Municipality":"Tampa","County":"Hillsborough","Water_Management_District":"Southwest Florida Water Management District","Souce_Dataset_Entity":"FDEM and FDOT-SIS","Souce_Dataset_Name":"Commercial and SIS ports","Source_Asset_ID":null,"Restricted_Public_Disclosure":null,"Notes":null,"Address":"815 CHANNELSIDE DRIVE","City":"TAMPA","Zip":"33602","OWNERSHIP":"COUNTY","PARCELID":"192919ZZZ000005933100A","FACILITY_T":"COMMERCIAL PORTS","Regional_Planning_Council":"Tampa Bay","FDEP_Regulatory_District":"Southwest District","RCP_Region":"Southwest","FDOT_District":7,"House_District_Number":65,"Senate_District_Number":16,"CTF_RL_2020":"Not Affected","CTF_RL_2040_IL":"Not Affected","CTF_RL_2040_INT":"Not Affected","CTF_RL_2070_IL":"Not Affected","CTF_RL_2070_INT":"Not Affected","SSF_RL_100YR_CURR":"Not Affected","SSF_RL_100YR_2040_IL":"Not Affected","SSF_RL_100YR_2040_INT":"Not Affected","SSF_RL_100YR_2070_IL":"Not Affected","SSF_RL_100YR_2070_INT":"Not Affected","SSF_RL_500YR_CURR":"Medium","SSF_RL_500YR_2040_IL":"High","SSF_RL_500YR_2040_INT":"High","SSF_RL_500YR_2070_IL":"High","SSF_RL_500YR_2070_INT":"High","RIF_RL_100YR_2020":"Not Affected","RIF_RL_100YR_2040":"Not Affected","RIF_RL_100YR_2070":"Not Affected","RIF_RL_500YR_2020":"Not Affected","RIF_RL_500YR_2040":"Not Affected","RIF_RL_500YR_2070":"Not Affected"}},{"type":"Feature","id":10,"geometry":{"type":"Point","coordinates":[-82.5578933697978,27.6338940934311]},"properties":{"OBJECTID":10,"FACILITY_I":100049,"SIS_NAME":"Port Manatee","DESIGNATIO":"SIS","DISTRICT":"1","Name":"PORT MANATEE","Asset_Elevation":null,"Owned_Maintained":"FDEM and FDOT-SIS","Asset":"Commercial and SIS ports","Asset_Sub_Type":null,"Asset_Type":"Ports","Asset_Group":"Transportation and Evacuation Routes","Asset_Relevancy":"Regionally Significant","Asset_ID":"PRT_PT_000010","Municipality":null,"County":"Manatee","Water_Management_District":"Southwest Florida Water Management District","Souce_Dataset_Entity":"FDEM and FDOT-SIS","Souce_Dataset_Name":"Commercial and SIS ports","Source_Asset_ID":null,"Restricted_Public_Disclosure":null,"Notes":null,"Address":"300 TAMPA BAY WAY","City":"PALMETTO","Zip":"34221","OWNERSHIP":" ","PARCELID":"2059701109","FACILITY_T":"COMMERCIAL-SIS PORT","Regional_Planning_Council":"Tampa Bay","FDEP_Regulatory_District":"Southwest District","RCP_Region":"Southwest","FDOT_District":1,"House_District_Number":70,"Senate_District_Number":20,"CTF_RL_2020":"Not Affected","CTF_RL_2040_IL":"Not Affected","CTF_RL_2040_INT":"Not Affected","CTF_RL_2070_IL":"Not Affected","CTF_RL_2070_INT":"Not Affected","SSF_RL_100YR_CURR":"Not Affected","SSF_RL_100YR_2040_IL":"Not Affected","SSF_RL_100YR_2040_INT":"Not Affected","SSF_RL_100YR_2070_IL":"Not Affected","SSF_RL_100YR_2070_INT":"Not Affected","SSF_RL_500YR_CURR":"Low","SSF_RL_500YR_2040_IL":"Medium","SSF_RL_500YR_2040_INT":"Medium","SSF_RL_500YR_2070_IL":"Medium","SSF_RL_500YR_2070_INT":"High","RIF_RL_100YR_2020":"Not Affected","RIF_RL_100YR_2040":"Not Affected","RIF_RL_100YR_2070":"Not Affected","RIF_RL_500YR_2020":"Not Affected","RIF_RL_500YR_2040":"Not Affected","RIF_RL_500YR_2070":"Not Affected"}},{"type":"Feature","id":11,"geometry":{"type":"Point","coordinates":[-80.6390826591432,28.4091666946903]},"properties":{"OBJECTID":11,"FACILITY_I":0,"SIS_NAME":" ","DESIGNATIO":" ","DISTRICT":" ","Name":"CANAVERAL LOCK ON THE BANANA RIVER","Asset_Elevation":null,"Owned_Maintained":"FDEM and FDOT-SIS","Asset":"Commercial and SIS ports","Asset_Sub_Type":null,"Asset_Type":"Ports","Asset_Group":"Transportation and Evacuation Routes","Asset_Relevancy":"Regionally Significant","Asset_ID":null,"Municipality":null,"County":"Brevard","Water_Management_District":"St. Johns River Water Management District","Souce_Dataset_Entity":"FDEM and FDOT-SIS","Souce_Dataset_Name":"Commercial and SIS ports","Source_Asset_ID":null,"Restricted_Public_Disclosure":null,"Notes":null,"Address":"1000 MULLET RD","City":"CAPE CANAVERAL","Zip":"32920","OWNERSHIP":" ","PARCELID":" ","FACILITY_T":"COMMERCIAL PORTS","Regional_Planning_Council":"East Central Florida","FDEP_Regulatory_District":"Central District","RCP_Region":"Northeast","FDOT_District":5,"House_District_Number":31,"Senate_District_Number":19,"CTF_RL_2020":"High","CTF_RL_2040_IL":"High","CTF_RL_2040_INT":"High","CTF_RL_2070_IL":"High","CTF_RL_2070_INT":"High","SSF_RL_100YR_CURR":"High","SSF_RL_100YR_2040_IL":"High","SSF_RL_100YR_2040_INT":"High","SSF_RL_100YR_2070_IL":"High","SSF_RL_100YR_2070_INT":"High","SSF_RL_500YR_CURR":"High","SSF_RL_500YR_2040_IL":"High","SSF_RL_500YR_2040_INT":"High","SSF_RL_500YR_2070_IL":"High","SSF_RL_500YR_2070_INT":"High","RIF_RL_100YR_2020":"Not Affected","RIF_RL_100YR_2040":"Not Affected","RIF_RL_100YR_2070":"Not Affected","RIF_RL_500YR_2020":"Not Affected","RIF_RL_500YR_2040":"Not Affected","RIF_RL_500YR_2070":"Not Affected"}},{"type":"Feature","id":12,"geometry":{"type":"Point","coordinates":[-80.3258763828026,27.4582149669804]},"properties":{"OBJECTID":12,"FACILITY_I":0,"SIS_NAME":" ","DESIGNATIO":" ","DISTRICT":" ","Name":"PORT OF FORT PIERCE","Asset_Elevation":null,"Owned_Maintained":"FDEM and FDOT-SIS","Asset":"Commercial and SIS ports","Asset_Sub_Type":null,"Asset_Type":"Ports","Asset_Group":"Transportation and Evacuation Routes","Asset_Relevancy":"Regionally Significant","Asset_ID":"PRT_PT_000012","Municipality":"Fort Pierce","County":"St. Lucie","Water_Management_District":"South Florida Water Management District","Souce_Dataset_Entity":"FDEM and FDOT-SIS","Souce_Dataset_Name":"Commercial and SIS ports","Source_Asset_ID":null,"Restricted_Public_Disclosure":null,"Notes":null,"Address":"US HWY 1","City":"FORT PIERCE","Zip":"34950","OWNERSHIP":" ","PARCELID":"2403-314-0005-000-2","FACILITY_T":"COMMERCIAL PORTS","Regional_Planning_Council":"Treasure Coast","FDEP_Regulatory_District":"Southeast District","RCP_Region":"Northeast","FDOT_District":4,"House_District_Number":84,"Senate_District_Number":29,"CTF_RL_2020":"Not Affected","CTF_RL_2040_IL":"Not Affected","CTF_RL_2040_INT":"Not Affected","CTF_RL_2070_IL":"Not Affected","CTF_RL_2070_INT":"Not Affected","SSF_RL_100YR_CURR":"Not Affected","SSF_RL_100YR_2040_IL":"Not Affected","SSF_RL_100YR_2040_INT":"Not Affected","SSF_RL_100YR_2070_IL":"Not Affected","SSF_RL_100YR_2070_INT":"Not Affected","SSF_RL_500YR_CURR":"Not Affected","SSF_RL_500YR_2040_IL":"Not Affected","SSF_RL_500YR_2040_INT":"Not Affected","SSF_RL_500YR_2070_IL":"Not Affected","SSF_RL_500YR_2070_INT":"Not Affected","RIF_RL_100YR_2020":"Not Affected","RIF_RL_100YR_2040":"Not Affected","RIF_RL_100YR_2070":"Not Affected","RIF_RL_500YR_2020":"Not Affected","RIF_RL_500YR_2040":"Not Affected","RIF_RL_500YR_2070":"Not Affected"}},{"type":"Feature","id":13,"geometry":{"type":"Point","coordinates":[-80.175609455082,25.774640572165]},"properties":{"OBJECTID":13,"FACILITY_I":100050,"SIS_NAME":"PortMiami","DESIGNATIO":"SIS","DISTRICT":"6","Name":"PORT OF MIAMI","Asset_Elevation":null,"Owned_Maintained":"FDEM and FDOT-SIS","Asset":"Commercial and SIS ports","Asset_Sub_Type":null,"Asset_Type":"Ports","Asset_Group":"Transportation and Evacuation Routes","Asset_Relevancy":"Regionally Significant","Asset_ID":"PRT_PT_000013","Municipality":"Miami","County":"Miami-Dade","Water_Management_District":"South Florida Water Management District","Souce_Dataset_Entity":"FDEM and FDOT-SIS","Souce_Dataset_Name":"Commercial and SIS ports","Source_Asset_ID":null,"Restricted_Public_Disclosure":null,"Notes":null,"Address":"1015 N AMERICA WAY","City":"MIAMI","Zip":"33132","OWNERSHIP":" ","PARCELID":" ","FACILITY_T":"COMMERCIAL-SIS PORT","Regional_Planning_Council":"South Florida","FDEP_Regulatory_District":"Southeast District","RCP_Region":"Southeast","FDOT_District":6,"House_District_Number":113,"Senate_District_Number":36,"CTF_RL_2020":"Not Affected","CTF_RL_2040_IL":"Not Affected","CTF_RL_2040_INT":"Not Affected","CTF_RL_2070_IL":"Not Affected","CTF_RL_2070_INT":"Not Affected","SSF_RL_100YR_CURR":"Not Affected","SSF_RL_100YR_2040_IL":"Not Affected","SSF_RL_100YR_2040_INT":"Not Affected","SSF_RL_100YR_2070_IL":"Not Affected","SSF_RL_100YR_2070_INT":"Not Affected","SSF_RL_500YR_CURR":"Not Affected","SSF_RL_500YR_2040_IL":"Not Affected","SSF_RL_500YR_2040_INT":"Not Affected","SSF_RL_500YR_2070_IL":"Not Affected","SSF_RL_500YR_2070_INT":"Not Affected","RIF_RL_100YR_2020":"Not Affected","RIF_RL_100YR_2040":"Not Affected","RIF_RL_100YR_2070":"Not Affected","RIF_RL_500YR_2020":"Not Affected","RIF_RL_500YR_2040":"Not Affected","RIF_RL_500YR_2070":"Not Affected"}},{"type":"Feature","id":14,"geometry":{"type":"Point","coordinates":[-82.433647444851,27.9289783338334]},"properties":{"OBJECTID":14,"FACILITY_I":100056,"SIS_NAME":"Port Tampa Bay - Hookers Point","DESIGNATIO":"SIS","DISTRICT":"7","Name":"TAMPA PORT AUTHORITY GENERAL CARGO FACILITY","Asset_Elevation":null,"Owned_Maintained":"FDEM and FDOT-SIS","Asset":"Commercial and SIS ports","Asset_Sub_Type":null,"Asset_Type":"Ports","Asset_Group":"Transportation and Evacuation Routes","Asset_Relevancy":"Regionally Significant","Asset_ID":"PRT_PT_000014","Municipality":"Tampa","County":"Hillsborough","Water_Management_District":"Southwest Florida Water Management District","Souce_Dataset_Entity":"FDEM and FDOT-SIS","Souce_Dataset_Name":"Commercial and SIS ports","Source_Asset_ID":null,"Restricted_Public_Disclosure":null,"Notes":null,"Address":"2302 GUY NORTH VERGER BOULEVARD","City":"TAMPA","Zip":"33605","OWNERSHIP":"COUNTY","PARCELID":"192929ZZZ000005944300A","FACILITY_T":"COMMERCIAL-SIS PORT","Regional_Planning_Council":"Tampa Bay","FDEP_Regulatory_District":"Southwest District","RCP_Region":"Southwest","FDOT_District":7,"House_District_Number":62,"Senate_District_Number":16,"CTF_RL_2020":"Not Affected","CTF_RL_2040_IL":"Not Affected","CTF_RL_2040_INT":"Not Affected","CTF_RL_2070_IL":"Not Affected","CTF_RL_2070_INT":"Not Affected","SSF_RL_100YR_CURR":"Not Affected","SSF_RL_100YR_2040_IL":"Not Affected","SSF_RL_100YR_2040_INT":"Not Affected","SSF_RL_100YR_2070_IL":"Not Affected","SSF_RL_100YR_2070_INT":"Not Affected","SSF_RL_500YR_CURR":"Low","SSF_RL_500YR_2040_IL":"Medium","SSF_RL_500YR_2040_INT":"Medium","SSF_RL_500YR_2070_IL":"Medium","SSF_RL_500YR_2070_INT":"High","RIF_RL_100YR_2020":"Not Affected","RIF_RL_100YR_2040":"Not Affected","RIF_RL_100YR_2070":"Not Affected","RIF_RL_500YR_2020":"Not Affected","RIF_RL_500YR_2040":"Not Affected","RIF_RL_500YR_2070":"Not Affected"}},{"type":"Feature","id":15,"geometry":{"type":"Point","coordinates":[-87.2939629728125,30.3503172579944]},"properties":{"OBJECTID":15,"FACILITY_I":0,"SIS_NAME":" ","DESIGNATIO":" ","DISTRICT":" ","Name":"NAS PENSACOLA PORT-PORTT OPERATIONS QUARTER-DECK","Asset_Elevation":null,"Owned_Maintained":"FDEM and FDOT-SIS","Asset":"Commercial and SIS ports","Asset_Sub_Type":null,"Asset_Type":"Ports","Asset_Group":"Transportation and Evacuation Routes","Asset_Relevancy":"Regionally Significant","Asset_ID":"PRT_PT_000015","Municipality":null,"County":"Escambia","Water_Management_District":"Northwest Florida Water Management District","Souce_Dataset_Entity":"FDEM and FDOT-SIS","Souce_Dataset_Name":"Commercial and SIS ports","Source_Asset_ID":null,"Restricted_Public_Disclosure":null,"Notes":null,"Address":"150 HASE RD","City":"PENSACOLA","Zip":"32508","OWNERSHIP":" ","PARCELID":" ","FACILITY_T":"COMMERCIAL PORTS","Regional_Planning_Council":"Emerald Coast","FDEP_Regulatory_District":"Northwest District","RCP_Region":"Northwest","FDOT_District":3,"House_District_Number":2,"Senate_District_Number":1,"CTF_RL_2020":"Not Affected","CTF_RL_2040_IL":"Not Affected","CTF_RL_2040_INT":"Not Affected","CTF_RL_2070_IL":"Not Affected","CTF_RL_2070_INT":"Not Affected","SSF_RL_100YR_CURR":"Not Affected","SSF_RL_100YR_2040_IL":"Not Affected","SSF_RL_100YR_2040_INT":"Not Affected","SSF_RL_100YR_2070_IL":"Not Affected","SSF_RL_100YR_2070_INT":"Not Affected","SSF_RL_500YR_CURR":"Not Affected","SSF_RL_500YR_2040_IL":"Not Affected","SSF_RL_500YR_2040_INT":"Not Affected","SSF_RL_500YR_2070_IL":"Not Affected","SSF_RL_500YR_2070_INT":"Not Affected","RIF_RL_100YR_2020":"Not Affected","RIF_RL_100YR_2040":"Not Affected","RIF_RL_100YR_2070":"Not Affected","RIF_RL_500YR_2020":"Not Affected","RIF_RL_500YR_2040":"Not Affected","RIF_RL_500YR_2070":"Not Affected"}},{"type":"Feature","id":16,"geometry":{"type":"Point","coordinates":[-85.7291214729133,30.1798438348874]},"properties":{"OBJECTID":16,"FACILITY_I":100052,"SIS_NAME":"Port Panama City","DESIGNATIO":"SIS","DISTRICT":"3","Name":"PORT PANAMA CITY","Asset_Elevation":null,"Owned_Maintained":"FDEM and FDOT-SIS","Asset":"Commercial and SIS ports","Asset_Sub_Type":null,"Asset_Type":"Ports","Asset_Group":"Transportation and Evacuation Routes","Asset_Relevancy":"Regionally Significant","Asset_ID":"PRT_PT_000016","Municipality":"Panama City","County":"Bay","Water_Management_District":"Northwest Florida Water Management District","Souce_Dataset_Entity":"FDEM and FDOT-SIS","Souce_Dataset_Name":"Commercial and SIS ports","Source_Asset_ID":null,"Restricted_Public_Disclosure":null,"Notes":null,"Address":"5321 W HIGHWAY 98","City":"PANAMA CITY","Zip":"32401","OWNERSHIP":" ","PARCELID":"27935-010-000","FACILITY_T":"COMMERCIAL-SIS PORT","Regional_Planning_Council":"Emerald Coast","FDEP_Regulatory_District":"Northwest District","RCP_Region":"Northwest","FDOT_District":3,"House_District_Number":6,"Senate_District_Number":2,"CTF_RL_2020":"Not Affected","CTF_RL_2040_IL":"Not Affected","CTF_RL_2040_INT":"Not Affected","CTF_RL_2070_IL":"Not Affected","CTF_RL_2070_INT":"Not Affected","SSF_RL_100YR_CURR":"Not Affected","SSF_RL_100YR_2040_IL":"Not Affected","SSF_RL_100YR_2040_INT":"Not Affected","SSF_RL_100YR_2070_IL":"Not Affected","SSF_RL_100YR_2070_INT":"Not Affected","SSF_RL_500YR_CURR":"Medium","SSF_RL_500YR_2040_IL":"Medium","SSF_RL_500YR_2040_INT":"Medium","SSF_RL_500YR_2070_IL":"Medium","SSF_RL_500YR_2070_INT":"High","RIF_RL_100YR_2020":"Not Affected","RIF_RL_100YR_2040":"Not Affected","RIF_RL_100YR_2070":"Not Affected","RIF_RL_500YR_2020":"Not Affected","RIF_RL_500YR_2040":"Not Affected","RIF_RL_500YR_2070":"Not Affected"}},{"type":"Feature","id":17,"geometry":{"type":"Point","coordinates":[-80.3244697027341,27.4658496007184]},"properties":{"OBJECTID":17,"FACILITY_I":100046,"SIS_NAME":"Port of Fort Pierce","DESIGNATIO":"STRATEGIC GROWTH","DISTRICT":"4","Name":"Harbour Pointe","Asset_Elevation":null,"Owned_Maintained":"FDEM and FDOT-SIS","Asset":"Commercial and SIS ports","Asset_Sub_Type":null,"Asset_Type":"Ports","Asset_Group":"Transportation and Evacuation Routes","Asset_Relevancy":"Regionally Significant","Asset_ID":"PRT_PT_000017","Municipality":"Fort Pierce","County":"St. Lucie","Water_Management_District":"South Florida Water Management District","Souce_Dataset_Entity":"FDEM and FDOT-SIS","Souce_Dataset_Name":"Commercial and SIS ports","Source_Asset_ID":null,"Restricted_Public_Disclosure":null,"Notes":null,"Address":" ","City":" ","Zip":"34950","OWNERSHIP":" ","PARCELID":" ","FACILITY_T":"COMMERCIAL-SIS PORT","Regional_Planning_Council":"Treasure Coast","FDEP_Regulatory_District":"Southeast District","RCP_Region":"Northeast","FDOT_District":4,"House_District_Number":84,"Senate_District_Number":29,"CTF_RL_2020":"Not Affected","CTF_RL_2040_IL":"Not Affected","CTF_RL_2040_INT":"Not Affected","CTF_RL_2070_IL":"Not Affected","CTF_RL_2070_INT":"Not Affected","SSF_RL_100YR_CURR":"Not Affected","SSF_RL_100YR_2040_IL":"Not Affected","SSF_RL_100YR_2040_INT":"Not Affected","SSF_RL_100YR_2070_IL":"Not Affected","SSF_RL_100YR_2070_INT":"Not Affected","SSF_RL_500YR_CURR":"Not Affected","SSF_RL_500YR_2040_IL":"Not Affected","SSF_RL_500YR_2040_INT":"Not Affected","SSF_RL_500YR_2070_IL":"Not Affected","SSF_RL_500YR_2070_INT":"Not Affected","RIF_RL_100YR_2020":"Not Affected","RIF_RL_100YR_2040":"Not Affected","RIF_RL_100YR_2070":"Not Affected","RIF_RL_500YR_2020":"Not Affected","RIF_RL_500YR_2040":"Not Affected","RIF_RL_500YR_2070":"Not Affected"}},{"type":"Feature","id":18,"geometry":{"type":"Point","coordinates":[-82.4466268009802,27.9432834975664]},"properties":{"OBJECTID":18,"FACILITY_I":0,"SIS_NAME":" ","DESIGNATIO":" ","DISTRICT":" ","Name":"TAMPA PORT AUTHORITY CRUISE TERMINAL","Asset_Elevation":null,"Owned_Maintained":"FDEM and FDOT-SIS","Asset":"Commercial and SIS ports","Asset_Sub_Type":null,"Asset_Type":"Ports","Asset_Group":"Transportation and Evacuation Routes","Asset_Relevancy":"Regionally Significant","Asset_ID":"PRT_PT_000018","Municipality":"Tampa","County":"Hillsborough","Water_Management_District":"Southwest Florida Water Management District","Souce_Dataset_Entity":"FDEM and FDOT-SIS","Souce_Dataset_Name":"Commercial and SIS ports","Source_Asset_ID":null,"Restricted_Public_Disclosure":null,"Notes":null,"Address":"651 CHANNELSIDE DRIVE","City":"TAMPA","Zip":"33602","OWNERSHIP":" ","PARCELID":"192919ZZZ000005940400A","FACILITY_T":"COMMERCIAL PORTS","Regional_Planning_Council":"Tampa Bay","FDEP_Regulatory_District":"Southwest District","RCP_Region":"Southwest","FDOT_District":7,"House_District_Number":65,"Senate_District_Number":16,"CTF_RL_2020":"Not Affected","CTF_RL_2040_IL":"Not Affected","CTF_RL_2040_INT":"Not Affected","CTF_RL_2070_IL":"Not Affected","CTF_RL_2070_INT":"Not Affected","SSF_RL_100YR_CURR":"Not Affected","SSF_RL_100YR_2040_IL":"Not Affected","SSF_RL_100YR_2040_INT":"Not Affected","SSF_RL_100YR_2070_IL":"Not Affected","SSF_RL_100YR_2070_INT":"Not Affected","SSF_RL_500YR_CURR":"Medium","SSF_RL_500YR_2040_IL":"High","SSF_RL_500YR_2040_INT":"High","SSF_RL_500YR_2070_IL":"High","SSF_RL_500YR_2070_INT":"High","RIF_RL_100YR_2020":"Not Affected","RIF_RL_100YR_2040":"Not Affected","RIF_RL_100YR_2070":"Not Affected","RIF_RL_500YR_2020":"Low","RIF_RL_500YR_2040":"Low","RIF_RL_500YR_2070":"Low"}},{"type":"Feature","id":19,"geometry":{"type":"Point","coordinates":[-82.4313129875051,27.9262125509308]},"properties":{"OBJECTID":19,"FACILITY_I":0,"SIS_NAME":" ","DESIGNATIO":" ","DISTRICT":" ","Name":"CF INDUSTRIES TAMPA TERMINAL (PORT OF TAMPA)","Asset_Elevation":null,"Owned_Maintained":"FDEM and FDOT-SIS","Asset":"Commercial and SIS ports","Asset_Sub_Type":null,"Asset_Type":"Ports","Asset_Group":"Transportation and Evacuation Routes","Asset_Relevancy":"Regionally Significant","Asset_ID":"PRT_PT_000019","Municipality":"Tampa","County":"Hillsborough","Water_Management_District":"Southwest Florida Water Management District","Souce_Dataset_Entity":"FDEM and FDOT-SIS","Souce_Dataset_Name":"Commercial and SIS ports","Source_Asset_ID":null,"Restricted_Public_Disclosure":null,"Notes":null,"Address":"2520 GUY VERGER BOULEVARD","City":"TAMPA","Zip":"33605","OWNERSHIP":" ","PARCELID":"192929ZZZ000005944800A","FACILITY_T":"COMMERCIAL PORTS","Regional_Planning_Council":"Tampa Bay","FDEP_Regulatory_District":"Southwest District","RCP_Region":"Southwest","FDOT_District":7,"House_District_Number":62,"Senate_District_Number":16,"CTF_RL_2020":"Not Affected","CTF_RL_2040_IL":"Not Affected","CTF_RL_2040_INT":"Not Affected","CTF_RL_2070_IL":"Not Affected","CTF_RL_2070_INT":"Not Affected","SSF_RL_100YR_CURR":"Not Affected","SSF_RL_100YR_2040_IL":"Not Affected","SSF_RL_100YR_2040_INT":"Not Affected","SSF_RL_100YR_2070_IL":"Not Affected","SSF_RL_100YR_2070_INT":"Not Affected","SSF_RL_500YR_CURR":"Medium","SSF_RL_500YR_2040_IL":"Medium","SSF_RL_500YR_2040_INT":"Medium","SSF_RL_500YR_2070_IL":"High","SSF_RL_500YR_2070_INT":"High","RIF_RL_100YR_2020":"Not Affected","RIF_RL_100YR_2040":"Not Affected","RIF_RL_100YR_2070":"Not Affected","RIF_RL_500YR_2020":"Medium","RIF_RL_500YR_2040":"Medium","RIF_RL_500YR_2070":"Medium"}},{"type":"Feature","id":20,"geometry":{"type":"Point","coordinates":[-81.7902748583979,24.5618718538204]},"properties":{"OBJECTID":20,"FACILITY_I":0,"SIS_NAME":" ","DESIGNATIO":" ","DISTRICT":" ","Name":"KEY WEST PORT/TRANSIT AUTHORITY","Asset_Elevation":null,"Owned_Maintained":"FDEM and FDOT-SIS","Asset":"Commercial and SIS ports","Asset_Sub_Type":null,"Asset_Type":"Ports","Asset_Group":"Transportation and Evacuation Routes","Asset_Relevancy":"Regionally Significant","Asset_ID":"PRT_PT_000020","Municipality":"Key West","County":"Monroe","Water_Management_District":"South Florida Water Management District","Souce_Dataset_Entity":"FDEM and FDOT-SIS","Souce_Dataset_Name":"Commercial and SIS ports","Source_Asset_ID":null,"Restricted_Public_Disclosure":null,"Notes":null,"Address":"620 Palm Ave","City":"Key West","Zip":"33040","OWNERSHIP":" ","PARCELID":" ","FACILITY_T":"COMMERCIAL PORTS","Regional_Planning_Council":"South Florida","FDEP_Regulatory_District":"Southeast District","RCP_Region":"Southeast","FDOT_District":6,"House_District_Number":120,"Senate_District_Number":40,"CTF_RL_2020":"Not Affected","CTF_RL_2040_IL":"Not Affected","CTF_RL_2040_INT":"Not Affected","CTF_RL_2070_IL":"Not Affected","CTF_RL_2070_INT":"Not Affected","SSF_RL_100YR_CURR":"High","SSF_RL_100YR_2040_IL":"High","SSF_RL_100YR_2040_INT":"High","SSF_RL_100YR_2070_IL":"High","SSF_RL_100YR_2070_INT":"High","SSF_RL_500YR_CURR":"High","SSF_RL_500YR_2040_IL":"High","SSF_RL_500YR_2040_INT":"High","SSF_RL_500YR_2070_IL":"High","SSF_RL_500YR_2070_INT":"High","RIF_RL_100YR_2020":"Not Affected","RIF_RL_100YR_2040":"Not Affected","RIF_RL_100YR_2070":"Not Affected","RIF_RL_500YR_2020":"Medium","RIF_RL_500YR_2040":"Medium","RIF_RL_500YR_2070":"Medium"}},{"type":"Feature","id":21,"geometry":{"type":"Point","coordinates":[-82.5989001465541,27.8621661801739]},"properties":{"OBJECTID":21,"FACILITY_I":0,"SIS_NAME":" ","DESIGNATIO":" ","DISTRICT":" ","Name":"WEEDON ISLAND, FL","Asset_Elevation":null,"Owned_Maintained":"FDEM and FDOT-SIS","Asset":"Commercial and SIS ports","Asset_Sub_Type":null,"Asset_Type":"Ports","Asset_Group":"Transportation and Evacuation Routes","Asset_Relevancy":"Regionally Significant","Asset_ID":"PRT_PT_000021","Municipality":null,"County":"Pinellas","Water_Management_District":"Southwest Florida Water Management District","Souce_Dataset_Entity":"FDEM and FDOT-SIS","Souce_Dataset_Name":"Commercial and SIS ports","Source_Asset_ID":null,"Restricted_Public_Disclosure":null,"Notes":null,"Address":"1601 WEEDON ISLAND DR","City":"SAINT PETERSBURG","Zip":"33702","OWNERSHIP":" ","PARCELID":"17 30 21 00000 100 0000","FACILITY_T":"COMMERCIAL PORTS","Regional_Planning_Council":"Tampa Bay","FDEP_Regulatory_District":"Southwest District","RCP_Region":"Southwest","FDOT_District":7,"House_District_Number":60,"Senate_District_Number":18,"CTF_RL_2020":"Not Affected","CTF_RL_2040_IL":"Not Affected","CTF_RL_2040_INT":"Not Affected","CTF_RL_2070_IL":"Not Affected","CTF_RL_2070_INT":"Not Affected","SSF_RL_100YR_CURR":"High","SSF_RL_100YR_2040_IL":"High","SSF_RL_100YR_2040_INT":"High","SSF_RL_100YR_2070_IL":"High","SSF_RL_100YR_2070_INT":"High","SSF_RL_500YR_CURR":"High","SSF_RL_500YR_2040_IL":"High","SSF_RL_500YR_2040_INT":"High","SSF_RL_500YR_2070_IL":"High","SSF_RL_500YR_2070_INT":"High","RIF_RL_100YR_2020":"Not Affected","RIF_RL_100YR_2040":"Not Affected","RIF_RL_100YR_2070":"Not Affected","RIF_RL_500YR_2020":"Not Affected","RIF_RL_500YR_2040":"Not Affected","RIF_RL_500YR_2070":"Not Affected"}},{"type":"Feature","id":22,"geometry":{"type":"Point","coordinates":[-80.1220687620765,26.0879608102526]},"properties":{"OBJECTID":22,"FACILITY_I":100044,"SIS_NAME":"Port Everglades","DESIGNATIO":"SIS","DISTRICT":"4","Name":"PORT EVERGLADES","Asset_Elevation":null,"Owned_Maintained":"FDEM and FDOT-SIS","Asset":"Commercial and SIS ports","Asset_Sub_Type":null,"Asset_Type":"Ports","Asset_Group":"Transportation and Evacuation Routes","Asset_Relevancy":"Regionally Significant","Asset_ID":"PRT_PT_000022","Municipality":"Hollywood","County":"Broward","Water_Management_District":"South Florida Water Management District","Souce_Dataset_Entity":"FDEM and FDOT-SIS","Souce_Dataset_Name":"Commercial and SIS ports","Source_Asset_ID":null,"Restricted_Public_Disclosure":null,"Notes":null,"Address":"1850 ELLER DRIVE","City":"FORT LAUDERDALE","Zip":"33316","OWNERSHIP":"COUNTY","PARCELID":"504223250010","FACILITY_T":"COMMERCIAL-SIS PORT","Regional_Planning_Council":"South Florida","FDEP_Regulatory_District":"Southeast District","RCP_Region":"Southeast","FDOT_District":4,"House_District_Number":101,"Senate_District_Number":37,"CTF_RL_2020":"Not Affected","CTF_RL_2040_IL":"Not Affected","CTF_RL_2040_INT":"Not Affected","CTF_RL_2070_IL":"Not Affected","CTF_RL_2070_INT":"Not Affected","SSF_RL_100YR_CURR":"Not Affected","SSF_RL_100YR_2040_IL":"Not Affected","SSF_RL_100YR_2040_INT":"Not Affected","SSF_RL_100YR_2070_IL":"Not Affected","SSF_RL_100YR_2070_INT":"Not Affected","SSF_RL_500YR_CURR":"Not Affected","SSF_RL_500YR_2040_IL":"Not Affected","SSF_RL_500YR_2040_INT":"Not Affected","SSF_RL_500YR_2070_IL":"Not Affected","SSF_RL_500YR_2070_INT":"Not Affected","RIF_RL_100YR_2020":"Not Affected","RIF_RL_100YR_2040":"Not Affected","RIF_RL_100YR_2070":"Not Affected","RIF_RL_500YR_2020":"Not Affected","RIF_RL_500YR_2040":"Not Affected","RIF_RL_500YR_2070":"Not Affected"}},{"type":"Feature","id":23,"geometry":{"type":"Point","coordinates":[-80.0519480116168,26.7705438849296]},"properties":{"OBJECTID":23,"FACILITY_I":0,"SIS_NAME":" ","DESIGNATIO":" ","DISTRICT":" ","Name":"PORT OF PALM BEACH","Asset_Elevation":null,"Owned_Maintained":"FDEM and FDOT-SIS","Asset":"Commercial and SIS ports","Asset_Sub_Type":null,"Asset_Type":"Ports","Asset_Group":"Transportation and Evacuation Routes","Asset_Relevancy":"Regionally Significant","Asset_ID":"PRT_PT_000023","Municipality":"Riviera Beach","County":"Palm Beach","Water_Management_District":"South Florida Water Management District","Souce_Dataset_Entity":"FDEM and FDOT-SIS","Souce_Dataset_Name":"Commercial and SIS ports","Source_Asset_ID":null,"Restricted_Public_Disclosure":null,"Notes":null,"Address":"1 E 11TH ST STE 600","City":"WEST PALM BEACH","Zip":"33404","OWNERSHIP":"SPECIAL TAXING DISTRICT","PARCELID":" ","FACILITY_T":"COMMERCIAL PORTS","Regional_Planning_Council":"Treasure Coast","FDEP_Regulatory_District":"Southeast District","RCP_Region":"Southeast","FDOT_District":4,"House_District_Number":87,"Senate_District_Number":24,"CTF_RL_2020":"Not Affected","CTF_RL_2040_IL":"Not Affected","CTF_RL_2040_INT":"Not Affected","CTF_RL_2070_IL":"Not Affected","CTF_RL_2070_INT":"Not Affected","SSF_RL_100YR_CURR":"Not Affected","SSF_RL_100YR_2040_IL":"Not Affected","SSF_RL_100YR_2040_INT":"Not Affected","SSF_RL_100YR_2070_IL":"Not Affected","SSF_RL_100YR_2070_INT":"Not Affected","SSF_RL_500YR_CURR":"Not Affected","SSF_RL_500YR_2040_IL":"Not Affected","SSF_RL_500YR_2040_INT":"Not Affected","SSF_RL_500YR_2070_IL":"Medium","SSF_RL_500YR_2070_INT":"Medium","RIF_RL_100YR_2020":"Not Affected","RIF_RL_100YR_2040":"Not Affected","RIF_RL_100YR_2070":"Not Affected","RIF_RL_500YR_2020":"Not Affected","RIF_RL_500YR_2040":"Not Affected","RIF_RL_500YR_2070":"Not Affected"}},{"type":"Feature","id":24,"geometry":{"type":"Point","coordinates":[-80.6088158679314,28.4155390222032]},"properties":{"OBJECTID":24,"FACILITY_I":100043,"SIS_NAME":"Port Canaveral","DESIGNATIO":"SIS","DISTRICT":"5","Name":"PORT CANAVERAL, FL","Asset_Elevation":null,"Owned_Maintained":"FDEM and FDOT-SIS","Asset":"Commercial and SIS ports","Asset_Sub_Type":null,"Asset_Type":"Ports","Asset_Group":"Transportation and Evacuation Routes","Asset_Relevancy":"Regionally Significant","Asset_ID":"PRT_PT_000024","Municipality":null,"County":"Brevard","Water_Management_District":"St. Johns River Water Management District","Souce_Dataset_Entity":"FDEM and FDOT-SIS","Souce_Dataset_Name":"Commercial and SIS ports","Source_Asset_ID":null,"Restricted_Public_Disclosure":null,"Notes":null,"Address":"WAREHOUSE RD","City":"CAPE CANAVERAL","Zip":"32920","OWNERSHIP":" ","PARCELID":" ","FACILITY_T":"COMMERCIAL-SIS PORT","Regional_Planning_Council":"East Central Florida","FDEP_Regulatory_District":"Central District","RCP_Region":"Northeast","FDOT_District":5,"House_District_Number":31,"Senate_District_Number":19,"CTF_RL_2020":"Not Affected","CTF_RL_2040_IL":"Not Affected","CTF_RL_2040_INT":"Not Affected","CTF_RL_2070_IL":"Not Affected","CTF_RL_2070_INT":"Not Affected","SSF_RL_100YR_CURR":"Medium","SSF_RL_100YR_2040_IL":"Medium","SSF_RL_100YR_2040_INT":"Medium","SSF_RL_100YR_2070_IL":"High","SSF_RL_100YR_2070_INT":"High","SSF_RL_500YR_CURR":"High","SSF_RL_500YR_2040_IL":"High","SSF_RL_500YR_2040_INT":"High","SSF_RL_500YR_2070_IL":"High","SSF_RL_500YR_2070_INT":"High","RIF_RL_100YR_2020":"Not Affected","RIF_RL_100YR_2040":"Not Affected","RIF_RL_100YR_2070":"Not Affected","RIF_RL_500YR_2020":"Not Affected","RIF_RL_500YR_2040":"Not Affected","RIF_RL_500YR_2070":"Not Affected"}},{"type":"Feature","id":25,"geometry":{"type":"Point","coordinates":[-82.6299982806365,27.770092758472]},"properties":{"OBJECTID":25,"FACILITY_I":0,"SIS_NAME":" ","DESIGNATIO":" ","DISTRICT":" ","Name":"PORT OF ST. PETERSBURG","Asset_Elevation":null,"Owned_Maintained":"FDEM and FDOT-SIS","Asset":"Commercial and SIS ports","Asset_Sub_Type":null,"Asset_Type":"Ports","Asset_Group":"Transportation and Evacuation Routes","Asset_Relevancy":"Regionally Significant","Asset_ID":"PRT_PT_000025","Municipality":"St. Petersburg","County":"Pinellas","Water_Management_District":"Southwest Florida Water Management District","Souce_Dataset_Entity":"FDEM and FDOT-SIS","Souce_Dataset_Name":"Commercial and SIS ports","Source_Asset_ID":null,"Restricted_Public_Disclosure":null,"Notes":null,"Address":"300 2ND AVENUE SE","City":"SAINT PETERSBURG","Zip":"33701","OWNERSHIP":"MUNICIPAL","PARCELID":"17 31 19 74466 000 0061","FACILITY_T":"COMMERCIAL PORTS","Regional_Planning_Council":"Tampa Bay","FDEP_Regulatory_District":"Southwest District","RCP_Region":"Southwest","FDOT_District":7,"House_District_Number":60,"Senate_District_Number":16,"CTF_RL_2020":"Not Affected","CTF_RL_2040_IL":"Not Affected","CTF_RL_2040_INT":"Not Affected","CTF_RL_2070_IL":"Not Affected","CTF_RL_2070_INT":"Not Affected","SSF_RL_100YR_CURR":"High","SSF_RL_100YR_2040_IL":"High","SSF_RL_100YR_2040_INT":"High","SSF_RL_100YR_2070_IL":"High","SSF_RL_100YR_2070_INT":"High","SSF_RL_500YR_CURR":"High","SSF_RL_500YR_2040_IL":"High","SSF_RL_500YR_2040_INT":"High","SSF_RL_500YR_2070_IL":"High","SSF_RL_500YR_2070_INT":"High","RIF_RL_100YR_2020":"Not Affected","RIF_RL_100YR_2040":"Not Affected","RIF_RL_100YR_2070":"Not Affected","RIF_RL_500YR_2020":"Not Affected","RIF_RL_500YR_2040":"Not Affected","RIF_RL_500YR_2070":"Not Affected"}},{"type":"Feature","id":26,"geometry":{"type":"Point","coordinates":[-82.734975068703,27.5294617378494]},"properties":{"OBJECTID":26,"FACILITY_I":0,"SIS_NAME":" ","DESIGNATIO":" ","DISTRICT":" ","Name":"CITY OF ANNA MARIA - PUBLIC WORKS FACILITY","Asset_Elevation":null,"Owned_Maintained":"FDEM and FDOT-SIS","Asset":"Commercial and SIS ports","Asset_Sub_Type":null,"Asset_Type":"Ports","Asset_Group":"Transportation and Evacuation Routes","Asset_Relevancy":"Regionally Significant","Asset_ID":"PRT_PT_000026","Municipality":"Anna Maria","County":"Manatee","Water_Management_District":"Southwest Florida Water Management District","Souce_Dataset_Entity":"FDEM and FDOT-SIS","Souce_Dataset_Name":"Commercial and SIS ports","Source_Asset_ID":null,"Restricted_Public_Disclosure":null,"Notes":null,"Address":"402 PINE AVE","City":"BRADENTON BEACH","Zip":"34217","OWNERSHIP":"MUNICIPAL","PARCELID":"7040900008","FACILITY_T":"COMMERCIAL PORTS","Regional_Planning_Council":"Tampa Bay","FDEP_Regulatory_District":"Southwest District","RCP_Region":"Southwest","FDOT_District":1,"House_District_Number":71,"Senate_District_Number":20,"CTF_RL_2020":"Not Affected","CTF_RL_2040_IL":"Not Affected","CTF_RL_2040_INT":"Not Affected","CTF_RL_2070_IL":"Not Affected","CTF_RL_2070_INT":"Not Affected","SSF_RL_100YR_CURR":"High","SSF_RL_100YR_2040_IL":"High","SSF_RL_100YR_2040_INT":"High","SSF_RL_100YR_2070_IL":"High","SSF_RL_100YR_2070_INT":"High","SSF_RL_500YR_CURR":"High","SSF_RL_500YR_2040_IL":"High","SSF_RL_500YR_2040_INT":"High","SSF_RL_500YR_2070_IL":"High","SSF_RL_500YR_2070_INT":"High","RIF_RL_100YR_2020":"Not Affected","RIF_RL_100YR_2040":"Not Affected","RIF_RL_100YR_2070":"Not Affected","RIF_RL_500YR_2020":"Not Affected","RIF_RL_500YR_2040":"Not Affected","RIF_RL_500YR_2070":"Not Affected"}},{"type":"Feature","id":27,"geometry":{"type":"Point","coordinates":[-81.6230011491118,30.3529265847141]},"properties":{"OBJECTID":27,"FACILITY_I":0,"SIS_NAME":"JAXPORT - Talleyrand","DESIGNATIO":"SIS","DISTRICT":"2","Name":"JACKSONVILLE PORT AUTHORITY (JAXPORT)","Asset_Elevation":null,"Owned_Maintained":"FDEM and FDOT-SIS","Asset":"Commercial and SIS ports","Asset_Sub_Type":null,"Asset_Type":"Ports","Asset_Group":"Transportation and Evacuation Routes","Asset_Relevancy":"Regionally Significant","Asset_ID":"PRT_PT_000027","Municipality":"Jacksonville","County":"Duval","Water_Management_District":"St. Johns River Water Management District","Souce_Dataset_Entity":"FDEM and FDOT-SIS","Souce_Dataset_Name":"Commercial and SIS ports","Source_Asset_ID":null,"Restricted_Public_Disclosure":null,"Notes":null,"Address":"2831 TALLEYRAND AVE","City":"JACKSONVILLE","Zip":"32206","OWNERSHIP":"COUNTY","PARCELID":"1153275000R","FACILITY_T":"COMMERCIAL-SIS PORT","Regional_Planning_Council":"Northeast Florida","FDEP_Regulatory_District":"Northeast District","RCP_Region":"Northeast","FDOT_District":2,"House_District_Number":14,"Senate_District_Number":5,"CTF_RL_2020":"Not Affected","CTF_RL_2040_IL":"Not Affected","CTF_RL_2040_INT":"Not Affected","CTF_RL_2070_IL":"Not Affected","CTF_RL_2070_INT":"Not Affected","SSF_RL_100YR_CURR":"Not Affected","SSF_RL_100YR_2040_IL":"Not Affected","SSF_RL_100YR_2040_INT":"Not Affected","SSF_RL_100YR_2070_IL":"Not Affected","SSF_RL_100YR_2070_INT":"Not Affected","SSF_RL_500YR_CURR":"Not Affected","SSF_RL_500YR_2040_IL":"Not Affected","SSF_RL_500YR_2040_INT":"Not Affected","SSF_RL_500YR_2070_IL":"Low","SSF_RL_500YR_2070_INT":"Medium","RIF_RL_100YR_2020":"Not Affected","RIF_RL_100YR_2040":"Not Affected","RIF_RL_100YR_2070":"Not Affected","RIF_RL_500YR_2020":"Low","RIF_RL_500YR_2040":"Medium","RIF_RL_500YR_2070":"Medium"}},{"type":"Feature","id":28,"geometry":{"type":"Point","coordinates":[-80.6125834288587,28.4038619053661]},"properties":{"OBJECTID":28,"FACILITY_I":0,"SIS_NAME":" ","DESIGNATIO":" ","DISTRICT":" ","Name":"CANAVERAL PORT AUTHORITY","Asset_Elevation":null,"Owned_Maintained":"FDEM and FDOT-SIS","Asset":"Commercial and SIS ports","Asset_Sub_Type":null,"Asset_Type":"Ports","Asset_Group":"Transportation and Evacuation Routes","Asset_Relevancy":"Regionally Significant","Asset_ID":"PRT_PT_000028","Municipality":null,"County":"Brevard","Water_Management_District":"St. Johns River Water Management District","Souce_Dataset_Entity":"FDEM and FDOT-SIS","Souce_Dataset_Name":"Commercial and SIS ports","Source_Asset_ID":null,"Restricted_Public_Disclosure":null,"Notes":null,"Address":" ","City":"CAPE CANAVERAL","Zip":"32920","OWNERSHIP":"COUNTY","PARCELID":"24 371500   19","FACILITY_T":"COMMERCIAL PORTS","Regional_Planning_Council":"East Central Florida","FDEP_Regulatory_District":"Central District","RCP_Region":"Northeast","FDOT_District":5,"House_District_Number":31,"Senate_District_Number":19,"CTF_RL_2020":"Not Affected","CTF_RL_2040_IL":"Not Affected","CTF_RL_2040_INT":"Not Affected","CTF_RL_2070_IL":"Not Affected","CTF_RL_2070_INT":"Not Affected","SSF_RL_100YR_CURR":"Not Affected","SSF_RL_100YR_2040_IL":"Not Affected","SSF_RL_100YR_2040_INT":"Not Affected","SSF_RL_100YR_2070_IL":"Not Affected","SSF_RL_100YR_2070_INT":"Not Affected","SSF_RL_500YR_CURR":"Not Affected","SSF_RL_500YR_2040_IL":"Not Affected","SSF_RL_500YR_2040_INT":"Not Affected","SSF_RL_500YR_2070_IL":"Not Affected","SSF_RL_500YR_2070_INT":"Not Affected","RIF_RL_100YR_2020":"Not Affected","RIF_RL_100YR_2040":"Not Affected","RIF_RL_100YR_2070":"Not Affected","RIF_RL_500YR_2020":"Not Affected","RIF_RL_500YR_2040":"Not Affected","RIF_RL_500YR_2070":"Not Affected"}},{"type":"Feature","id":29,"geometry":{"type":"Point","coordinates":[-82.4438248992345,27.9495954739917]},"properties":{"OBJECTID":29,"FACILITY_I":0,"SIS_NAME":" ","DESIGNATIO":" ","DISTRICT":" ","Name":"PORT OF TAMPA - CRUISE TERMINAL","Asset_Elevation":null,"Owned_Maintained":"FDEM and FDOT-SIS","Asset":"Commercial and SIS ports","Asset_Sub_Type":null,"Asset_Type":"Ports","Asset_Group":"Transportation and Evacuation Routes","Asset_Relevancy":"Regionally Significant","Asset_ID":"PRT_PT_000029","Municipality":"Tampa","County":"Hillsborough","Water_Management_District":"Southwest Florida Water Management District","Souce_Dataset_Entity":"FDEM and FDOT-SIS","Souce_Dataset_Name":"Commercial and SIS ports","Source_Asset_ID":null,"Restricted_Public_Disclosure":null,"Notes":null,"Address":"1333 MCKAY STREET","City":"TAMPA","Zip":"33602","OWNERSHIP":"COUNTY","PARCELID":"1929194WZ000012000000A","FACILITY_T":"COMMERCIAL PORTS","Regional_Planning_Council":"Tampa Bay","FDEP_Regulatory_District":"Southwest District","RCP_Region":"Southwest","FDOT_District":7,"House_District_Number":65,"Senate_District_Number":16,"CTF_RL_2020":"Not Affected","CTF_RL_2040_IL":"Not Affected","CTF_RL_2040_INT":"Not Affected","CTF_RL_2070_IL":"Not Affected","CTF_RL_2070_INT":"Not Affected","SSF_RL_100YR_CURR":"Not Affected","SSF_RL_100YR_2040_IL":"Not Affected","SSF_RL_100YR_2040_INT":"Not Affected","SSF_RL_100YR_2070_IL":"Medium","SSF_RL_100YR_2070_INT":"Medium","SSF_RL_500YR_CURR":"High","SSF_RL_500YR_2040_IL":"High","SSF_RL_500YR_2040_INT":"High","SSF_RL_500YR_2070_IL":"High","SSF_RL_500YR_2070_INT":"High","RIF_RL_100YR_2020":"Not Affected","RIF_RL_100YR_2040":"Not Affected","RIF_RL_100YR_2070":"Not Affected","RIF_RL_500YR_2020":"Not Affected","RIF_RL_500YR_2040":"Not Affected","RIF_RL_500YR_2070":"Not Affected"}},{"type":"Feature","id":30,"geometry":{"type":"Point","coordinates":[-81.5764822019782,30.4062078909042]},"properties":{"OBJECTID":30,"FACILITY_I":0,"SIS_NAME":"JAXPORT - Dames Point","DESIGNATIO":"SIS","DISTRICT":"2","Name":"JAXPORT - Dames Point","Asset_Elevation":null,"Owned_Maintained":"FDEM and FDOT-SIS","Asset":"Commercial and SIS ports","Asset_Sub_Type":null,"Asset_Type":"Ports","Asset_Group":"Transportation and Evacuation Routes","Asset_Relevancy":"Regionally Significant","Asset_ID":"PRT_PT_000030","Municipality":"Jacksonville","County":"Duval","Water_Management_District":"St. Johns River Water Management District","Souce_Dataset_Entity":"FDEM and FDOT-SIS","Souce_Dataset_Name":"Commercial and SIS ports","Source_Asset_ID":null,"Restricted_Public_Disclosure":null,"Notes":null,"Address":" ","City":" ","Zip":" ","OWNERSHIP":" ","PARCELID":" ","FACILITY_T":"SIS PORT","Regional_Planning_Council":"Northeast Florida","FDEP_Regulatory_District":"Northeast District","RCP_Region":"Northeast","FDOT_District":2,"House_District_Number":14,"Senate_District_Number":5,"CTF_RL_2020":"Not Affected","CTF_RL_2040_IL":"Not Affected","CTF_RL_2040_INT":"Not Affected","CTF_RL_2070_IL":"Not Affected","CTF_RL_2070_INT":"Not Affected","SSF_RL_100YR_CURR":"Not Affected","SSF_RL_100YR_2040_IL":"Not Affected","SSF_RL_100YR_2040_INT":"Not Affected","SSF_RL_100YR_2070_IL":"Not Affected","SSF_RL_100YR_2070_INT":"Not Affected","SSF_RL_500YR_CURR":"Not Affected","SSF_RL_500YR_2040_IL":"Not Affected","SSF_RL_500YR_2040_INT":"Not Affected","SSF_RL_500YR_2070_IL":"Medium","SSF_RL_500YR_2070_INT":"Medium","RIF_RL_100YR_2020":"Low","RIF_RL_100YR_2040":"Low","RIF_RL_100YR_2070":"Low","RIF_RL_500YR_2020":"Low","RIF_RL_500YR_2040":"Low","RIF_RL_500YR_2070":"Low"}},{"type":"Feature","id":31,"geometry":{"type":"Point","coordinates":[-81.5410917321256,30.398135980036]},"properties":{"OBJECTID":31,"FACILITY_I":100047,"SIS_NAME":"JAXPORT - Blount Island","DESIGNATIO":"SIS","DISTRICT":"2","Name":"JAXPORT - Blount Island","Asset_Elevation":null,"Owned_Maintained":"FDEM and FDOT-SIS","Asset":"Commercial and SIS ports","Asset_Sub_Type":null,"Asset_Type":"Ports","Asset_Group":"Transportation and Evacuation Routes","Asset_Relevancy":"Regionally Significant","Asset_ID":"PRT_PT_000031","Municipality":"Jacksonville","County":"Duval","Water_Management_District":"St. Johns River Water Management District","Souce_Dataset_Entity":"FDEM and FDOT-SIS","Souce_Dataset_Name":"Commercial and SIS ports","Source_Asset_ID":null,"Restricted_Public_Disclosure":null,"Notes":null,"Address":" ","City":" ","Zip":" ","OWNERSHIP":" ","PARCELID":" ","FACILITY_T":"SIS PORT","Regional_Planning_Council":"Northeast Florida","FDEP_Regulatory_District":"Northeast District","RCP_Region":"Northeast","FDOT_District":2,"House_District_Number":15,"Senate_District_Number":4,"CTF_RL_2020":"Not Affected","CTF_RL_2040_IL":"Not Affected","CTF_RL_2040_INT":"Not Affected","CTF_RL_2070_IL":"Not Affected","CTF_RL_2070_INT":"Not Affected","SSF_RL_100YR_CURR":"Not Affected","SSF_RL_100YR_2040_IL":"Not Affected","SSF_RL_100YR_2040_INT":"Not Affected","SSF_RL_100YR_2070_IL":"Not Affected","SSF_RL_100YR_2070_INT":"Not Affected","SSF_RL_500YR_CURR":"Not Affected","SSF_RL_500YR_2040_IL":"Not Affected","SSF_RL_500YR_2040_INT":"Not Affected","SSF_RL_500YR_2070_IL":"Not Affected","SSF_RL_500YR_2070_INT":"Not Affected","RIF_RL_100YR_2020":"Not Affected","RIF_RL_100YR_2040":"Not Affected","RIF_RL_100YR_2070":"Not Affected","RIF_RL_500YR_2020":"Not Affected","RIF_RL_500YR_2040":"Not Affected","RIF_RL_500YR_2070":"Not Affected"}},{"type":"Feature","id":32,"geometry":{"type":"Point","coordinates":[-85.6306397946542,30.1380049147771]},"properties":{"OBJECTID":32,"FACILITY_I":331019,"SIS_NAME":"Port Panama City East Terminal","DESIGNATIO":"SIS","DISTRICT":"3","Name":"Port Panama City East Terminal","Asset_Elevation":null,"Owned_Maintained":"FDEM and FDOT-SIS","Asset":"Commercial and SIS ports","Asset_Sub_Type":null,"Asset_Type":"Ports","Asset_Group":"Transportation and Evacuation Routes","Asset_Relevancy":"Regionally Significant","Asset_ID":"PRT_PT_000032","Municipality":"Panama City","County":"Bay","Water_Management_District":"Northwest Florida Water Management District","Souce_Dataset_Entity":"FDEM and FDOT-SIS","Souce_Dataset_Name":"Commercial and SIS ports","Source_Asset_ID":null,"Restricted_Public_Disclosure":null,"Notes":null,"Address":" ","City":" ","Zip":" ","OWNERSHIP":" ","PARCELID":" ","FACILITY_T":"SIS PORT","Regional_Planning_Council":"Emerald Coast","FDEP_Regulatory_District":"Northwest District","RCP_Region":"Northwest","FDOT_District":3,"House_District_Number":6,"Senate_District_Number":2,"CTF_RL_2020":"Not Affected","CTF_RL_2040_IL":"Not Affected","CTF_RL_2040_INT":"Not Affected","CTF_RL_2070_IL":"Not Affected","CTF_RL_2070_INT":"Not Affected","SSF_RL_100YR_CURR":"Not Affected","SSF_RL_100YR_2040_IL":"Not Affected","SSF_RL_100YR_2040_INT":"Not Affected","SSF_RL_100YR_2070_IL":"Not Affected","SSF_RL_100YR_2070_INT":"Not Affected","SSF_RL_500YR_CURR":"Not Affected","SSF_RL_500YR_2040_IL":"Not Affected","SSF_RL_500YR_2040_INT":"Not Affected","SSF_RL_500YR_2070_IL":"Not Affected","SSF_RL_500YR_2070_INT":"Not Affected","RIF_RL_100YR_2020":"Not Affected","RIF_RL_100YR_2040":"Not Affected","RIF_RL_100YR_2070":"Not Affected","RIF_RL_500YR_2020":"Not Affected","RIF_RL_500YR_2040":"Not Affected","RIF_RL_500YR_2070":"Not Affected"}},{"type":"Feature","id":33,"geometry":{"type":"Point","coordinates":[-81.4640294410622,30.6749249299788]},"properties":{"OBJECTID":33,"FACILITY_I":100045,"SIS_NAME":"Port of Fernandina","DESIGNATIO":"STRATEGIC GROWTH","DISTRICT":"2","Name":"Port of Fernandina","Asset_Elevation":null,"Owned_Maintained":"FDEM and FDOT-SIS","Asset":"Commercial and SIS ports","Asset_Sub_Type":null,"Asset_Type":"Ports","Asset_Group":"Transportation and Evacuation Routes","Asset_Relevancy":"Regionally Significant","Asset_ID":"PRT_PT_000033","Municipality":"Fernandina Beach","County":"Nassau","Water_Management_District":"St. Johns River Water Management District","Souce_Dataset_Entity":"FDEM and FDOT-SIS","Souce_Dataset_Name":"Commercial and SIS ports","Source_Asset_ID":null,"Restricted_Public_Disclosure":null,"Notes":null,"Address":" ","City":" ","Zip":" ","OWNERSHIP":" ","PARCELID":" ","FACILITY_T":"SIS PORT","Regional_Planning_Council":"Northeast Florida","FDEP_Regulatory_District":"Northeast District","RCP_Region":"Northeast","FDOT_District":2,"House_District_Number":15,"Senate_District_Number":4,"CTF_RL_2020":"Not Affected","CTF_RL_2040_IL":"Not Affected","CTF_RL_2040_INT":"Not Affected","CTF_RL_2070_IL":"Not Affected","CTF_RL_2070_INT":"Not Affected","SSF_RL_100YR_CURR":"Not Affected","SSF_RL_100YR_2040_IL":"Not Affected","SSF_RL_100YR_2040_INT":"Not Affected","SSF_RL_100YR_2070_IL":"Not Affected","SSF_RL_100YR_2070_INT":"Not Affected","SSF_RL_500YR_CURR":"Not Affected","SSF_RL_500YR_2040_IL":"Not Affected","SSF_RL_500YR_2040_INT":"Not Affected","SSF_RL_500YR_2070_IL":"Low","SSF_RL_500YR_2070_INT":"Medium","RIF_RL_100YR_2020":"Not Affected","RIF_RL_100YR_2040":"Not Affected","RIF_RL_100YR_2070":"Not Affected","RIF_RL_500YR_2020":"Not Affected","RIF_RL_500YR_2040":"Low","RIF_RL_500YR_2070":"Low"}},{"type":"Feature","id":34,"geometry":{"type":"Point","coordinates":[-85.3016471013344,29.8369704692028]},"properties":{"OBJECTID":34,"FACILITY_I":100054,"SIS_NAME":"Port of Port St. Joe","DESIGNATIO":"STRATEGIC GROWTH","DISTRICT":"3","Name":"Port of Port St. Joe","Asset_Elevation":null,"Owned_Maintained":"FDEM and FDOT-SIS","Asset":"Commercial and SIS ports","Asset_Sub_Type":null,"Asset_Type":"Ports","Asset_Group":"Transportation and Evacuation Routes","Asset_Relevancy":"Regionally Significant","Asset_ID":"PRT_PT_000034","Municipality":"Port St. Joe","County":"Gulf","Water_Management_District":"Northwest Florida Water Management District","Souce_Dataset_Entity":"FDEM and FDOT-SIS","Souce_Dataset_Name":"Commercial and SIS ports","Source_Asset_ID":null,"Restricted_Public_Disclosure":null,"Notes":null,"Address":" ","City":" ","Zip":" ","OWNERSHIP":" ","PARCELID":" ","FACILITY_T":"SIS PORT","Regional_Planning_Council":"Apalachee","FDEP_Regulatory_District":"Northwest District","RCP_Region":"Northwest","FDOT_District":3,"House_District_Number":7,"Senate_District_Number":3,"CTF_RL_2020":"Not Affected","CTF_RL_2040_IL":"Not Affected","CTF_RL_2040_INT":"Not Affected","CTF_RL_2070_IL":"Not Affected","CTF_RL_2070_INT":"Not Affected","SSF_RL_100YR_CURR":"Not Affected","SSF_RL_100YR_2040_IL":"Not Affected","SSF_RL_100YR_2040_INT":"Not Affected","SSF_RL_100YR_2070_IL":"Not Affected","SSF_RL_100YR_2070_INT":"Not Affected","SSF_RL_500YR_CURR":"Not Affected","SSF_RL_500YR_2040_IL":"Not Affected","SSF_RL_500YR_2040_INT":"Not Affected","SSF_RL_500YR_2070_IL":"Not Affected","SSF_RL_500YR_2070_INT":"Not Affected","RIF_RL_100YR_2020":"Not Affected","RIF_RL_100YR_2040":"Not Affected","RIF_RL_100YR_2070":"Not Affected","RIF_RL_500YR_2020":"Not Affected","RIF_RL_500YR_2040":"Not Affected","RIF_RL_500YR_2070":"Not Affected"}},{"type":"Feature","id":35,"geometry":{"type":"Point","coordinates":[-82.4247489852454,27.9063331200145]},"properties":{"OBJECTID":35,"FACILITY_I":0,"SIS_NAME":"Port Tampa Bay - Sutton South","DESIGNATIO":"SIS","DISTRICT":"7","Name":"Port Tampa Bay - Sutton South","Asset_Elevation":null,"Owned_Maintained":"FDEM and FDOT-SIS","Asset":"Commercial and SIS ports","Asset_Sub_Type":null,"Asset_Type":"Ports","Asset_Group":"Transportation and Evacuation Routes","Asset_Relevancy":"Regionally Significant","Asset_ID":"PRT_PT_000035","Municipality":null,"County":"Hillsborough","Water_Management_District":"Southwest Florida Water Management District","Souce_Dataset_Entity":"FDEM and FDOT-SIS","Souce_Dataset_Name":"Commercial and SIS ports","Source_Asset_ID":null,"Restricted_Public_Disclosure":null,"Notes":null,"Address":" ","City":" ","Zip":" ","OWNERSHIP":" ","PARCELID":" ","FACILITY_T":"SIS PORT","Regional_Planning_Council":"Tampa Bay","FDEP_Regulatory_District":"Southwest District","RCP_Region":"Southwest","FDOT_District":7,"House_District_Number":62,"Senate_District_Number":16,"CTF_RL_2020":"Not Affected","CTF_RL_2040_IL":"Not Affected","CTF_RL_2040_INT":"Not Affected","CTF_RL_2070_IL":"Not Affected","CTF_RL_2070_INT":"Not Affected","SSF_RL_100YR_CURR":"High","SSF_RL_100YR_2040_IL":"High","SSF_RL_100YR_2040_INT":"High","SSF_RL_100YR_2070_IL":"High","SSF_RL_100YR_2070_INT":"High","SSF_RL_500YR_CURR":"High","SSF_RL_500YR_2040_IL":"High","SSF_RL_500YR_2040_INT":"High","SSF_RL_500YR_2070_IL":"High","SSF_RL_500YR_2070_INT":"High","RIF_RL_100YR_2020":"Low","RIF_RL_100YR_2040":"Not Affected","RIF_RL_100YR_2070":"Low","RIF_RL_500YR_2020":"Not Affected","RIF_RL_500YR_2040":"Low","RIF_RL_500YR_2070":"Medium"}},{"type":"Feature","id":36,"geometry":{"type":"Point","coordinates":[-82.4060281240245,27.8042194551008]},"properties":{"OBJECTID":36,"FACILITY_I":0,"SIS_NAME":"Port Tampa Bay - Redwing","DESIGNATIO":"SIS","DISTRICT":"7","Name":"Port Tampa Bay - Redwing","Asset_Elevation":null,"Owned_Maintained":"FDEM and FDOT-SIS","Asset":"Commercial and SIS ports","Asset_Sub_Type":null,"Asset_Type":"Ports","Asset_Group":"Transportation and Evacuation Routes","Asset_Relevancy":"Regionally Significant","Asset_ID":"PRT_PT_000036","Municipality":null,"County":"Hillsborough","Water_Management_District":"Southwest Florida Water Management District","Souce_Dataset_Entity":"FDEM and FDOT-SIS","Souce_Dataset_Name":"Commercial and SIS ports","Source_Asset_ID":null,"Restricted_Public_Disclosure":null,"Notes":null,"Address":" ","City":" ","Zip":" ","OWNERSHIP":" ","PARCELID":" ","FACILITY_T":"SIS PORT","Regional_Planning_Council":"Tampa Bay","FDEP_Regulatory_District":"Southwest District","RCP_Region":"Southwest","FDOT_District":7,"House_District_Number":62,"Senate_District_Number":16,"CTF_RL_2020":"Not Affected","CTF_RL_2040_IL":"Not Affected","CTF_RL_2040_INT":"Not Affected","CTF_RL_2070_IL":"Not Affected","CTF_RL_2070_INT":"Not Affected","SSF_RL_100YR_CURR":"Not Affected","SSF_RL_100YR_2040_IL":"Not Affected","SSF_RL_100YR_2040_INT":"Not Affected","SSF_RL_100YR_2070_IL":"Not Affected","SSF_RL_100YR_2070_INT":"Not Affected","SSF_RL_500YR_CURR":"Not Affected","SSF_RL_500YR_2040_IL":"Not Affected","SSF_RL_500YR_2040_INT":"Not Affected","SSF_RL_500YR_2070_IL":"Not Affected","SSF_RL_500YR_2070_INT":"Not Affected","RIF_RL_100YR_2020":"Not Affected","RIF_RL_100YR_2040":"Not Affected","RIF_RL_100YR_2070":"Not Affected","RIF_RL_500YR_2020":"Not Affected","RIF_RL_500YR_2040":"Not Affected","RIF_RL_500YR_2070":"Not Affected"}}]}